SITE ID,LOCATION IDENTIFIER,STREET ADDRESS,TOWN,merged address,STATE,ENTIRE SERVICE LINE MATERIAL CLASSIFICATION,BUILDING TYPE,SOURCE FILE,STREET NUMBER,STREET NAME,extracted_pswid,is_match,PWSID,SYSTEM NAME,lat,long
00000007R,"353 Main Street, Middletown, Ct",353 Main Street,Middletown,353 Main Street Middletown Ct,Ct,Lead,"Nonresidential, Non-School, Non-Daycare",2024-10-16_Ct0830011 Middletown_Lcrr_Material_Inventory.Xlsx,,,Ct0830011,True,Ct0830011,Middletown Water Department,41.5609821,-72.6507105
00000032C,"291 Main Street, Middletown, Ct",291 Main Street,Middletown,291 Main Street Middletown Ct,Ct,Lead,"Nonresidential, Non-School, Non-Daycare",2024-10-16_Ct0830011 Middletown_Lcrr_Material_Inventory.Xlsx,,,Ct0830011,True,Ct0830011,Middletown Water Department,41.5601645,-72.6501033
00000042R,"241 Court Street, Middletown, Ct",241 Court Street,Middletown,241 Court Street Middletown Ct,Ct,Lead,Multi-Family Residence,2024-10-16_Ct0830011 Middletown_Lcrr_Material_Inventory.Xlsx,,,Ct0830011,True,Ct0830011,Middletown Water Department,41.5591299,-72.6528365
00000050R,"346 Main Street, Middletown, Ct",346 Main Street,Middletown,346 Main Street Middletown Ct,Ct,Lead,"Nonresidential, Non-School, Non-Daycare",2024-10-16_Ct0830011 Middletown_Lcrr_Material_Inventory.Xlsx,,,Ct0830011,True,Ct0830011,Middletown Water Department,41.5611499,-72.6498409
00000071R,"318 Main Street, Middletown, Ct",318 Main Street,Middletown,318 Main Street Middletown Ct,Ct,Lead,"Nonresidential, Non-School, Non-Daycare",2024-10-16_Ct0830011 Middletown_Lcrr_Material_Inventory.Xlsx,,,Ct0830011,True,Ct0830011,Middletown Water Department,41.5608328,-72.6495801
00000093R,"15 Portland Street, Middletown, Ct",15 Portland Street,Middletown,15 Portland Street Middletown Ct,Ct,Lead,Other,2024-10-16_Ct0830011 Middletown_Lcrr_Material_Inventory.Xlsx,,,Ct0830011,True,Ct0830011,Middletown Water Department,41.5676486,-72.6514001
00000095R,"13 Liberty Street, Middletown, Ct",13 Liberty Street,Middletown,13 Liberty Street Middletown Ct,Ct,Lead,Multi-Family Residence,2024-10-16_Ct0830011 Middletown_Lcrr_Material_Inventory.Xlsx,,,Ct0830011,True,Ct0830011,Middletown Water Department,41.5638121,-72.6526912
00000102R,"111 Reservoir Road, Middletown, Ct",111 Reservoir Road,Middletown,111 Reservoir Road Middletown Ct,Ct,Lead,Single-Family Residence,2024-10-16_Ct0830011 Middletown_Lcrr_Material_Inventory.Xlsx,,,Ct0830011,True,Ct0830011,Middletown Water Department,41.5391976,-72.6157316
00000156R,"430 Boston Road, Middletown, Ct",430 Boston Road,Middletown,430 Boston Road Middletown Ct,Ct,Lead,Single-Family Residence,2024-10-16_Ct0830011 Middletown_Lcrr_Material_Inventory.Xlsx,,,Ct0830011,True,Ct0830011,Middletown Water Department,41.5460951,-72.6868305
00000165R,"186 College Street, Middletown, Ct",186 College Street,Middletown,186 College Street Middletown Ct,Ct,Lead,Multi-Family Residence,2024-10-16_Ct0830011 Middletown_Lcrr_Material_Inventory.Xlsx,,,Ct0830011,True,Ct0830011,Middletown Water Department,41.5579822,-72.6528215
00000169R,"33 Millbrook Road, Middletown, Ct",33 Millbrook Road,Middletown,33 Millbrook Road Middletown Ct,Ct,Lead,Single-Family Residence,2024-10-16_Ct0830011 Middletown_Lcrr_Material_Inventory.Xlsx,,,Ct0830011,True,Ct0830011,Middletown Water Department,41.5379385,-72.6348365
00000175R,"21 Millbrook Road, Middletown, Ct",21 Millbrook Road,Middletown,21 Millbrook Road Middletown Ct,Ct,Lead,Single-Family Residence,2024-10-16_Ct0830011 Middletown_Lcrr_Material_Inventory.Xlsx,,,Ct0830011,True,Ct0830011,Middletown Water Department,41.5382692,-72.634884
00000200R,"319 Main Street, Middletown, Ct",319 Main Street,Middletown,319 Main Street Middletown Ct,Ct,Lead,"Nonresidential, Non-School, Non-Daycare",2024-10-16_Ct0830011 Middletown_Lcrr_Material_Inventory.Xlsx,,,Ct0830011,True,Ct0830011,Middletown Water Department,41.5586549,-72.6486655
00000220R,"21 Hubbard Street, Middletown, Ct",21 Hubbard Street,Middletown,21 Hubbard Street Middletown Ct,Ct,Lead,Other,2024-10-16_Ct0830011 Middletown_Lcrr_Material_Inventory.Xlsx,,,Ct0830011,True,Ct0830011,Middletown Water Department,41.553373,-72.650636
00000247R,"45 Hubbard Street, Middletown, Ct",45 Hubbard Street,Middletown,45 Hubbard Street Middletown Ct,Ct,Lead,Multi-Family Residence,2024-10-16_Ct0830011 Middletown_Lcrr_Material_Inventory.Xlsx,,,Ct0830011,True,Ct0830011,Middletown Water Department,41.5542074,-72.6509367
00000252R,"23 Rome Avenue, Middletown, Ct",23 Rome Avenue,Middletown,23 Rome Avenue Middletown Ct,Ct,Lead,Multi-Family Residence,2024-10-16_Ct0830011 Middletown_Lcrr_Material_Inventory.Xlsx,,,Ct0830011,True,Ct0830011,Middletown Water Department,41.5671148,-72.6552384
00000272R,"41 Hotchkiss Street, Middletown, Ct",41 Hotchkiss Street,Middletown,41 Hotchkiss Street Middletown Ct,Ct,Lead,Multi-Family Residence,2024-10-16_Ct0830011 Middletown_Lcrr_Material_Inventory.Xlsx,,,Ct0830011,True,Ct0830011,Middletown Water Department,41.5544369,-72.6521415
00000291R,"332 Main Street, Middletown, Ct",332 Main Street,Middletown,332 Main Street Middletown Ct,Ct,Lead,"Nonresidential, Non-School, Non-Daycare",2024-10-16_Ct0830011 Middletown_Lcrr_Material_Inventory.Xlsx,,,Ct0830011,True,Ct0830011,Middletown Water Department,41.5610141,-72.6497062
00000303I,"109 Bridge Street, Middletown, Ct",109 Bridge Street,Middletown,109 Bridge Street Middletown Ct,Ct,Lead,Single-Family Residence,2024-10-16_Ct0830011 Middletown_Lcrr_Material_Inventory.Xlsx,,,Ct0830011,True,Ct0830011,Middletown Water Department,41.5690477,-72.6518749
00000306C,"515 Main Street, Middletown, Ct",515 Main Street,Middletown,515 Main Street Middletown Ct,Ct,Lead,"Nonresidential, Non-School, Non-Daycare",2024-10-16_Ct0830011 Middletown_Lcrr_Material_Inventory.Xlsx,,,Ct0830011,True,Ct0830011,Middletown Water Department,41.5630345,-72.6519151
00000307R,"43 Hubbard Street, Middletown, Ct",43 Hubbard Street,Middletown,43 Hubbard Street Middletown Ct,Ct,Lead,Multi-Family Residence,2024-10-16_Ct0830011 Middletown_Lcrr_Material_Inventory.Xlsx,,,Ct0830011,True,Ct0830011,Middletown Water Department,41.5540807,-72.6509102
00000332R,"101 South Main Street, Middletown, Ct",101 South Main Street,Middletown,101 South Main Street Middletown Ct,Ct,Lead,"Nonresidential, Non-School, Non-Daycare",2024-10-16_Ct0830011 Middletown_Lcrr_Material_Inventory.Xlsx,,,Ct0830011,True,Ct0830011,Middletown Water Department,41.5534787,-72.6495895
00000351R,"17 Warwick Street, Middletown, Ct",17 Warwick Street,Middletown,17 Warwick Street Middletown Ct,Ct,Lead,Multi-Family Residence,2024-10-16_Ct0830011 Middletown_Lcrr_Material_Inventory.Xlsx,,,Ct0830011,True,Ct0830011,Middletown Water Department,41.5496126,-72.6507057
00000420R,"51 Warwick Street, Middletown, Ct",51 Warwick Street,Middletown,51 Warwick Street Middletown Ct,Ct,Lead,"Nonresidential, Non-School, Non-Daycare",2024-10-16_Ct0830011 Middletown_Lcrr_Material_Inventory.Xlsx,,,Ct0830011,True,Ct0830011,Middletown Water Department,41.5489166,-72.6518979
00000429R,"265 Pearl Street, Middletown, Ct",265 Pearl Street,Middletown,265 Pearl Street Middletown Ct,Ct,Lead,Multi-Family Residence,2024-10-16_Ct0830011 Middletown_Lcrr_Material_Inventory.Xlsx,,,Ct0830011,True,Ct0830011,Middletown Water Department,41.5660643,-72.6568018
00000449R,"51 Hamlin Street, Middletown, Ct",51 Hamlin Street,Middletown,51 Hamlin Street Middletown Ct,Ct,Lead,Multi-Family Residence,2024-10-16_Ct0830011 Middletown_Lcrr_Material_Inventory.Xlsx,,,Ct0830011,True,Ct0830011,Middletown Water Department,41.556995,-72.6526731
00000513R,"178 Prospect Street, Middletown, Ct",178 Prospect Street,Middletown,178 Prospect Street Middletown Ct,Ct,Lead,Single-Family Residence,2024-10-16_Ct0830011 Middletown_Lcrr_Material_Inventory.Xlsx,,,Ct0830011,True,Ct0830011,Middletown Water Department,41.5651257,-72.6600283
00000526R,"329 Main Street, Middletown, Ct",329 Main Street,Middletown,329 Main Street Middletown Ct,Ct,Lead,"Nonresidential, Non-School, Non-Daycare",2024-10-16_Ct0830011 Middletown_Lcrr_Material_Inventory.Xlsx,,,Ct0830011,True,Ct0830011,Middletown Water Department,41.5607224,-72.6503507
00000536R,"124 Church Street, Middletown, Ct",124 Church Street,Middletown,124 Church Street Middletown Ct,Ct,Lead,Multi-Family Residence,2024-10-16_Ct0830011 Middletown_Lcrr_Material_Inventory.Xlsx,,,Ct0830011,True,Ct0830011,Middletown Water Department,41.5551443,-72.652473
00000566R,"166 Liberty Street, Middletown, Ct",166 Liberty Street,Middletown,166 Liberty Street Middletown Ct,Ct,Lead,Multi-Family Residence,2024-10-16_Ct0830011 Middletown_Lcrr_Material_Inventory.Xlsx,,,Ct0830011,True,Ct0830011,Middletown Water Department,41.5623065,-72.6587765
00000577R,"103 South Main Street, Middletown, Ct",103 South Main Street,Middletown,103 South Main Street Middletown Ct,Ct,Lead,"Nonresidential, Non-School, Non-Daycare",2024-10-16_Ct0830011 Middletown_Lcrr_Material_Inventory.Xlsx,,,Ct0830011,True,Ct0830011,Middletown Water Department,41.553302,-72.6496363
00000588R,"54 Spring Street, Middletown, Ct",54 Spring Street,Middletown,54 Spring Street Middletown Ct,Ct,Lead,Multi-Family Residence,2024-10-16_Ct0830011 Middletown_Lcrr_Material_Inventory.Xlsx,,,Ct0830011,True,Ct0830011,Middletown Water Department,41.566454,-72.6558619
00000592R,"22 Green Street, Middletown, Ct",22 Green Street,Middletown,22 Green Street Middletown Ct,Ct,Lead,"Nonresidential, Non-School, Non-Daycare",2024-10-16_Ct0830011 Middletown_Lcrr_Material_Inventory.Xlsx,,,Ct0830011,True,Ct0830011,Middletown Water Department,41.5651897,-72.6501302
00000624I,"118 Prospect Street, Middletown, Ct",118 Prospect Street,Middletown,118 Prospect Street Middletown Ct,Ct,Lead,Single-Family Residence,2024-10-16_Ct0830011 Middletown_Lcrr_Material_Inventory.Xlsx,,,Ct0830011,True,Ct0830011,Middletown Water Department,41.5634984,-72.6598499
00000631R,"102 Highland Avenue, Middletown, Ct",102 Highland Avenue,Middletown,102 Highland Avenue Middletown Ct,Ct,Lead,Single-Family Residence,2024-10-16_Ct0830011 Middletown_Lcrr_Material_Inventory.Xlsx,,,Ct0830011,True,Ct0830011,Middletown Water Department,41.5436611,-72.6555755
00000633R,"22 Warwick Street, Middletown, Ct",22 Warwick Street,Middletown,22 Warwick Street Middletown Ct,Ct,Lead,Multi-Family Residence,2024-10-16_Ct0830011 Middletown_Lcrr_Material_Inventory.Xlsx,,,Ct0830011,True,Ct0830011,Middletown Water Department,41.5498343,-72.6511166
00000637R,"15 Miller Street, Middletown, Ct",15 Miller Street,Middletown,15 Miller Street Middletown Ct,Ct,Lead,Single-Family Residence,2024-10-16_Ct0830011 Middletown_Lcrr_Material_Inventory.Xlsx,,,Ct0830011,True,Ct0830011,Middletown Water Department,41.5690801,-72.6523323
00000656R,"27 Pleasant Street, Middletown, Ct",27 Pleasant Street,Middletown,27 Pleasant Street Middletown Ct,Ct,Lead,"Nonresidential, Non-School, Non-Daycare",2024-10-16_Ct0830011 Middletown_Lcrr_Material_Inventory.Xlsx,,,Ct0830011,True,Ct0830011,Middletown Water Department,41.5558688,-72.6480631
00000664R,"238 Court Street, Middletown, Ct",238 Court Street,Middletown,238 Court Street Middletown Ct,Ct,Lead,Multi-Family Residence,2024-10-16_Ct0830011 Middletown_Lcrr_Material_Inventory.Xlsx,,,Ct0830011,True,Ct0830011,Middletown Water Department,41.559519,-72.6528713
00000674R,"51 Broad Street, Middletown, Ct",51 Broad Street,Middletown,51 Broad Street Middletown Ct,Ct,Lead,"Nonresidential, Non-School, Non-Daycare",2024-10-16_Ct0830011 Middletown_Lcrr_Material_Inventory.Xlsx,,,Ct0830011,True,Ct0830011,Middletown Water Department,41.5576754,-72.6508501
00000680R,"30 West Street, Middletown, Ct",30 West Street,Middletown,30 West Street Middletown Ct,Ct,Lead,Multi-Family Residence,2024-10-16_Ct0830011 Middletown_Lcrr_Material_Inventory.Xlsx,,,Ct0830011,True,Ct0830011,Middletown Water Department,41.5507468,-72.6715989
00000683R,"351 Butternut Street, Middletown, Ct",351 Butternut Street,Middletown,351 Butternut Street Middletown Ct,Ct,Lead,Multi-Family Residence,2024-10-16_Ct0830011 Middletown_Lcrr_Material_Inventory.Xlsx,,,Ct0830011,True,Ct0830011,Middletown Water Department,41.5504892,-72.6709177
00000775R,"84 Grand Street, Middletown, Ct",84 Grand Street,Middletown,84 Grand Street Middletown Ct,Ct,Lead,Multi-Family Residence,2024-10-16_Ct0830011 Middletown_Lcrr_Material_Inventory.Xlsx,,,Ct0830011,True,Ct0830011,Middletown Water Department,41.5640845,-72.6562082
00000783R,"50 Grand Street, Middletown, Ct",50 Grand Street,Middletown,50 Grand Street Middletown Ct,Ct,Lead,Multi-Family Residence,2024-10-16_Ct0830011 Middletown_Lcrr_Material_Inventory.Xlsx,,,Ct0830011,True,Ct0830011,Middletown Water Department,41.5644843,-72.6547072
00000799C,"472 Main Street, Middletown, Ct",472 Main Street,Middletown,472 Main Street Middletown Ct,Ct,Lead,"Nonresidential, Non-School, Non-Daycare",2024-10-16_Ct0830011 Middletown_Lcrr_Material_Inventory.Xlsx,,,Ct0830011,True,Ct0830011,Middletown Water Department,41.5626963,-72.6508174
00000834R,"168 South Main Street, Middletown, Ct",168 South Main Street,Middletown,168 South Main Street Middletown Ct,Ct,Lead,Multi-Family Residence,2024-10-16_Ct0830011 Middletown_Lcrr_Material_Inventory.Xlsx,,,Ct0830011,True,Ct0830011,Middletown Water Department,41.5515751,-72.6492589
00000835R,"26 Warwick Street, Middletown, Ct",26 Warwick Street,Middletown,26 Warwick Street Middletown Ct,Ct,Lead,Multi-Family Residence,2024-10-16_Ct0830011 Middletown_Lcrr_Material_Inventory.Xlsx,,,Ct0830011,True,Ct0830011,Middletown Water Department,41.5497647,-72.6513138
00000845R,"344 Main Street, Middletown, Ct",344 Main Street,Middletown,344 Main Street Middletown Ct,Ct,Lead,"Nonresidential, Non-School, Non-Daycare",2024-10-16_Ct0830011 Middletown_Lcrr_Material_Inventory.Xlsx,,,Ct0830011,True,Ct0830011,Middletown Water Department,41.56113,-72.6497823
00000849R,"90 North Main Street, Middletown, Ct",90 North Main Street,Middletown,90 North Main Street Middletown Ct,Ct,Lead,"Nonresidential, Non-School, Non-Daycare",2024-10-16_Ct0830011 Middletown_Lcrr_Material_Inventory.Xlsx,,,Ct0830011,True,Ct0830011,Middletown Water Department,41.569355,-72.654889
00000855R,"32 Evergreen Avenue, Middletown, Ct",32 Evergreen Avenue,Middletown,32 Evergreen Avenue Middletown Ct,Ct,Lead,Single-Family Residence,2024-10-16_Ct0830011 Middletown_Lcrr_Material_Inventory.Xlsx,,,Ct0830011,True,Ct0830011,Middletown Water Department,41.549999,-72.6360689
00000960R,"170 College Street, Middletown, Ct",170 College Street,Middletown,170 College Street Middletown Ct,Ct,Lead,Multi-Family Residence,2024-10-16_Ct0830011 Middletown_Lcrr_Material_Inventory.Xlsx,,,Ct0830011,True,Ct0830011,Middletown Water Department,41.5581838,-72.6522055
00000961R,"12 Pearl Street, Middletown, Ct",12 Pearl Street,Middletown,12 Pearl Street Middletown Ct,Ct,Lead,Single-Family Residence,2024-10-16_Ct0830011 Middletown_Lcrr_Material_Inventory.Xlsx,,,Ct0830011,True,Ct0830011,Middletown Water Department,41.5584031,-72.6523307
00000964R,"271 Court Street, Middletown, Ct",271 Court Street,Middletown,271 Court Street Middletown Ct,Ct,Lead,Single-Family Residence,2024-10-16_Ct0830011 Middletown_Lcrr_Material_Inventory.Xlsx,,,Ct0830011,True,Ct0830011,Middletown Water Department,41.5586355,-72.6541898
00000979R,"176 Pearl Street, Middletown, Ct",176 Pearl Street,Middletown,176 Pearl Street Middletown Ct,Ct,Lead,Multi-Family Residence,2024-10-16_Ct0830011 Middletown_Lcrr_Material_Inventory.Xlsx,,,Ct0830011,True,Ct0830011,Middletown Water Department,41.5634523,-72.6551579
00000984R,"7 Spring Street, Middletown, Ct",7 Spring Street,Middletown,7 Spring Street Middletown Ct,Ct,Lead,"Nonresidential, Non-School, Non-Daycare",2024-10-16_Ct0830011 Middletown_Lcrr_Material_Inventory.Xlsx,,,Ct0830011,True,Ct0830011,Middletown Water Department,41.5660739,-72.6537841
00000989R,"259 Pearl Street, Middletown, Ct",259 Pearl Street,Middletown,259 Pearl Street Middletown Ct,Ct,Lead,Multi-Family Residence,2024-10-16_Ct0830011 Middletown_Lcrr_Material_Inventory.Xlsx,,,Ct0830011,True,Ct0830011,Middletown Water Department,41.5658327,-72.6567344
00000995R,"26 Hunting Hill Avenue, Middletown, Ct",26 Hunting Hill Avenue,Middletown,26 Hunting Hill Avenue Middletown Ct,Ct,Lead,Single-Family Residence,2024-10-16_Ct0830011 Middletown_Lcrr_Material_Inventory.Xlsx,,,Ct0830011,True,Ct0830011,Middletown Water Department,41.5490371,-72.6492858
00001030R,"769 South Main Street, Middletown, Ct",769 South Main Street,Middletown,769 South Main Street Middletown Ct,Ct,Lead,Single-Family Residence,2024-10-16_Ct0830011 Middletown_Lcrr_Material_Inventory.Xlsx,,,Ct0830011,True,Ct0830011,Middletown Water Department,41.5360805,-72.6557716
00001040R,"153 Lincoln Street, Middletown, Ct",153 Lincoln Street,Middletown,153 Lincoln Street Middletown Ct,Ct,Lead,Multi-Family Residence,2024-10-16_Ct0830011 Middletown_Lcrr_Material_Inventory.Xlsx,,,Ct0830011,True,Ct0830011,Middletown Water Department,41.5612482,-72.6578115
00001049R,"156 Highland Avenue, Middletown, Ct",156 Highland Avenue,Middletown,156 Highland Avenue Middletown Ct,Ct,Lead,Single-Family Residence,2024-10-16_Ct0830011 Middletown_Lcrr_Material_Inventory.Xlsx,,,Ct0830011,True,Ct0830011,Middletown Water Department,41.5471106,-72.6535535
00001069R,"90 Woodward Avenue, Middletown, Ct",90 Woodward Avenue,Middletown,90 Woodward Avenue Middletown Ct,Ct,Lead,Single-Family Residence,2024-10-16_Ct0830011 Middletown_Lcrr_Material_Inventory.Xlsx,,,Ct0830011,True,Ct0830011,Middletown Water Department,41.5627361,-72.6585696
00001084R,"46 Green Street, Middletown, Ct",46 Green Street,Middletown,46 Green Street Middletown Ct,Ct,Lead,"Nonresidential, Non-School, Non-Daycare",2024-10-16_Ct0830011 Middletown_Lcrr_Material_Inventory.Xlsx,,,Ct0830011,True,Ct0830011,Middletown Water Department,41.5649401,-72.650988
00001090R,"3 Flower Street, Middletown, Ct",3 Flower Street,Middletown,3 Flower Street Middletown Ct,Ct,Lead,Single-Family Residence,2024-10-16_Ct0830011 Middletown_Lcrr_Material_Inventory.Xlsx,,,Ct0830011,True,Ct0830011,Middletown Water Department,41.5538649,-72.6436369
00001091R,"86 Lincoln Street, Middletown, Ct",86 Lincoln Street,Middletown,86 Lincoln Street Middletown Ct,Ct,Lead,Multi-Family Residence,2024-10-16_Ct0830011 Middletown_Lcrr_Material_Inventory.Xlsx,,,Ct0830011,True,Ct0830011,Middletown Water Department,41.5624513,-72.6552355
00001104R,"180 Liberty Street, Middletown, Ct",180 Liberty Street,Middletown,180 Liberty Street Middletown Ct,Ct,Lead,Single-Family Residence,2024-10-16_Ct0830011 Middletown_Lcrr_Material_Inventory.Xlsx,,,Ct0830011,True,Ct0830011,Middletown Water Department,41.5621449,-72.6592194
00001131R,"642 Main Street, Middletown, Ct",642 Main Street,Middletown,642 Main Street Middletown Ct,Ct,Lead,"Nonresidential, Non-School, Non-Daycare",2024-10-16_Ct0830011 Middletown_Lcrr_Material_Inventory.Xlsx,,,Ct0830011,True,Ct0830011,Middletown Water Department,41.5648408,-72.6519429
00001153R,"32 Fairview Avenue, Middletown, Ct",32 Fairview Avenue,Middletown,32 Fairview Avenue Middletown Ct,Ct,Lead,Single-Family Residence,2024-10-16_Ct0830011 Middletown_Lcrr_Material_Inventory.Xlsx,,,Ct0830011,True,Ct0830011,Middletown Water Department,41.5524048,-72.6638962
00001184R,"80 Pearl Street, Middletown, Ct",80 Pearl Street,Middletown,80 Pearl Street Middletown Ct,Ct,Lead,Multi-Family Residence,2024-10-16_Ct0830011 Middletown_Lcrr_Material_Inventory.Xlsx,,,Ct0830011,True,Ct0830011,Middletown Water Department,41.5604837,-72.6536474
00001196R,"32 Newtown Street, Middletown, Ct",32 Newtown Street,Middletown,32 Newtown Street Middletown Ct,Ct,Lead,Single-Family Residence,2024-10-16_Ct0830011 Middletown_Lcrr_Material_Inventory.Xlsx,,,Ct0830011,True,Ct0830011,Middletown Water Department,41.5381799,-72.643739
00001200R,"18 Warwick Street, Middletown, Ct",18 Warwick Street,Middletown,18 Warwick Street Middletown Ct,Ct,Lead,Multi-Family Residence,2024-10-16_Ct0830011 Middletown_Lcrr_Material_Inventory.Xlsx,,,Ct0830011,True,Ct0830011,Middletown Water Department,41.5499286,-72.6509624
00001201R,"95 Lincoln Street, Middletown, Ct",95 Lincoln Street,Middletown,95 Lincoln Street Middletown Ct,Ct,Lead,Multi-Family Residence,2024-10-16_Ct0830011 Middletown_Lcrr_Material_Inventory.Xlsx,,,Ct0830011,True,Ct0830011,Middletown Water Department,41.5620077,-72.6553859
00001205R,"67 Highland Avenue, Middletown, Ct",67 Highland Avenue,Middletown,67 Highland Avenue Middletown Ct,Ct,Lead,Multi-Family Residence,2024-10-16_Ct0830011 Middletown_Lcrr_Material_Inventory.Xlsx,,,Ct0830011,True,Ct0830011,Middletown Water Department,41.5412909,-72.6563554
00001210R,"19 Goodyear Avenue, Middletown, Ct",19 Goodyear Avenue,Middletown,19 Goodyear Avenue Middletown Ct,Ct,Lead,Single-Family Residence,2024-10-16_Ct0830011 Middletown_Lcrr_Material_Inventory.Xlsx,,,Ct0830011,True,Ct0830011,Middletown Water Department,41.5530065,-72.6513802
00001220R,"6 Loveland Street, Middletown, Ct",6 Loveland Street,Middletown,6 Loveland Street Middletown Ct,Ct,Lead,Multi-Family Residence,2024-10-16_Ct0830011 Middletown_Lcrr_Material_Inventory.Xlsx,,,Ct0830011,True,Ct0830011,Middletown Water Department,41.5528682,-72.6498825
00001225R,"444 High Street, Middletown, Ct",444 High Street,Middletown,444 High Street Middletown Ct,Ct,Lead,Multi-Family Residence,2024-10-16_Ct0830011 Middletown_Lcrr_Material_Inventory.Xlsx,,,Ct0830011,True,Ct0830011,Middletown Water Department,41.5631635,-72.6567341
00001259R,"28 Durant Terrace, Middletown, Ct",28 Durant Terrace,Middletown,28 Durant Terrace Middletown Ct,Ct,Lead,Multi-Family Residence,2024-10-16_Ct0830011 Middletown_Lcrr_Material_Inventory.Xlsx,,,Ct0830011,True,Ct0830011,Middletown Water Department,41.5454833,-72.6493786
00001299R,"608 High Street, Middletown, Ct",608 High Street,Middletown,608 High Street Middletown Ct,Ct,Lead,Single-Family Residence,2024-10-16_Ct0830011 Middletown_Lcrr_Material_Inventory.Xlsx,,,Ct0830011,True,Ct0830011,Middletown Water Department,41.5684842,-72.6585604
00001304R,"137 South Main Street, Middletown, Ct",137 South Main Street,Middletown,137 South Main Street Middletown Ct,Ct,Lead,"Nonresidential, Non-School, Non-Daycare",2024-10-16_Ct0830011 Middletown_Lcrr_Material_Inventory.Xlsx,,,Ct0830011,True,Ct0830011,Middletown Water Department,41.5524512,-72.6498058
00001326R,"183 East Main Street, Middletown, Ct",183 East Main Street,Middletown,183 East Main Street Middletown Ct,Ct,Lead,Multi-Family Residence,2024-10-16_Ct0830011 Middletown_Lcrr_Material_Inventory.Xlsx,,,Ct0830011,True,Ct0830011,Middletown Water Department,41.5511677,-72.6415936
00001335R,"498 High Street, Middletown, Ct",498 High Street,Middletown,498 High Street Middletown Ct,Ct,Lead,Multi-Family Residence,2024-10-16_Ct0830011 Middletown_Lcrr_Material_Inventory.Xlsx,,,Ct0830011,True,Ct0830011,Middletown Water Department,41.5648806,-72.6576114
00001336R,"491 High Street, Middletown, Ct",491 High Street,Middletown,491 High Street Middletown Ct,Ct,Lead,"Nonresidential, Non-School, Non-Daycare",2024-10-16_Ct0830011 Middletown_Lcrr_Material_Inventory.Xlsx,,,Ct0830011,True,Ct0830011,Middletown Water Department,41.5645183,-72.6579559
00001341R,"46 Warwick Street, Middletown, Ct",46 Warwick Street,Middletown,46 Warwick Street Middletown Ct,Ct,Lead,Multi-Family Residence,2024-10-16_Ct0830011 Middletown_Lcrr_Material_Inventory.Xlsx,,,Ct0830011,True,Ct0830011,Middletown Water Department,41.549432,-72.6520641
00001343R,"381 Main Street, Middletown, Ct",381 Main Street,Middletown,381 Main Street Middletown Ct,Ct,Lead,"Nonresidential, Non-School, Non-Daycare",2024-10-16_Ct0830011 Middletown_Lcrr_Material_Inventory.Xlsx,,,Ct0830011,True,Ct0830011,Middletown Water Department,41.5611818,-72.651207
00001357R,"8 Walnut Street, Middletown, Ct",8 Walnut Street,Middletown,8 Walnut Street Middletown Ct,Ct,Lead,Multi-Family Residence,2024-10-16_Ct0830011 Middletown_Lcrr_Material_Inventory.Xlsx,,,Ct0830011,True,Ct0830011,Middletown Water Department,41.5530844,-72.6377036
00001365R,"607 High Street, Middletown, Ct",607 High Street,Middletown,607 High Street Middletown Ct,Ct,Lead,Single-Family Residence,2024-10-16_Ct0830011 Middletown_Lcrr_Material_Inventory.Xlsx,,,Ct0830011,True,Ct0830011,Middletown Water Department,41.5684824,-72.6590251
00001370R,"25 Hubbard Street, Middletown, Ct",25 Hubbard Street,Middletown,25 Hubbard Street Middletown Ct,Ct,Lead,Single-Family Residence,2024-10-16_Ct0830011 Middletown_Lcrr_Material_Inventory.Xlsx,,,Ct0830011,True,Ct0830011,Middletown Water Department,41.5535205,-72.6508082
00001371R,"539 East Street, Middletown, Ct",539 East Street,Middletown,539 East Street Middletown Ct,Ct,Lead,Single-Family Residence,2024-10-16_Ct0830011 Middletown_Lcrr_Material_Inventory.Xlsx,,,Ct0830011,True,Ct0830011,Middletown Water Department,41.5783697,-72.7021925
00001374R,"59 Broad Street, Middletown, Ct",59 Broad Street,Middletown,59 Broad Street Middletown Ct,Ct,Lead,"Nonresidential, Non-School, Non-Daycare",2024-10-16_Ct0830011 Middletown_Lcrr_Material_Inventory.Xlsx,,,Ct0830011,True,Ct0830011,Middletown Water Department,41.557961,-72.6509771
00001390R,"50 Liberty Street, Middletown, Ct",50 Liberty Street,Middletown,50 Liberty Street Middletown Ct,Ct,Lead,Multi-Family Residence,2024-10-16_Ct0830011 Middletown_Lcrr_Material_Inventory.Xlsx,,,Ct0830011,True,Ct0830011,Middletown Water Department,41.5636112,-72.6542161
00001410R,"219 Prospect Street, Middletown, Ct",219 Prospect Street,Middletown,219 Prospect Street Middletown Ct,Ct,Lead,Multi-Family Residence,2024-10-16_Ct0830011 Middletown_Lcrr_Material_Inventory.Xlsx,,,Ct0830011,True,Ct0830011,Middletown Water Department,41.5662248,-72.6605245
00001417R,"221 College Street, Middletown, Ct",221 College Street,Middletown,221 College Street Middletown Ct,Ct,Lead,Multi-Family Residence,2024-10-16_Ct0830011 Middletown_Lcrr_Material_Inventory.Xlsx,,,Ct0830011,True,Ct0830011,Middletown Water Department,41.5569171,-72.6540249
00001418R,"412 Main Street, Middletown, Ct",412 Main Street,Middletown,412 Main Street Middletown Ct,Ct,Lead,"Nonresidential, Non-School, Non-Daycare",2024-10-16_Ct0830011 Middletown_Lcrr_Material_Inventory.Xlsx,,,Ct0830011,True,Ct0830011,Middletown Water Department,41.5620269,-72.6501916
00001429R,"85 Broad Street, Middletown, Ct",85 Broad Street,Middletown,85 Broad Street Middletown Ct,Ct,Lead,"Nonresidential, Non-School, Non-Daycare",2024-10-16_Ct0830011 Middletown_Lcrr_Material_Inventory.Xlsx,,,Ct0830011,True,Ct0830011,Middletown Water Department,41.5587144,-72.6514854
00001430R,"217 East Main Street, Middletown, Ct",217 East Main Street,Middletown,217 East Main Street Middletown Ct,Ct,Lead,"Nonresidential, Non-School, Non-Daycare",2024-10-16_Ct0830011 Middletown_Lcrr_Material_Inventory.Xlsx,,,Ct0830011,True,Ct0830011,Middletown Water Department,41.5504604,-72.6407449
00001431R,"427 High Street, Middletown, Ct",427 High Street,Middletown,427 High Street Middletown Ct,Ct,Lead,Multi-Family Residence,2024-10-16_Ct0830011 Middletown_Lcrr_Material_Inventory.Xlsx,,,Ct0830011,True,Ct0830011,Middletown Water Department,41.5625435,-72.6568767
00001433R,"41 Oak Street, Middletown, Ct",41 Oak Street,Middletown,41 Oak Street Middletown Ct,Ct,Lead,Multi-Family Residence,2024-10-16_Ct0830011 Middletown_Lcrr_Material_Inventory.Xlsx,,,Ct0830011,True,Ct0830011,Middletown Water Department,41.5508412,-72.6522983
00001448R,"424 High Street, Middletown, Ct",424 High Street,Middletown,424 High Street Middletown Ct,Ct,Lead,Multi-Family Residence,2024-10-16_Ct0830011 Middletown_Lcrr_Material_Inventory.Xlsx,,,Ct0830011,True,Ct0830011,Middletown Water Department,41.5625206,-72.656429
00001450R,"160 Pearl Street, Middletown, Ct",160 Pearl Street,Middletown,160 Pearl Street Middletown Ct,Ct,Lead,Multi-Family Residence,2024-10-16_Ct0830011 Middletown_Lcrr_Material_Inventory.Xlsx,,,Ct0830011,True,Ct0830011,Middletown Water Department,41.5629804,-72.6549416
00001454R,"78 Burr Avenue, Middletown, Ct",78 Burr Avenue,Middletown,78 Burr Avenue Middletown Ct,Ct,Lead,Single-Family Residence,2024-10-16_Ct0830011 Middletown_Lcrr_Material_Inventory.Xlsx,,,Ct0830011,True,Ct0830011,Middletown Water Department,41.5501641,-72.6487642
00001464R,"162 Liberty Street, Middletown, Ct",162 Liberty Street,Middletown,162 Liberty Street Middletown Ct,Ct,Lead,Multi-Family Residence,2024-10-16_Ct0830011 Middletown_Lcrr_Material_Inventory.Xlsx,,,Ct0830011,True,Ct0830011,Middletown Water Department,41.5623474,-72.6586018
00001485R,"87 Spring Street, Middletown, Ct",87 Spring Street,Middletown,87 Spring Street Middletown Ct,Ct,Lead,Multi-Family Residence,2024-10-16_Ct0830011 Middletown_Lcrr_Material_Inventory.Xlsx,,,Ct0830011,True,Ct0830011,Middletown Water Department,41.5661649,-72.6571319
00001511R,"529 High Street, Middletown, Ct",529 High Street,Middletown,529 High Street Middletown Ct,Ct,Lead,Single-Family Residence,2024-10-16_Ct0830011 Middletown_Lcrr_Material_Inventory.Xlsx,,,Ct0830011,True,Ct0830011,Middletown Water Department,41.5659101,-72.6585513
00001515R,"477 High Street, Middletown, Ct",477 High Street,Middletown,477 High Street Middletown Ct,Ct,Lead,Multi-Family Residence,2024-10-16_Ct0830011 Middletown_Lcrr_Material_Inventory.Xlsx,,,Ct0830011,True,Ct0830011,Middletown Water Department,41.5641778,-72.6577573
00001529R,"175 Prospect Street, Middletown, Ct",175 Prospect Street,Middletown,175 Prospect Street Middletown Ct,Ct,Lead,Multi-Family Residence,2024-10-16_Ct0830011 Middletown_Lcrr_Material_Inventory.Xlsx,,,Ct0830011,True,Ct0830011,Middletown Water Department,41.5650496,-72.6604221
00001533R,"211 Prospect Street, Middletown, Ct",211 Prospect Street,Middletown,211 Prospect Street Middletown Ct,Ct,Lead,Multi-Family Residence,2024-10-16_Ct0830011 Middletown_Lcrr_Material_Inventory.Xlsx,,,Ct0830011,True,Ct0830011,Middletown Water Department,41.5660156,-72.6605026
00001535R,"141 Bridge Street, Middletown, Ct",141 Bridge Street,Middletown,141 Bridge Street Middletown Ct,Ct,Lead,"Nonresidential, Non-School, Non-Daycare",2024-10-16_Ct0830011 Middletown_Lcrr_Material_Inventory.Xlsx,,,Ct0830011,True,Ct0830011,Middletown Water Department,41.5701478,-72.6522753
00001551R,"92 Lincoln Street, Middletown, Ct",92 Lincoln Street,Middletown,92 Lincoln Street Middletown Ct,Ct,Lead,Multi-Family Residence,2024-10-16_Ct0830011 Middletown_Lcrr_Material_Inventory.Xlsx,,,Ct0830011,True,Ct0830011,Middletown Water Department,41.5623932,-72.6554258
00001563R,"159 East Main Street, Middletown, Ct",159 East Main Street,Middletown,159 East Main Street Middletown Ct,Ct,Lead,Multi-Family Residence,2024-10-16_Ct0830011 Middletown_Lcrr_Material_Inventory.Xlsx,,,Ct0830011,True,Ct0830011,Middletown Water Department,41.5516536,-72.6422365
00001571R,"250 Pearl Street, Middletown, Ct",250 Pearl Street,Middletown,250 Pearl Street Middletown Ct,Ct,Lead,Multi-Family Residence,2024-10-16_Ct0830011 Middletown_Lcrr_Material_Inventory.Xlsx,,,Ct0830011,True,Ct0830011,Middletown Water Department,41.5656947,-72.6562206
00001603R,"50 Washington Street, Middletown, Ct",50 Washington Street,Middletown,50 Washington Street Middletown Ct,Ct,Lead,"Nonresidential, Non-School, Non-Daycare",2024-10-16_Ct0830011 Middletown_Lcrr_Material_Inventory.Xlsx,,,Ct0830011,True,Ct0830011,Middletown Water Department,41.562983,-72.649631
00001614R,"30 South Main Street, Middletown, Ct",30 South Main Street,Middletown,30 South Main Street Middletown Ct,Ct,Lead,Multi-Family Residence,2024-10-16_Ct0830011 Middletown_Lcrr_Material_Inventory.Xlsx,,,Ct0830011,True,Ct0830011,Middletown Water Department,41.5553274,-72.6484087
00001619R,"144 Pearl Street, Middletown, Ct",144 Pearl Street,Middletown,144 Pearl Street Middletown Ct,Ct,Lead,Multi-Family Residence,2024-10-16_Ct0830011 Middletown_Lcrr_Material_Inventory.Xlsx,,,Ct0830011,True,Ct0830011,Middletown Water Department,41.5624528,-72.6546868
00001624R,"7 Walnut Street, Middletown, Ct",7 Walnut Street,Middletown,7 Walnut Street Middletown Ct,Ct,Lead,Multi-Family Residence,2024-10-16_Ct0830011 Middletown_Lcrr_Material_Inventory.Xlsx,,,Ct0830011,True,Ct0830011,Middletown Water Department,41.5528767,-72.6382359
00001672R,"179 Prospect Street, Middletown, Ct",179 Prospect Street,Middletown,179 Prospect Street Middletown Ct,Ct,Lead,Single-Family Residence,2024-10-16_Ct0830011 Middletown_Lcrr_Material_Inventory.Xlsx,,,Ct0830011,True,Ct0830011,Middletown Water Department,41.5651409,-72.6603814
00001680R,"258 Pearl Street, Middletown, Ct",258 Pearl Street,Middletown,258 Pearl Street Middletown Ct,Ct,Lead,Multi-Family Residence,2024-10-16_Ct0830011 Middletown_Lcrr_Material_Inventory.Xlsx,,,Ct0830011,True,Ct0830011,Middletown Water Department,41.5658737,-72.6563131
00001694R,"151 Pearl Street, Middletown, Ct",151 Pearl Street,Middletown,151 Pearl Street Middletown Ct,Ct,Lead,Single-Family Residence,2024-10-16_Ct0830011 Middletown_Lcrr_Material_Inventory.Xlsx,,,Ct0830011,True,Ct0830011,Middletown Water Department,41.5625941,-72.6552304
00001712R,"154 Washington Street, Middletown, Ct",154 Washington Street,Middletown,154 Washington Street Middletown Ct,Ct,Lead,Multi-Family Residence,2024-10-16_Ct0830011 Middletown_Lcrr_Material_Inventory.Xlsx,,,Ct0830011,True,Ct0830011,Middletown Water Department,41.5615939,-72.6540233
00001742R,"211 East Main Street, Middletown, Ct",211 East Main Street,Middletown,211 East Main Street Middletown Ct,Ct,Lead,Multi-Family Residence,2024-10-16_Ct0830011 Middletown_Lcrr_Material_Inventory.Xlsx,,,Ct0830011,True,Ct0830011,Middletown Water Department,41.5505862,-72.6408455
00001755R,"156 Grand Street, Middletown, Ct",156 Grand Street,Middletown,156 Grand Street Middletown Ct,Ct,Lead,Multi-Family Residence,2024-10-16_Ct0830011 Middletown_Lcrr_Material_Inventory.Xlsx,,,Ct0830011,True,Ct0830011,Middletown Water Department,41.5632784,-72.659255
00001806R,"30 Warwick Street, Middletown, Ct",30 Warwick Street,Middletown,30 Warwick Street Middletown Ct,Ct,Lead,Multi-Family Residence,2024-10-16_Ct0830011 Middletown_Lcrr_Material_Inventory.Xlsx,,,Ct0830011,True,Ct0830011,Middletown Water Department,41.5496966,-72.6515125
00001810R,"221 East Main Street, Middletown, Ct",221 East Main Street,Middletown,221 East Main Street Middletown Ct,Ct,Lead,Multi-Family Residence,2024-10-16_Ct0830011 Middletown_Lcrr_Material_Inventory.Xlsx,,,Ct0830011,True,Ct0830011,Middletown Water Department,41.5503597,-72.640576
00001834R,"22 South Main Street, Middletown, Ct",22 South Main Street,Middletown,22 South Main Street Middletown Ct,Ct,Lead,"Nonresidential, Non-School, Non-Daycare",2024-10-16_Ct0830011 Middletown_Lcrr_Material_Inventory.Xlsx,,,Ct0830011,True,Ct0830011,Middletown Water Department,41.5555087,-72.6483359
00001845R,"3 Silver Street, Middletown, Ct",3 Silver Street,Middletown,3 Silver Street Middletown Ct,Ct,Lead,"Nonresidential, Non-School, Non-Daycare",2024-10-16_Ct0830011 Middletown_Lcrr_Material_Inventory.Xlsx,,,Ct0830011,True,Ct0830011,Middletown Water Department,41.5517898,-72.6413141
00002041R,"141 Johnson Street, Middletown, Ct",141 Johnson Street,Middletown,141 Johnson Street Middletown Ct,Ct,Lead,Multi-Family Residence,2024-10-16_Ct0830011 Middletown_Lcrr_Material_Inventory.Xlsx,,,Ct0830011,True,Ct0830011,Middletown Water Department,41.571447,-72.6602109
00002049R,"55 Brainerd Avenue, Middletown, Ct",55 Brainerd Avenue,Middletown,55 Brainerd Avenue Middletown Ct,Ct,Lead,"Nonresidential, Non-School, Non-Daycare",2024-10-16_Ct0830011 Middletown_Lcrr_Material_Inventory.Xlsx,,,Ct0830011,True,Ct0830011,Middletown Water Department,41.551729,-72.6577463
00002050R,"7 Evergreen Avenue, Middletown, Ct",7 Evergreen Avenue,Middletown,7 Evergreen Avenue Middletown Ct,Ct,Lead,Single-Family Residence,2024-10-16_Ct0830011 Middletown_Lcrr_Material_Inventory.Xlsx,,,Ct0830011,True,Ct0830011,Middletown Water Department,41.551869,-72.6362981
00002069R,"41 Silver Street, Middletown, Ct",41 Silver Street,Middletown,41 Silver Street Middletown Ct,Ct,Lead,"Nonresidential, Non-School, Non-Daycare",2024-10-16_Ct0830011 Middletown_Lcrr_Material_Inventory.Xlsx,,,Ct0830011,True,Ct0830011,Middletown Water Department,41.5531089,-72.6362879
00002075R,"78 Home Avenue, Middletown, Ct",78 Home Avenue,Middletown,78 Home Avenue Middletown Ct,Ct,Lead,Single-Family Residence,2024-10-16_Ct0830011 Middletown_Lcrr_Material_Inventory.Xlsx,,,Ct0830011,True,Ct0830011,Middletown Water Department,41.5518786,-72.6560736
00002076R,"195 Liberty Street, Middletown, Ct",195 Liberty Street,Middletown,195 Liberty Street Middletown Ct,Ct,Lead,Multi-Family Residence,2024-10-16_Ct0830011 Middletown_Lcrr_Material_Inventory.Xlsx,,,Ct0830011,True,Ct0830011,Middletown Water Department,41.5615921,-72.6599674
00002079R,"23 Brainerd Avenue, Middletown, Ct",23 Brainerd Avenue,Middletown,23 Brainerd Avenue Middletown Ct,Ct,Lead,Single-Family Residence,2024-10-16_Ct0830011 Middletown_Lcrr_Material_Inventory.Xlsx,,,Ct0830011,True,Ct0830011,Middletown Water Department,41.5507143,-72.657307
00002086R,"54 Middlefield Street, Middletown, Ct",54 Middlefield Street,Middletown,54 Middlefield Street Middletown Ct,Ct,Lead,Single-Family Residence,2024-10-16_Ct0830011 Middletown_Lcrr_Material_Inventory.Xlsx,,,Ct0830011,True,Ct0830011,Middletown Water Department,41.5515461,-72.6741024
00002087R,"42 Middlefield Street, Middletown, Ct",42 Middlefield Street,Middletown,42 Middlefield Street Middletown Ct,Ct,Lead,Single-Family Residence,2024-10-16_Ct0830011 Middletown_Lcrr_Material_Inventory.Xlsx,,,Ct0830011,True,Ct0830011,Middletown Water Department,41.5514053,-72.6736723
00002098R,"21 Eastern Drive, Middletown, Ct",21 Eastern Drive,Middletown,21 Eastern Drive Middletown Ct,Ct,Lead,Multi-Family Residence,2024-10-16_Ct0830011 Middletown_Lcrr_Material_Inventory.Xlsx,,,Ct0830011,True,Ct0830011,Middletown Water Department,41.5589363,-72.6347778
00002099R,"626 High Street, Middletown, Ct",626 High Street,Middletown,626 High Street Middletown Ct,Ct,Lead,Multi-Family Residence,2024-10-16_Ct0830011 Middletown_Lcrr_Material_Inventory.Xlsx,,,Ct0830011,True,Ct0830011,Middletown Water Department,41.5691822,-72.6586323
00002105I,"41 Laurel Street, Middletown, Ct",41 Laurel Street,Middletown,41 Laurel Street Middletown Ct,Ct,Lead,Single-Family Residence,2024-10-16_Ct0830011 Middletown_Lcrr_Material_Inventory.Xlsx,,,Ct0830011,True,Ct0830011,Middletown Water Department,41.5495102,-72.6328558
00002107R,"32 Roberts Street, Middletown, Ct",32 Roberts Street,Middletown,32 Roberts Street Middletown Ct,Ct,Lead,Single-Family Residence,2024-10-16_Ct0830011 Middletown_Lcrr_Material_Inventory.Xlsx,,,Ct0830011,True,Ct0830011,Middletown Water Department,41.5504576,-72.6347301
00002108R,"86 High Street, Middletown, Ct",86 High Street,Middletown,86 High Street Middletown Ct,Ct,Lead,Multi-Family Residence,2024-10-16_Ct0830011 Middletown_Lcrr_Material_Inventory.Xlsx,,,Ct0830011,True,Ct0830011,Middletown Water Department,41.5514117,-72.6527733
00002130R,"70 Oak Street, Middletown, Ct",70 Oak Street,Middletown,70 Oak Street Middletown Ct,Ct,Lead,Single-Family Residence,2024-10-16_Ct0830011 Middletown_Lcrr_Material_Inventory.Xlsx,,,Ct0830011,True,Ct0830011,Middletown Water Department,41.5518227,-72.6519357
00002131R,"43 Silver Street, Middletown, Ct",43 Silver Street,Middletown,43 Silver Street Middletown Ct,Ct,Lead,Single-Family Residence,2024-10-16_Ct0830011 Middletown_Lcrr_Material_Inventory.Xlsx,,,Ct0830011,True,Ct0830011,Middletown Water Department,41.5531087,-72.63592
00002142R,"23 Evergreen Avenue, Middletown, Ct",23 Evergreen Avenue,Middletown,23 Evergreen Avenue Middletown Ct,Ct,Lead,Single-Family Residence,2024-10-16_Ct0830011 Middletown_Lcrr_Material_Inventory.Xlsx,,,Ct0830011,True,Ct0830011,Middletown Water Department,41.5508061,-72.6358798
00002145R,"128 Washington Street, Middletown, Ct",128 Washington Street,Middletown,128 Washington Street Middletown Ct,Ct,Lead,"Nonresidential, Non-School, Non-Daycare",2024-10-16_Ct0830011 Middletown_Lcrr_Material_Inventory.Xlsx,,,Ct0830011,True,Ct0830011,Middletown Water Department,41.5620247,-72.6529382
00002147R,"359 Butternut Street, Middletown, Ct",359 Butternut Street,Middletown,359 Butternut Street Middletown Ct,Ct,Lead,Single-Family Residence,2024-10-16_Ct0830011 Middletown_Lcrr_Material_Inventory.Xlsx,,,Ct0830011,True,Ct0830011,Middletown Water Department,41.5504269,-72.6712336
00002161R,"17 Brainerd Avenue, Middletown, Ct",17 Brainerd Avenue,Middletown,17 Brainerd Avenue Middletown Ct,Ct,Lead,Single-Family Residence,2024-10-16_Ct0830011 Middletown_Lcrr_Material_Inventory.Xlsx,,,Ct0830011,True,Ct0830011,Middletown Water Department,41.5505831,-72.6572459
00002162R,"16 Brainerd Avenue, Middletown, Ct",16 Brainerd Avenue,Middletown,16 Brainerd Avenue Middletown Ct,Ct,Lead,Single-Family Residence,2024-10-16_Ct0830011 Middletown_Lcrr_Material_Inventory.Xlsx,,,Ct0830011,True,Ct0830011,Middletown Water Department,41.5505494,-72.6567666
00002173R,"159 Boston Road, Middletown, Ct",159 Boston Road,Middletown,159 Boston Road Middletown Ct,Ct,Lead,Single-Family Residence,2024-10-16_Ct0830011 Middletown_Lcrr_Material_Inventory.Xlsx,,,Ct0830011,True,Ct0830011,Middletown Water Department,41.5509026,-72.6801914
00002184R,"36 Miles Avenue, Middletown, Ct",36 Miles Avenue,Middletown,36 Miles Avenue Middletown Ct,Ct,Lead,"Nonresidential, Non-School, Non-Daycare",2024-10-16_Ct0830011 Middletown_Lcrr_Material_Inventory.Xlsx,,,Ct0830011,True,Ct0830011,Middletown Water Department,41.550962,-72.6580419
00002191R,"10 Brainerd Avenue, Middletown, Ct",10 Brainerd Avenue,Middletown,10 Brainerd Avenue Middletown Ct,Ct,Lead,Multi-Family Residence,2024-10-16_Ct0830011 Middletown_Lcrr_Material_Inventory.Xlsx,,,Ct0830011,True,Ct0830011,Middletown Water Department,41.5504187,-72.6566966
00002193R,"10 Silver Street, Middletown, Ct",10 Silver Street,Middletown,10 Silver Street Middletown Ct,Ct,Lead,Single-Family Residence,2024-10-16_Ct0830011 Middletown_Lcrr_Material_Inventory.Xlsx,,,Ct0830011,True,Ct0830011,Middletown Water Department,41.5515221,-72.6405094
00002202R,"26 West Silver Street, Middletown, Ct",26 West Silver Street,Middletown,26 West Silver Street Middletown Ct,Ct,Lead,Single-Family Residence,2024-10-16_Ct0830011 Middletown_Lcrr_Material_Inventory.Xlsx,,,Ct0830011,True,Ct0830011,Middletown Water Department,41.5511637,-72.6444829
00002203R,"173 Vine Street, Middletown, Ct",173 Vine Street,Middletown,173 Vine Street Middletown Ct,Ct,Lead,Other,2024-10-16_Ct0830011 Middletown_Lcrr_Material_Inventory.Xlsx,,,Ct0830011,True,Ct0830011,Middletown Water Department,41.5585716,-72.6610199
00002212R,"48 Bow Lane, Middletown, Ct",48 Bow Lane,Middletown,48 Bow Lane Middletown Ct,Ct,Lead,Single-Family Residence,2024-10-16_Ct0830011 Middletown_Lcrr_Material_Inventory.Xlsx,,,Ct0830011,True,Ct0830011,Middletown Water Department,41.5471609,-72.6321077
00002231R,"67 Oak Street, Middletown, Ct",67 Oak Street,Middletown,67 Oak Street Middletown Ct,Ct,Lead,Multi-Family Residence,2024-10-16_Ct0830011 Middletown_Lcrr_Material_Inventory.Xlsx,,,Ct0830011,True,Ct0830011,Middletown Water Department,41.5516827,-72.652329
00002242R,"20 Maple Street, Middletown, Ct",20 Maple Street,Middletown,20 Maple Street Middletown Ct,Ct,Lead,Multi-Family Residence,2024-10-16_Ct0830011 Middletown_Lcrr_Material_Inventory.Xlsx,,,Ct0830011,True,Ct0830011,Middletown Water Department,41.5546737,-72.6399158
00002244R,"59 Warwick Street, Middletown, Ct",59 Warwick Street,Middletown,59 Warwick Street Middletown Ct,Ct,Lead,Multi-Family Residence,2024-10-16_Ct0830011 Middletown_Lcrr_Material_Inventory.Xlsx,,,Ct0830011,True,Ct0830011,Middletown Water Department,41.5488313,-72.6522914
00002245R,"55 Warwick Street, Middletown, Ct",55 Warwick Street,Middletown,55 Warwick Street Middletown Ct,Ct,Lead,Multi-Family Residence,2024-10-16_Ct0830011 Middletown_Lcrr_Material_Inventory.Xlsx,,,Ct0830011,True,Ct0830011,Middletown Water Department,41.5489115,-72.652116
00002257R,"40 Durant Street, Middletown, Ct",40 Durant Street,Middletown,40 Durant Street Middletown Ct,Ct,Lead,Multi-Family Residence,2024-10-16_Ct0830011 Middletown_Lcrr_Material_Inventory.Xlsx,,,Ct0830011,True,Ct0830011,Middletown Water Department,41.5438277,-72.6496065
00002260R,"46 Durant Terrace, Middletown, Ct",46 Durant Terrace,Middletown,46 Durant Terrace Middletown Ct,Ct,Lead,Multi-Family Residence,2024-10-16_Ct0830011 Middletown_Lcrr_Material_Inventory.Xlsx,,,Ct0830011,True,Ct0830011,Middletown Water Department,41.5449848,-72.6493267
00002272R,"119 Highland Avenue, Middletown, Ct",119 Highland Avenue,Middletown,119 Highland Avenue Middletown Ct,Ct,Lead,Single-Family Residence,2024-10-16_Ct0830011 Middletown_Lcrr_Material_Inventory.Xlsx,,,Ct0830011,True,Ct0830011,Middletown Water Department,41.5452164,-72.6559932
00002274R,"56 Silver Street, Middletown, Ct",56 Silver Street,Middletown,56 Silver Street Middletown Ct,Ct,Lead,Multi-Family Residence,2024-10-16_Ct0830011 Middletown_Lcrr_Material_Inventory.Xlsx,,,Ct0830011,True,Ct0830011,Middletown Water Department,41.5528035,-72.6342782
00002284R,"439 High Street, Middletown, Ct",439 High Street,Middletown,439 High Street Middletown Ct,Ct,Lead,Multi-Family Residence,2024-10-16_Ct0830011 Middletown_Lcrr_Material_Inventory.Xlsx,,,Ct0830011,True,Ct0830011,Middletown Water Department,41.5628948,-72.6571245
00002293R,"787 Ridge Road, Middletown, Ct",787 Ridge Road,Middletown,787 Ridge Road Middletown Ct,Ct,Lead,Single-Family Residence,2024-10-16_Ct0830011 Middletown_Lcrr_Material_Inventory.Xlsx,,,Ct0830011,True,Ct0830011,Middletown Water Department,41.5275651,-72.6416806
00002305R,"41 Spring Street, Middletown, Ct",41 Spring Street,Middletown,41 Spring Street Middletown Ct,Ct,Lead,Multi-Family Residence,2024-10-16_Ct0830011 Middletown_Lcrr_Material_Inventory.Xlsx,,,Ct0830011,True,Ct0830011,Middletown Water Department,41.5661186,-72.655345
00002319R,"106 Chestnut Street, Middletown, Ct",106 Chestnut Street,Middletown,106 Chestnut Street Middletown Ct,Ct,Lead,Multi-Family Residence,2024-10-16_Ct0830011 Middletown_Lcrr_Material_Inventory.Xlsx,,,Ct0830011,True,Ct0830011,Middletown Water Department,41.5533839,-72.6386728
00002321R,"98 Liberty Street, Middletown, Ct",98 Liberty Street,Middletown,98 Liberty Street Middletown Ct,Ct,Lead,"Nonresidential, Non-School, Non-Daycare",2024-10-16_Ct0830011 Middletown_Lcrr_Material_Inventory.Xlsx,,,Ct0830011,True,Ct0830011,Middletown Water Department,41.5631143,-72.6560157
00002329R,"73 Ferry Street, Middletown, Ct",73 Ferry Street,Middletown,73 Ferry Street Middletown Ct,Ct,Lead,"Nonresidential, Non-School, Non-Daycare",2024-10-16_Ct0830011 Middletown_Lcrr_Material_Inventory.Xlsx,,,Ct0830011,True,Ct0830011,Middletown Water Department,41.5635896,-72.6510296
00002340R,"153 Eastern Drive, Middletown, Ct",153 Eastern Drive,Middletown,153 Eastern Drive Middletown Ct,Ct,Lead,Single-Family Residence,2024-10-16_Ct0830011 Middletown_Lcrr_Material_Inventory.Xlsx,,,Ct0830011,True,Ct0830011,Middletown Water Department,41.5555828,-72.6335138
00002342R,"16 Evergreen Avenue, Middletown, Ct",16 Evergreen Avenue,Middletown,16 Evergreen Avenue Middletown Ct,Ct,Lead,Single-Family Residence,2024-10-16_Ct0830011 Middletown_Lcrr_Material_Inventory.Xlsx,,,Ct0830011,True,Ct0830011,Middletown Water Department,41.5512486,-72.636444
00002347R,"59 Highland Avenue, Middletown, Ct",59 Highland Avenue,Middletown,59 Highland Avenue Middletown Ct,Ct,Lead,"Nonresidential, Non-School, Non-Daycare",2024-10-16_Ct0830011 Middletown_Lcrr_Material_Inventory.Xlsx,,,Ct0830011,True,Ct0830011,Middletown Water Department,41.5405294,-72.6566334
00002354R,"98 Catherine Street, Middletown, Ct",98 Catherine Street,Middletown,98 Catherine Street Middletown Ct,Ct,Lead,Single-Family Residence,2024-10-16_Ct0830011 Middletown_Lcrr_Material_Inventory.Xlsx,,,Ct0830011,True,Ct0830011,Middletown Water Department,41.5697578,-72.6633
00002356R,"646 Main Street, Middletown, Ct",646 Main Street,Middletown,646 Main Street Middletown Ct,Ct,Lead,"Nonresidential, Non-School, Non-Daycare",2024-10-16_Ct0830011 Middletown_Lcrr_Material_Inventory.Xlsx,,,Ct0830011,True,Ct0830011,Middletown Water Department,41.5649256,-72.6519787
00002360R,"130 Lakeside Avenue, Middletown, Ct",130 Lakeside Avenue,Middletown,130 Lakeside Avenue Middletown Ct,Ct,Lead,Single-Family Residence,2024-10-16_Ct0830011 Middletown_Lcrr_Material_Inventory.Xlsx,,,Ct0830011,True,Ct0830011,Middletown Water Department,41.5418932,-72.65449
00002361R,"48 Jackson Street, Middletown, Ct",48 Jackson Street,Middletown,48 Jackson Street Middletown Ct,Ct,Lead,Multi-Family Residence,2024-10-16_Ct0830011 Middletown_Lcrr_Material_Inventory.Xlsx,,,Ct0830011,True,Ct0830011,Middletown Water Department,41.5603933,-72.6648039
00002362R,"46 Middlefield Street, Middletown, Ct",46 Middlefield Street,Middletown,46 Middlefield Street Middletown Ct,Ct,Lead,Single-Family Residence,2024-10-16_Ct0830011 Middletown_Lcrr_Material_Inventory.Xlsx,,,Ct0830011,True,Ct0830011,Middletown Water Department,41.5515824,-72.6736069
00002363R,"31 Evergreen Avenue, Middletown, Ct",31 Evergreen Avenue,Middletown,31 Evergreen Avenue Middletown Ct,Ct,Lead,Single-Family Residence,2024-10-16_Ct0830011 Middletown_Lcrr_Material_Inventory.Xlsx,,,Ct0830011,True,Ct0830011,Middletown Water Department,41.5502265,-72.6357125
00002370R,"478 East Street, Middletown, Ct",478 East Street,Middletown,478 East Street Middletown Ct,Ct,Lead,Single-Family Residence,2024-10-16_Ct0830011 Middletown_Lcrr_Material_Inventory.Xlsx,,,Ct0830011,True,Ct0830011,Middletown Water Department,41.5766948,-72.701511
00002381R,"6 Cottage Street, Middletown, Ct",6 Cottage Street,Middletown,6 Cottage Street Middletown Ct,Ct,Lead,Single-Family Residence,2024-10-16_Ct0830011 Middletown_Lcrr_Material_Inventory.Xlsx,,,Ct0830011,True,Ct0830011,Middletown Water Department,41.5512642,-72.6489794
00002386R,"19 Spring Street, Middletown, Ct",19 Spring Street,Middletown,19 Spring Street Middletown Ct,Ct,Lead,"Nonresidential, Non-School, Non-Daycare",2024-10-16_Ct0830011 Middletown_Lcrr_Material_Inventory.Xlsx,,,Ct0830011,True,Ct0830011,Middletown Water Department,41.5660691,-72.6541937
00002391R,"93 South Main Street, Middletown, Ct",93 South Main Street,Middletown,93 South Main Street Middletown Ct,Ct,Lead,Multi-Family Residence,2024-10-16_Ct0830011 Middletown_Lcrr_Material_Inventory.Xlsx,,,Ct0830011,True,Ct0830011,Middletown Water Department,41.5536273,-72.6495231
00002392R,"161 Reservoir Road, Middletown, Ct",161 Reservoir Road,Middletown,161 Reservoir Road Middletown Ct,Ct,Lead,Multi-Family Residence,2024-10-16_Ct0830011 Middletown_Lcrr_Material_Inventory.Xlsx,,,Ct0830011,True,Ct0830011,Middletown Water Department,41.5395441,-72.6139365
00002405R,"47 Silver Street, Middletown, Ct",47 Silver Street,Middletown,47 Silver Street Middletown Ct,Ct,Lead,Single-Family Residence,2024-10-16_Ct0830011 Middletown_Lcrr_Material_Inventory.Xlsx,,,Ct0830011,True,Ct0830011,Middletown Water Department,41.5529117,-72.6354355
00002416R,"21 Silver Street, Middletown, Ct",21 Silver Street,Middletown,21 Silver Street Middletown Ct,Ct,Lead,Multi-Family Residence,2024-10-16_Ct0830011 Middletown_Lcrr_Material_Inventory.Xlsx,,,Ct0830011,True,Ct0830011,Middletown Water Department,41.5522086,-72.6391153
00002418R,"27 Morgan Street, Middletown, Ct",27 Morgan Street,Middletown,27 Morgan Street Middletown Ct,Ct,Lead,Single-Family Residence,2024-10-16_Ct0830011 Middletown_Lcrr_Material_Inventory.Xlsx,,,Ct0830011,True,Ct0830011,Middletown Water Department,41.535429,-72.6433374
00002426R,"17 Silver Street, Middletown, Ct",17 Silver Street,Middletown,17 Silver Street Middletown Ct,Ct,Lead,Single-Family Residence,2024-10-16_Ct0830011 Middletown_Lcrr_Material_Inventory.Xlsx,,,Ct0830011,True,Ct0830011,Middletown Water Department,41.5520829,-72.63964
00002442R,"3 Linden Street, Middletown, Ct",3 Linden Street,Middletown,3 Linden Street Middletown Ct,Ct,Lead,Single-Family Residence,2024-10-16_Ct0830011 Middletown_Lcrr_Material_Inventory.Xlsx,,,Ct0830011,True,Ct0830011,Middletown Water Department,41.5498115,-72.634367
00002449R,"41 Home Avenue, Middletown, Ct",41 Home Avenue,Middletown,41 Home Avenue Middletown Ct,Ct,Lead,Single-Family Residence,2024-10-16_Ct0830011 Middletown_Lcrr_Material_Inventory.Xlsx,,,Ct0830011,True,Ct0830011,Middletown Water Department,41.5505584,-72.6560285
00002452R,"172 Hunting Hill Avenue, Middletown, Ct",172 Hunting Hill Avenue,Middletown,172 Hunting Hill Avenue Middletown Ct,Ct,Lead,Multi-Family Residence,2024-10-16_Ct0830011 Middletown_Lcrr_Material_Inventory.Xlsx,,,Ct0830011,True,Ct0830011,Middletown Water Department,41.54534,-72.6478045
00002456R,"84 Highland Avenue, Middletown, Ct",84 Highland Avenue,Middletown,84 Highland Avenue Middletown Ct,Ct,Lead,Single-Family Residence,2024-10-16_Ct0830011 Middletown_Lcrr_Material_Inventory.Xlsx,,,Ct0830011,True,Ct0830011,Middletown Water Department,41.5430054,-72.6556848
00002458R,"62 Highland Avenue, Middletown, Ct",62 Highland Avenue,Middletown,62 Highland Avenue Middletown Ct,Ct,Lead,Multi-Family Residence,2024-10-16_Ct0830011 Middletown_Lcrr_Material_Inventory.Xlsx,,,Ct0830011,True,Ct0830011,Middletown Water Department,41.5407201,-72.6558807
00002460R,"3 Brainerd Avenue, Middletown, Ct",3 Brainerd Avenue,Middletown,3 Brainerd Avenue Middletown Ct,Ct,Lead,Single-Family Residence,2024-10-16_Ct0830011 Middletown_Lcrr_Material_Inventory.Xlsx,,,Ct0830011,True,Ct0830011,Middletown Water Department,41.5500434,-72.6570673
00002485R,"2 Alsop Avenue, Middletown, Ct",2 Alsop Avenue,Middletown,2 Alsop Avenue Middletown Ct,Ct,Lead,Multi-Family Residence,2024-10-16_Ct0830011 Middletown_Lcrr_Material_Inventory.Xlsx,,,Ct0830011,True,Ct0830011,Middletown Water Department,41.5632455,-72.6497578
00002499R,"45 Hotchkiss Street, Middletown, Ct",45 Hotchkiss Street,Middletown,45 Hotchkiss Street Middletown Ct,Ct,Lead,Multi-Family Residence,2024-10-16_Ct0830011 Middletown_Lcrr_Material_Inventory.Xlsx,,,Ct0830011,True,Ct0830011,Middletown Water Department,41.5545364,-72.6521987
00002501R,"35 Lake Street, Middletown, Ct",35 Lake Street,Middletown,35 Lake Street Middletown Ct,Ct,Lead,Single-Family Residence,2024-10-16_Ct0830011 Middletown_Lcrr_Material_Inventory.Xlsx,,,Ct0830011,True,Ct0830011,Middletown Water Department,41.5451289,-72.6502075
00002513R,"384 High Street, Middletown, Ct",384 High Street,Middletown,384 High Street Middletown Ct,Ct,Lead,Single-Family Residence,2024-10-16_Ct0830011 Middletown_Lcrr_Material_Inventory.Xlsx,,,Ct0830011,True,Ct0830011,Middletown Water Department,41.5613594,-72.6558651
00002550R,"32 Spring Street, Middletown, Ct",32 Spring Street,Middletown,32 Spring Street Middletown Ct,Ct,Lead,Multi-Family Residence,2024-10-16_Ct0830011 Middletown_Lcrr_Material_Inventory.Xlsx,,,Ct0830011,True,Ct0830011,Middletown Water Department,41.5664149,-72.6548472
00002569R,"18 Walnut Street, Middletown, Ct",18 Walnut Street,Middletown,18 Walnut Street Middletown Ct,Ct,Lead,Single-Family Residence,2024-10-16_Ct0830011 Middletown_Lcrr_Material_Inventory.Xlsx,,,Ct0830011,True,Ct0830011,Middletown Water Department,41.5539602,-72.6380293
00002617R,"89 Grove Street, Middletown, Ct",89 Grove Street,Middletown,89 Grove Street Middletown Ct,Ct,Lead,Multi-Family Residence,2024-10-16_Ct0830011 Middletown_Lcrr_Material_Inventory.Xlsx,,,Ct0830011,True,Ct0830011,Middletown Water Department,41.5694796,-72.657792
00002723R,"211 Ridge Road, Middletown, Ct",211 Ridge Road,Middletown,211 Ridge Road Middletown Ct,Ct,Lead,Single-Family Residence,2024-10-16_Ct0830011 Middletown_Lcrr_Material_Inventory.Xlsx,,,Ct0830011,True,Ct0830011,Middletown Water Department,41.5432808,-72.6430025
00002777R,"95 Front Street, Middletown, Ct",95 Front Street,Middletown,95 Front Street Middletown Ct,Ct,Lead,Multi-Family Residence,2024-10-16_Ct0830011 Middletown_Lcrr_Material_Inventory.Xlsx,,,Ct0830011,True,Ct0830011,Middletown Water Department,41.5460446,-72.6414807
00002786R,"170 Front Street, Middletown, Ct",170 Front Street,Middletown,170 Front Street Middletown Ct,Ct,Lead,Single-Family Residence,2024-10-16_Ct0830011 Middletown_Lcrr_Material_Inventory.Xlsx,,,Ct0830011,True,Ct0830011,Middletown Water Department,41.5441243,-72.6404356
00002787R,"142 Front Street, Middletown, Ct",142 Front Street,Middletown,142 Front Street Middletown Ct,Ct,Lead,Multi-Family Residence,2024-10-16_Ct0830011 Middletown_Lcrr_Material_Inventory.Xlsx,,,Ct0830011,True,Ct0830011,Middletown Water Department,41.544858,-72.6406664
00002798R,"335 Ridge Road, Middletown, Ct",335 Ridge Road,Middletown,335 Ridge Road Middletown Ct,Ct,Lead,Single-Family Residence,2024-10-16_Ct0830011 Middletown_Lcrr_Material_Inventory.Xlsx,,,Ct0830011,True,Ct0830011,Middletown Water Department,41.5398002,-72.6428194
00002804R,"364 Ridge Road, Middletown, Ct",364 Ridge Road,Middletown,364 Ridge Road Middletown Ct,Ct,Lead,Single-Family Residence,2024-10-16_Ct0830011 Middletown_Lcrr_Material_Inventory.Xlsx,,,Ct0830011,True,Ct0830011,Middletown Water Department,41.5391915,-72.6418455
00002822R,"85 Front Street, Middletown, Ct",85 Front Street,Middletown,85 Front Street Middletown Ct,Ct,Lead,Single-Family Residence,2024-10-16_Ct0830011 Middletown_Lcrr_Material_Inventory.Xlsx,,,Ct0830011,True,Ct0830011,Middletown Water Department,41.5463528,-72.6415686
00002907R,"148 Highland Avenue, Middletown, Ct",148 Highland Avenue,Middletown,148 Highland Avenue Middletown Ct,Ct,Lead,Single-Family Residence,2024-10-16_Ct0830011 Middletown_Lcrr_Material_Inventory.Xlsx,,,Ct0830011,True,Ct0830011,Middletown Water Department,41.5468411,-72.6539305
00002947R,"46 Hillside Avenue, Middletown, Ct",46 Hillside Avenue,Middletown,46 Hillside Avenue Middletown Ct,Ct,Lead,Single-Family Residence,2024-10-16_Ct0830011 Middletown_Lcrr_Material_Inventory.Xlsx,,,Ct0830011,True,Ct0830011,Middletown Water Department,41.5447067,-72.6367581
00002994R,"66 Hillside Avenue, Middletown, Ct",66 Hillside Avenue,Middletown,66 Hillside Avenue Middletown Ct,Ct,Lead,Multi-Family Residence,2024-10-16_Ct0830011 Middletown_Lcrr_Material_Inventory.Xlsx,,,Ct0830011,True,Ct0830011,Middletown Water Department,41.5447026,-72.6360318
00003017R,"91 Schuyler Avenue, Middletown, Ct",91 Schuyler Avenue,Middletown,91 Schuyler Avenue Middletown Ct,Ct,Lead,Single-Family Residence,2024-10-16_Ct0830011 Middletown_Lcrr_Material_Inventory.Xlsx,,,Ct0830011,True,Ct0830011,Middletown Water Department,41.5461196,-72.6472314
00003052R,"95 Hunting Hill Avenue, Middletown, Ct",95 Hunting Hill Avenue,Middletown,95 Hunting Hill Avenue Middletown Ct,Ct,Lead,Single-Family Residence,2024-10-16_Ct0830011 Middletown_Lcrr_Material_Inventory.Xlsx,,,Ct0830011,True,Ct0830011,Middletown Water Department,41.5472796,-72.6487148
00003059R,"271 Hunting Hill Avenue, Middletown, Ct",271 Hunting Hill Avenue,Middletown,271 Hunting Hill Avenue Middletown Ct,Ct,Lead,Single-Family Residence,2024-10-16_Ct0830011 Middletown_Lcrr_Material_Inventory.Xlsx,,,Ct0830011,True,Ct0830011,Middletown Water Department,41.5424873,-72.6477505
00003064R,"112 Highland Avenue, Middletown, Ct",112 Highland Avenue,Middletown,112 Highland Avenue Middletown Ct,Ct,Lead,"Nonresidential, Non-School, Non-Daycare",2024-10-16_Ct0830011 Middletown_Lcrr_Material_Inventory.Xlsx,,,Ct0830011,True,Ct0830011,Middletown Water Department,41.5447211,-72.6554543
00003069R,"118 Highland Avenue, Middletown, Ct",118 Highland Avenue,Middletown,118 Highland Avenue Middletown Ct,Ct,Lead,Other,2024-10-16_Ct0830011 Middletown_Lcrr_Material_Inventory.Xlsx,,,Ct0830011,True,Ct0830011,Middletown Water Department,41.5451201,-72.6556213
00003077R,"424 Ridge Road, Middletown, Ct",424 Ridge Road,Middletown,424 Ridge Road Middletown Ct,Ct,Lead,Multi-Family Residence,2024-10-16_Ct0830011 Middletown_Lcrr_Material_Inventory.Xlsx,,,Ct0830011,True,Ct0830011,Middletown Water Department,41.5374073,-72.6421456
00003119R,"26 Evergreen Avenue, Middletown, Ct",26 Evergreen Avenue,Middletown,26 Evergreen Avenue Middletown Ct,Ct,Lead,Single-Family Residence,2024-10-16_Ct0830011 Middletown_Lcrr_Material_Inventory.Xlsx,,,Ct0830011,True,Ct0830011,Middletown Water Department,41.5504024,-72.6361963
00003208R,"290 Hunting Hill Avenue, Middletown, Ct",290 Hunting Hill Avenue,Middletown,290 Hunting Hill Avenue Middletown Ct,Ct,Lead,Single-Family Residence,2024-10-16_Ct0830011 Middletown_Lcrr_Material_Inventory.Xlsx,,,Ct0830011,True,Ct0830011,Middletown Water Department,41.5421242,-72.6472412
00003211R,"48 Middlefield Street, Middletown, Ct",48 Middlefield Street,Middletown,48 Middlefield Street Middletown Ct,Ct,Lead,Single-Family Residence,2024-10-16_Ct0830011 Middletown_Lcrr_Material_Inventory.Xlsx,,,Ct0830011,True,Ct0830011,Middletown Water Department,41.5518571,-72.6733613
00003230R,"7 Miles Avenue, Middletown, Ct",7 Miles Avenue,Middletown,7 Miles Avenue Middletown Ct,Ct,Lead,Single-Family Residence,2024-10-16_Ct0830011 Middletown_Lcrr_Material_Inventory.Xlsx,,,Ct0830011,True,Ct0830011,Middletown Water Department,41.5499192,-72.6581647
00003234R,"263 Hunting Hill Avenue, Middletown, Ct",263 Hunting Hill Avenue,Middletown,263 Hunting Hill Avenue Middletown Ct,Ct,Lead,Single-Family Residence,2024-10-16_Ct0830011 Middletown_Lcrr_Material_Inventory.Xlsx,,,Ct0830011,True,Ct0830011,Middletown Water Department,41.5427449,-72.6478019
00003295R,"132 Fowler Avenue, Middletown, Ct",132 Fowler Avenue,Middletown,132 Fowler Avenue Middletown Ct,Ct,Lead,Single-Family Residence,2024-10-16_Ct0830011 Middletown_Lcrr_Material_Inventory.Xlsx,,,Ct0830011,True,Ct0830011,Middletown Water Department,41.5420713,-72.6385681
00003316R,"157 Liberty Street, Middletown, Ct",157 Liberty Street,Middletown,157 Liberty Street Middletown Ct,Ct,Lead,Multi-Family Residence,2024-10-16_Ct0830011 Middletown_Lcrr_Material_Inventory.Xlsx,,,Ct0830011,True,Ct0830011,Middletown Water Department,41.5621429,-72.6581878
00003351R,"278 Hunting Hill Avenue, Middletown, Ct",278 Hunting Hill Avenue,Middletown,278 Hunting Hill Avenue Middletown Ct,Ct,Lead,Single-Family Residence,2024-10-16_Ct0830011 Middletown_Lcrr_Material_Inventory.Xlsx,,,Ct0830011,True,Ct0830011,Middletown Water Department,41.5424664,-72.6472982
00003363R,"440 Ridge Road, Middletown, Ct",440 Ridge Road,Middletown,440 Ridge Road Middletown Ct,Ct,Lead,Single-Family Residence,2024-10-16_Ct0830011 Middletown_Lcrr_Material_Inventory.Xlsx,,,Ct0830011,True,Ct0830011,Middletown Water Department,41.5369617,-72.6421464
00003381R,"86 Chestnut Street, Middletown, Ct",86 Chestnut Street,Middletown,86 Chestnut Street Middletown Ct,Ct,Lead,Single-Family Residence,2024-10-16_Ct0830011 Middletown_Lcrr_Material_Inventory.Xlsx,,,Ct0830011,True,Ct0830011,Middletown Water Department,41.5533092,-72.639395
00003386R,"15 Roberts Street, Middletown, Ct",15 Roberts Street,Middletown,15 Roberts Street Middletown Ct,Ct,Lead,Multi-Family Residence,2024-10-16_Ct0830011 Middletown_Lcrr_Material_Inventory.Xlsx,,,Ct0830011,True,Ct0830011,Middletown Water Department,41.5506538,-72.6327681
00003399R,"34 Bretton Road, Middletown, Ct",34 Bretton Road,Middletown,34 Bretton Road Middletown Ct,Ct,Lead,Single-Family Residence,2024-10-16_Ct0830011 Middletown_Lcrr_Material_Inventory.Xlsx,,,Ct0830011,True,Ct0830011,Middletown Water Department,41.5479635,-72.655617
00003454R,"20 Sears Street, Middletown, Ct",20 Sears Street,Middletown,20 Sears Street Middletown Ct,Ct,Lead,Single-Family Residence,2024-10-16_Ct0830011 Middletown_Lcrr_Material_Inventory.Xlsx,,,Ct0830011,True,Ct0830011,Middletown Water Department,41.5431354,-72.6438871
00003551R,"219 Farm Hill Road, Middletown, Ct",219 Farm Hill Road,Middletown,219 Farm Hill Road Middletown Ct,Ct,Lead,Single-Family Residence,2024-10-16_Ct0830011 Middletown_Lcrr_Material_Inventory.Xlsx,,,Ct0830011,True,Ct0830011,Middletown Water Department,41.5389386,-72.650341
00003593R,"82 East Ridge Road, Middletown, Ct",82 East Ridge Road,Middletown,82 East Ridge Road Middletown Ct,Ct,Lead,Single-Family Residence,2024-10-16_Ct0830011 Middletown_Lcrr_Material_Inventory.Xlsx,,,Ct0830011,True,Ct0830011,Middletown Water Department,41.535041,-72.6388332
00003598R,"41 Tryon Street, Middletown, Ct",41 Tryon Street,Middletown,41 Tryon Street Middletown Ct,Ct,Lead,Single-Family Residence,2024-10-16_Ct0830011 Middletown_Lcrr_Material_Inventory.Xlsx,,,Ct0830011,True,Ct0830011,Middletown Water Department,41.5458725,-72.6309571
00003634R,"16 Roberts Street, Middletown, Ct",16 Roberts Street,Middletown,16 Roberts Street Middletown Ct,Ct,Lead,Single-Family Residence,2024-10-16_Ct0830011 Middletown_Lcrr_Material_Inventory.Xlsx,,,Ct0830011,True,Ct0830011,Middletown Water Department,41.5510173,-72.6328916
00003728R,"77 Schuyler Avenue, Middletown, Ct",77 Schuyler Avenue,Middletown,77 Schuyler Avenue Middletown Ct,Ct,Lead,Single-Family Residence,2024-10-16_Ct0830011 Middletown_Lcrr_Material_Inventory.Xlsx,,,Ct0830011,True,Ct0830011,Middletown Water Department,41.546472,-72.6473184
00003814R,"53 Hillcrest Avenue, Middletown, Ct",53 Hillcrest Avenue,Middletown,53 Hillcrest Avenue Middletown Ct,Ct,Lead,Single-Family Residence,2024-10-16_Ct0830011 Middletown_Lcrr_Material_Inventory.Xlsx,,,Ct0830011,True,Ct0830011,Middletown Water Department,41.536037,-72.6382045
00003831R,"56 Grove Street, Middletown, Ct",56 Grove Street,Middletown,56 Grove Street Middletown Ct,Ct,Lead,Multi-Family Residence,2024-10-16_Ct0830011 Middletown_Lcrr_Material_Inventory.Xlsx,,,Ct0830011,True,Ct0830011,Middletown Water Department,41.5684544,-72.6573122
00003852R,"165 Old Mill Road, Middletown, Ct",165 Old Mill Road,Middletown,165 Old Mill Road Middletown Ct,Ct,Lead,Single-Family Residence,2024-10-16_Ct0830011 Middletown_Lcrr_Material_Inventory.Xlsx,,,Ct0830011,True,Ct0830011,Middletown Water Department,41.5591669,-72.6750799
00003868R,"382 Pine Street, Middletown, Ct",382 Pine Street,Middletown,382 Pine Street Middletown Ct,Ct,Lead,Other,2024-10-16_Ct0830011 Middletown_Lcrr_Material_Inventory.Xlsx,,,Ct0830011,True,Ct0830011,Middletown Water Department,41.541973,-72.6606128
00003953R,"399 Pine Street, Middletown, Ct",399 Pine Street,Middletown,399 Pine Street Middletown Ct,Ct,Lead,Single-Family Residence,2024-10-16_Ct0830011 Middletown_Lcrr_Material_Inventory.Xlsx,,,Ct0830011,True,Ct0830011,Middletown Water Department,41.5417009,-72.6617511
00003965R,"55 Morgan Street, Middletown, Ct",55 Morgan Street,Middletown,55 Morgan Street Middletown Ct,Ct,Lead,Single-Family Residence,2024-10-16_Ct0830011 Middletown_Lcrr_Material_Inventory.Xlsx,,,Ct0830011,True,Ct0830011,Middletown Water Department,41.5353465,-72.6441419
00003967R,"142 Highland Avenue, Middletown, Ct",142 Highland Avenue,Middletown,142 Highland Avenue Middletown Ct,Ct,Lead,Multi-Family Residence,2024-10-16_Ct0830011 Middletown_Lcrr_Material_Inventory.Xlsx,,,Ct0830011,True,Ct0830011,Middletown Water Department,41.5465404,-72.6544168
00003981R,"71 Highland Avenue, Middletown, Ct",71 Highland Avenue,Middletown,71 Highland Avenue Middletown Ct,Ct,Lead,Single-Family Residence,2024-10-16_Ct0830011 Middletown_Lcrr_Material_Inventory.Xlsx,,,Ct0830011,True,Ct0830011,Middletown Water Department,41.541706,-72.656125
00003999R,"542 Main Street, Middletown, Ct",542 Main Street,Middletown,542 Main Street Middletown Ct,Ct,Lead,"Nonresidential, Non-School, Non-Daycare",2024-10-16_Ct0830011 Middletown_Lcrr_Material_Inventory.Xlsx,,,Ct0830011,True,Ct0830011,Middletown Water Department,41.5635601,-72.6512554
00004025R,"743 Randolph Road, Middletown, Ct",743 Randolph Road,Middletown,743 Randolph Road Middletown Ct,Ct,Lead,Single-Family Residence,2024-10-16_Ct0830011 Middletown_Lcrr_Material_Inventory.Xlsx,,,Ct0830011,True,Ct0830011,Middletown Water Department,41.5325229,-72.640548
00004095R,"20 Roberts Street, Middletown, Ct",20 Roberts Street,Middletown,20 Roberts Street Middletown Ct,Ct,Lead,Single-Family Residence,2024-10-16_Ct0830011 Middletown_Lcrr_Material_Inventory.Xlsx,,,Ct0830011,True,Ct0830011,Middletown Water Department,41.5509096,-72.633363
00004150R,"298 Farm Hill Road, Middletown, Ct",298 Farm Hill Road,Middletown,298 Farm Hill Road Middletown Ct,Ct,Lead,Single-Family Residence,2024-10-16_Ct0830011 Middletown_Lcrr_Material_Inventory.Xlsx,,,Ct0830011,True,Ct0830011,Middletown Water Department,41.5370967,-72.6497258
00004250R,"8 Linden Street, Middletown, Ct",8 Linden Street,Middletown,8 Linden Street Middletown Ct,Ct,Lead,Single-Family Residence,2024-10-16_Ct0830011 Middletown_Lcrr_Material_Inventory.Xlsx,,,Ct0830011,True,Ct0830011,Middletown Water Department,41.5501235,-72.6339695
00004262R,"437 West Street, Middletown, Ct",437 West Street,Middletown,437 West Street Middletown Ct,Ct,Lead,Single-Family Residence,2024-10-16_Ct0830011 Middletown_Lcrr_Material_Inventory.Xlsx,,,Ct0830011,True,Ct0830011,Middletown Water Department,41.5432396,-72.6706708
00004337R,"297 Farm Hill Road, Middletown, Ct",297 Farm Hill Road,Middletown,297 Farm Hill Road Middletown Ct,Ct,Lead,Single-Family Residence,2024-10-16_Ct0830011 Middletown_Lcrr_Material_Inventory.Xlsx,,,Ct0830011,True,Ct0830011,Middletown Water Department,41.536739,-72.6503244
00004493R,"60 Johnson Street, Middletown, Ct",60 Johnson Street,Middletown,60 Johnson Street Middletown Ct,Ct,Lead,Single-Family Residence,2024-10-16_Ct0830011 Middletown_Lcrr_Material_Inventory.Xlsx,,,Ct0830011,True,Ct0830011,Middletown Water Department,41.5685656,-72.6597754
00004499R,"21 Peck Road, Middletown, Ct",21 Peck Road,Middletown,21 Peck Road Middletown Ct,Ct,Lead,Single-Family Residence,2024-10-16_Ct0830011 Middletown_Lcrr_Material_Inventory.Xlsx,,,Ct0830011,True,Ct0830011,Middletown Water Department,41.5388592,-72.6407606
00004536R,"821 Randolph Road, Middletown, Ct",821 Randolph Road,Middletown,821 Randolph Road Middletown Ct,Ct,Lead,Single-Family Residence,2024-10-16_Ct0830011 Middletown_Lcrr_Material_Inventory.Xlsx,,,Ct0830011,True,Ct0830011,Middletown Water Department,41.5323515,-72.643405
00004547R,"282 Farm Hill Road, Middletown, Ct",282 Farm Hill Road,Middletown,282 Farm Hill Road Middletown Ct,Ct,Lead,Single-Family Residence,2024-10-16_Ct0830011 Middletown_Lcrr_Material_Inventory.Xlsx,,,Ct0830011,True,Ct0830011,Middletown Water Department,41.5372732,-72.6497437
00004632R,"208 Markham Street, Middletown, Ct",208 Markham Street,Middletown,208 Markham Street Middletown Ct,Ct,Lead,Single-Family Residence,2024-10-16_Ct0830011 Middletown_Lcrr_Material_Inventory.Xlsx,,,Ct0830011,True,Ct0830011,Middletown Water Department,41.5423542,-72.6751018
00004774R,"33 Middlefield Street, Middletown, Ct",33 Middlefield Street,Middletown,33 Middlefield Street Middletown Ct,Ct,Lead,Single-Family Residence,2024-10-16_Ct0830011 Middletown_Lcrr_Material_Inventory.Xlsx,,,Ct0830011,True,Ct0830011,Middletown Water Department,41.5520768,-72.673177
00005369R,"206 Camp Street, Middletown, Ct",206 Camp Street,Middletown,206 Camp Street Middletown Ct,Ct,Lead,Single-Family Residence,2024-10-16_Ct0830011 Middletown_Lcrr_Material_Inventory.Xlsx,,,Ct0830011,True,Ct0830011,Middletown Water Department,41.559328,-72.6869795
00005481R,"326 Middlefield Street, Middletown, Ct",326 Middlefield Street,Middletown,326 Middlefield Street Middletown Ct,Ct,Lead,"Nonresidential, Non-School, Non-Daycare",2024-10-16_Ct0830011 Middletown_Lcrr_Material_Inventory.Xlsx,,,Ct0830011,True,Ct0830011,Middletown Water Department,41.5460658,-72.6812627
00008172R,"145 Liberty Street, Middletown, Ct",145 Liberty Street,Middletown,145 Liberty Street Middletown Ct,Ct,Lead,Multi-Family Residence,2024-10-16_Ct0830011 Middletown_Lcrr_Material_Inventory.Xlsx,,,Ct0830011,True,Ct0830011,Middletown Water Department,41.5622286,-72.657853
00011426R,"180 East Main Street, Middletown, Ct",180 East Main Street,Middletown,180 East Main Street Middletown Ct,Ct,Lead,"Nonresidential, Non-School, Non-Daycare",2024-10-16_Ct0830011 Middletown_Lcrr_Material_Inventory.Xlsx,,,Ct0830011,True,Ct0830011,Middletown Water Department,41.5514091,-72.6412669
00014366R,"51 Boston Road, Middletown, Ct",51 Boston Road,Middletown,51 Boston Road Middletown Ct,Ct,Lead,Single-Family Residence,2024-10-16_Ct0830011 Middletown_Lcrr_Material_Inventory.Xlsx,,,Ct0830011,True,Ct0830011,Middletown Water Department,41.553471,-72.6781469
00030319C,"418 Main Street, Middletown, Ct",418 Main Street,Middletown,418 Main Street Middletown Ct,Ct,Lead,"Nonresidential, Non-School, Non-Daycare",2024-10-16_Ct0830011 Middletown_Lcrr_Material_Inventory.Xlsx,,,Ct0830011,True,Ct0830011,Middletown Water Department,41.5620753,-72.6502232
