SITE ID,LOCATION IDENTIFIER,STREET ADDRESS,TOWN,STATE,ENTIRE SERVICE LINE MATERIAL CLASSIFICATION,BUILDING TYPE,SOURCE FILE,STREET NUMBER,STREET NAME,extracted_pswid,is_match,PWSID,SYSTEM NAME
6 - 40620,D12-178-19,1 COLVER ST,New London,CT,Lead,Residential (SF),CT0950011_LCRR_Inventory_Initial_10.15.24.xlsx,,,CT0950011,TRUE,CT0950011,New London Dept. of Public Utilities
63 - 38321,F19-66-13,10 Lyman Ct,New London,CT,Lead,Residential (SF),CT0950011_LCRR_Inventory_Initial_10.15.24.xlsx,,,CT0950011,TRUE,CT0950011,New London Dept. of Public Utilities
75 - 38501,F08-299-10,10 ROSEMARY ST,New London,CT,Lead,Commercial,CT0950011_LCRR_Inventory_Initial_10.15.24.xlsx,,,CT0950011,TRUE,CT0950011,New London Dept. of Public Utilities
94 - 38859,E19-65-2,100 SCHOOL ST,New London,CT,Lead,Unknown,CT0950011_LCRR_Inventory_Initial_10.15.24.xlsx,,,CT0950011,TRUE,CT0950011,New London Dept. of Public Utilities
99 - 40630,G26-18-100,1000 OCEAN AVE,New London,CT,Lead,Unknown,CT0950011_LCRR_Inventory_Initial_10.15.24.xlsx,,,CT0950011,TRUE,CT0950011,New London Dept. of Public Utilities
100 - 41156,F26-10-34.01,1001 OCEAN AVE,New London,CT,Lead,Residential (SF),CT0950011_LCRR_Inventory_Initial_10.15.24.xlsx,,,CT0950011,TRUE,CT0950011,New London Dept. of Public Utilities
106 - 40981,G27-9-13,1007 PEQUOT AVE,New London,CT,Lead,Unknown,CT0950011_LCRR_Inventory_Initial_10.15.24.xlsx,,,CT0950011,TRUE,CT0950011,New London Dept. of Public Utilities
112 - 38326,D13-126-49,101 COLMAN ST,New London,CT,Lead,Residential (SF),CT0950011_LCRR_Inventory_Initial_10.15.24.xlsx,,,CT0950011,TRUE,CT0950011,New London Dept. of Public Utilities
118 - 40632,F13-152-33,101 TRUMAN ST,New London,CT,Lead,Residential (SF),CT0950011_LCRR_Inventory_Initial_10.15.24.xlsx,,,CT0950011,TRUE,CT0950011,New London Dept. of Public Utilities
120 - 40801,D16-118-159,1011 BANK ST,New London,CT,Lead,Unknown,CT0950011_LCRR_Inventory_Initial_10.15.24.xlsx,,,CT0950011,TRUE,CT0950011,New London Dept. of Public Utilities
127 - 38861,G28-9-16,1019 PEQUOT AVE,New London,CT,Lead,Residential (SF),CT0950011_LCRR_Inventory_Initial_10.15.24.xlsx,,,CT0950011,TRUE,CT0950011,New London Dept. of Public Utilities
141 - 38336,F11-212-9,103 BROAD ST,New London,CT,Lead,Commercial,CT0950011_LCRR_Inventory_Initial_10.15.24.xlsx,,,CT0950011,TRUE,CT0950011,New London Dept. of Public Utilities
172 - 38867,F13-152-20,105 BLINMAN ST,New London,CT,Lead,Unknown,CT0950011_LCRR_Inventory_Initial_10.15.24.xlsx,,,CT0950011,TRUE,CT0950011,New London Dept. of Public Utilities
173 - 40808,F11-212-10,105 BROAD ST,New London,CT,Lead,Unknown,CT0950011_LCRR_Inventory_Initial_10.15.24.xlsx,,,CT0950011,TRUE,CT0950011,New London Dept. of Public Utilities
176 - 40990,G23-44-57,105 GARDNER AVE,New London,CT,Lead,Unknown,CT0950011_LCRR_Inventory_Initial_10.15.24.xlsx,,,CT0950011,TRUE,CT0950011,New London Dept. of Public Utilities
187 - 38870,F27-7-1,105 STUART AVE,New London,CT,Lead,Residential (SF),CT0950011_LCRR_Inventory_Initial_10.15.24.xlsx,,,CT0950011,TRUE,CT0950011,New London Dept. of Public Utilities
190 - 40991,E09-253-6,105 VAUXHALL ST,New London,CT,Lead,Residential (SF),CT0950011_LCRR_Inventory_Initial_10.15.24.xlsx,,,CT0950011,TRUE,CT0950011,New London Dept. of Public Utilities
212 - 38873,D11-186-16,107 LINCOLN AVE,New London,CT,Lead,Residential (SF),CT0950011_LCRR_Inventory_Initial_10.15.24.xlsx,,,CT0950011,TRUE,CT0950011,New London Dept. of Public Utilities
223 - 40648,F13-136-3,108 BLINMAN ST,New London,CT,Lead,Unknown,CT0950011_LCRR_Inventory_Initial_10.15.24.xlsx,,,CT0950011,TRUE,CT0950011,New London Dept. of Public Utilities
226 - 40999,D13-157-11,108 JEFFERSON AVE,New London,CT,Lead,Residential (SF),CT0950011_LCRR_Inventory_Initial_10.15.24.xlsx,,,CT0950011,TRUE,CT0950011,New London Dept. of Public Utilities
236 - 41003,F13-152-21,109 BLINMAN ST,New London,CT,Lead,Commercial,CT0950011_LCRR_Inventory_Initial_10.15.24.xlsx,,,CT0950011,TRUE,CT0950011,New London Dept. of Public Utilities
243 - 41004,F18-69-15,109 PEQUOT AVE,New London,CT,Lead,Unknown,CT0950011_LCRR_Inventory_Initial_10.15.24.xlsx,,,CT0950011,TRUE,CT0950011,New London Dept. of Public Utilities
260 - 38520,G28-5-9,11 BENTLEY AVE,New London,CT,Lead,Commercial,CT0950011_LCRR_Inventory_Initial_10.15.24.xlsx,,,CT0950011,TRUE,CT0950011,New London Dept. of Public Utilities
262 - 41006,F13-149-12,11 Blinman St,New London,CT,Lead,Commercial,CT0950011_LCRR_Inventory_Initial_10.15.24.xlsx,,,CT0950011,TRUE,CT0950011,New London Dept. of Public Utilities
278 - 38351,D12-181-5,11 COLVER ST,New London,CT,Lead,Residential (SF),CT0950011_LCRR_Inventory_Initial_10.15.24.xlsx,,,CT0950011,TRUE,CT0950011,New London Dept. of Public Utilities
296 - 38526,F12-169-23,11 Hempstead St,New London,CT,Lead,Commercial,CT0950011_LCRR_Inventory_Initial_10.15.24.xlsx,,,CT0950011,TRUE,CT0950011,New London Dept. of Public Utilities
298 - 40660,F12-168-8,11 HOME ST,New London,CT,Lead,Residential (SF),CT0950011_LCRR_Inventory_Initial_10.15.24.xlsx,,,CT0950011,TRUE,CT0950011,New London Dept. of Public Utilities
300 - 38705,F12-172-15,11 JAY ST,New London,CT,Lead,Unknown,CT0950011_LCRR_Inventory_Initial_10.15.24.xlsx,,,CT0950011,TRUE,CT0950011,New London Dept. of Public Utilities
327 - 38889,D12-178-27,11 WALDEN AVE,New London,CT,Lead,Residential (SF),CT0950011_LCRR_Inventory_Initial_10.15.24.xlsx,,,CT0950011,TRUE,CT0950011,New London Dept. of Public Utilities
334 - 38531,D08-280-1,11 WHITTLESEY ST,New London,CT,Lead,Unknown,CT0950011_LCRR_Inventory_Initial_10.15.24.xlsx,,,CT0950011,TRUE,CT0950011,New London Dept. of Public Utilities
339 - 38890,G26-18-79,11 WORTHINGTON RD,New London,CT,Lead,Residential (SF),CT0950011_LCRR_Inventory_Initial_10.15.24.xlsx,,,CT0950011,TRUE,CT0950011,New London Dept. of Public Utilities
370 - 38714,G27-8-6,1111 OCEAN AVE,New London,CT,Lead,Residential (SF),CT0950011_LCRR_Inventory_Initial_10.15.24.xlsx,,,CT0950011,TRUE,CT0950011,New London Dept. of Public Utilities
373 - 38364,G13-140-12,112 Bank St,New London,CT,Lead,Commercial,CT0950011_LCRR_Inventory_Initial_10.15.24.xlsx,,,CT0950011,TRUE,CT0950011,New London Dept. of Public Utilities
380 - 38716,D13-157-10,112 JEFFERSON AVE,New London,CT,Lead,Unknown,CT0950011_LCRR_Inventory_Initial_10.15.24.xlsx,,,CT0950011,TRUE,CT0950011,New London Dept. of Public Utilities
381 - 41194,G24-40-35,112 LOWER BLVD,New London,CT,Lead,Unknown,CT0950011_LCRR_Inventory_Initial_10.15.24.xlsx,,,CT0950011,TRUE,CT0950011,New London Dept. of Public Utilities
382 - 38366,E15-114-26,112 OCEAN AVE,New London,CT,Lead,Residential (SF),CT0950011_LCRR_Inventory_Initial_10.15.24.xlsx,,,CT0950011,TRUE,CT0950011,New London Dept. of Public Utilities
407 - 38897,F13-136-2,114 BLINMAN ST,New London,CT,Lead,Unknown,CT0950011_LCRR_Inventory_Initial_10.15.24.xlsx,,,CT0950011,TRUE,CT0950011,New London Dept. of Public Utilities
427 - 40825,G12-146-6,115 GREEN ST,New London,CT,Lead,Unknown,CT0950011_LCRR_Inventory_Initial_10.15.24.xlsx,,,CT0950011,TRUE,CT0950011,New London Dept. of Public Utilities
428 - 40826,D06-313-11,115 HAWTHORNE DR,New London,CT,Lead,Residential (SF),CT0950011_LCRR_Inventory_Initial_10.15.24.xlsx,,,CT0950011,TRUE,CT0950011,New London Dept. of Public Utilities
432 - 38898,D08-258-21,115 RAYMOND ST EXT,New London,CT,Lead,Residential (SF),CT0950011_LCRR_Inventory_Initial_10.15.24.xlsx,,,CT0950011,TRUE,CT0950011,New London Dept. of Public Utilities
443 - 38373,F13-136-38,116 BLINMAN ST,New London,CT,Lead,Unknown,CT0950011_LCRR_Inventory_Initial_10.15.24.xlsx,,,CT0950011,TRUE,CT0950011,New London Dept. of Public Utilities
453 - 40673,E11-175-27,116 WILLIAMS ST,New London,CT,Lead,Unknown,CT0950011_LCRR_Inventory_Initial_10.15.24.xlsx,,,CT0950011,TRUE,CT0950011,New London Dept. of Public Utilities
456 - 41028,G28-5-7,1165 OCEAN AVE,New London,CT,Lead,Residential (SF),CT0950011_LCRR_Inventory_Initial_10.15.24.xlsx,,,CT0950011,TRUE,CT0950011,New London Dept. of Public Utilities
510 - 41037,G12-141-6,12 BANK ST,New London,CT,Lead,Unknown,CT0950011_LCRR_Inventory_Initial_10.15.24.xlsx,,,CT0950011,TRUE,CT0950011,New London Dept. of Public Utilities
520 - 38563,D12-180-10,12 COLVER ST,New London,CT,Lead,Unknown,CT0950011_LCRR_Inventory_Initial_10.15.24.xlsx,,,CT0950011,TRUE,CT0950011,New London Dept. of Public Utilities
524 - 41040,E15-115-7,12 DARROW ST,New London,CT,Lead,Unknown,CT0950011_LCRR_Inventory_Initial_10.15.24.xlsx,,,CT0950011,TRUE,CT0950011,New London Dept. of Public Utilities
533 - 41219,E18-72-47,12 FOWLER CT,New London,CT,Lead,Unknown,CT0950011_LCRR_Inventory_Initial_10.15.24.xlsx,,,CT0950011,TRUE,CT0950011,New London Dept. of Public Utilities
579 - 38924,C10-217-6,120 CEDAR GROVE AVE,New London,CT,Lead,Unknown,CT0950011_LCRR_Inventory_Initial_10.15.24.xlsx,,,CT0950011,TRUE,CT0950011,New London Dept. of Public Utilities
585 - 38574,E11-212-12,121 BROAD ST,New London,CT,Lead,Unknown,CT0950011_LCRR_Inventory_Initial_10.15.24.xlsx,,,CT0950011,TRUE,CT0950011,New London Dept. of Public Utilities
589 - 40839,D06-313-12,121 HAWTHORNE DR,New London,CT,Lead,Unknown,CT0950011_LCRR_Inventory_Initial_10.15.24.xlsx,,,CT0950011,TRUE,CT0950011,New London Dept. of Public Utilities
595 - 38575,F15-113-21,121 SHAW ST,New London,CT,Lead,Residential (SF),CT0950011_LCRR_Inventory_Initial_10.15.24.xlsx,,,CT0950011,TRUE,CT0950011,New London Dept. of Public Utilities
599 - 41223,F13-136-38,122 BLINMAN ST,New London,CT,Lead,Unknown,CT0950011_LCRR_Inventory_Initial_10.15.24.xlsx,,,CT0950011,TRUE,CT0950011,New London Dept. of Public Utilities
618 - 38928,F20-61-29,123 THAMES ST,New London,CT,Lead,Residential (SF),CT0950011_LCRR_Inventory_Initial_10.15.24.xlsx,,,CT0950011,TRUE,CT0950011,New London Dept. of Public Utilities
626 - 38740,F20-57-5,124 THAMES ST,New London,CT,Lead,Residential (SF),CT0950011_LCRR_Inventory_Initial_10.15.24.xlsx,,,CT0950011,TRUE,CT0950011,New London Dept. of Public Utilities
636 - 38582,F18-69-21,125 PEQUOT AVE,New London,CT,Lead,Residential (SF),CT0950011_LCRR_Inventory_Initial_10.15.24.xlsx,,,CT0950011,TRUE,CT0950011,New London Dept. of Public Utilities
677 - 41234,F18-69-23,129 PEQUOT AVE,New London,CT,Lead,Residential (SF),CT0950011_LCRR_Inventory_Initial_10.15.24.xlsx,,,CT0950011,TRUE,CT0950011,New London Dept. of Public Utilities
678 - 41235,E17-77-1,13 ALGER ST,New London,CT,Lead,Commercial,CT0950011_LCRR_Inventory_Initial_10.15.24.xlsx,,,CT0950011,TRUE,CT0950011,New London Dept. of Public Utilities
680 - 40696,E15-112-11,13 ARCHER CT,New London,CT,Lead,Residential (SF),CT0950011_LCRR_Inventory_Initial_10.15.24.xlsx,,,CT0950011,TRUE,CT0950011,New London Dept. of Public Utilities
691 - 40851,E09-288-5,13 CROUCH ST,New London,CT,Lead,Residential (SF),CT0950011_LCRR_Inventory_Initial_10.15.24.xlsx,,,CT0950011,TRUE,CT0950011,New London Dept. of Public Utilities
710 - 38939,E12-166-10,13 THOMPSON CT,New London,CT,Lead,Commercial,CT0950011_LCRR_Inventory_Initial_10.15.24.xlsx,,,CT0950011,TRUE,CT0950011,New London Dept. of Public Utilities
713 - 38941,E13-130-13,13 WALL ST,New London,CT,Lead,Unknown,CT0950011_LCRR_Inventory_Initial_10.15.24.xlsx,,,CT0950011,TRUE,CT0950011,New London Dept. of Public Utilities
727 - 38943,F11-196-21,130 HEMPSTEAD ST,New London,CT,Lead,Unknown,CT0950011_LCRR_Inventory_Initial_10.15.24.xlsx,,,CT0950011,TRUE,CT0950011,New London Dept. of Public Utilities
748 - 38947,E16-99-24,132 OCEAN AVE,New London,CT,Lead,Unknown,CT0950011_LCRR_Inventory_Initial_10.15.24.xlsx,,,CT0950011,TRUE,CT0950011,New London Dept. of Public Utilities
765 - 38760,D16-97-3,134 SQUIRE ST,New London,CT,Lead,Unknown,CT0950011_LCRR_Inventory_Initial_10.15.24.xlsx,,,CT0950011,TRUE,CT0950011,New London Dept. of Public Utilities
787 - 38765,D07-278-2,137 NORWOOD AVE,New London,CT,Lead,Residential (SF),CT0950011_LCRR_Inventory_Initial_10.15.24.xlsx,,,CT0950011,TRUE,CT0950011,New London Dept. of Public Utilities
829 - 40714,G28-4-15,14 ELLIOTT AVE,New London,CT,Lead,Unknown,CT0950011_LCRR_Inventory_Initial_10.15.24.xlsx,,,CT0950011,TRUE,CT0950011,New London Dept. of Public Utilities
838 - 41256,G27-8-2,14 HIGHLAND AVE,New London,CT,Lead,Residential (SF),CT0950011_LCRR_Inventory_Initial_10.15.24.xlsx,,,CT0950011,TRUE,CT0950011,New London Dept. of Public Utilities
846 - 40866,F12-198-3,14 MERIDIAN ST,New London,CT,Lead,Unknown,CT0950011_LCRR_Inventory_Initial_10.15.24.xlsx,,,CT0950011,TRUE,CT0950011,New London Dept. of Public Utilities
859 - 38775,E09-252-6,14 SUMMIT AVE,New London,CT,Lead,Unknown,CT0950011_LCRR_Inventory_Initial_10.15.24.xlsx,,,CT0950011,TRUE,CT0950011,New London Dept. of Public Utilities
884 - 40870,E16-113-46,142 MONTAUK AVE,New London,CT,Lead,Unknown,CT0950011_LCRR_Inventory_Initial_10.15.24.xlsx,,,CT0950011,TRUE,CT0950011,New London Dept. of Public Utilities
906 - 38781,F08-292-14,145 CRYSTAL AVE,New London,CT,Lead,Commercial,CT0950011_LCRR_Inventory_Initial_10.15.24.xlsx,,,CT0950011,TRUE,CT0950011,New London Dept. of Public Utilities
908 - 41086,G24-40-20,145 GLENWOOD AVE,New London,CT,Lead,Residential (SF),CT0950011_LCRR_Inventory_Initial_10.15.24.xlsx,,,CT0950011,TRUE,CT0950011,New London Dept. of Public Utilities
939 - 38978,E15-112-12,15 ARCHER CT,New London,CT,Lead,Unknown,CT0950011_LCRR_Inventory_Initial_10.15.24.xlsx,,,CT0950011,TRUE,CT0950011,New London Dept. of Public Utilities
1017 - 38795,F13-147-16,15 STARR ST,New London,CT,Lead,Residential (SF),CT0950011_LCRR_Inventory_Initial_10.15.24.xlsx,,,CT0950011,TRUE,CT0950011,New London Dept. of Public Utilities
1030 - 40888,D08-280-2,15 WHITTLESEY ST,New London,CT,Lead,Residential (SF),CT0950011_LCRR_Inventory_Initial_10.15.24.xlsx,,,CT0950011,TRUE,CT0950011,New London Dept. of Public Utilities
1056 - 38442,F08-291-19,152 CRYSTAL AVE,New London,CT,Lead,Unknown,CT0950011_LCRR_Inventory_Initial_10.15.24.xlsx,,,CT0950011,TRUE,CT0950011,New London Dept. of Public Utilities
1064 - 38800,G13-140-16,153 BANK ST,New London,CT,Lead,Commercial,CT0950011_LCRR_Inventory_Initial_10.15.24.xlsx,,,CT0950011,TRUE,CT0950011,New London Dept. of Public Utilities
1084 - 40746,G24-40-23,155 GLENWOOD AVE,New London,CT,Lead,Residential (SF),CT0950011_LCRR_Inventory_Initial_10.15.24.xlsx,,,CT0950011,TRUE,CT0950011,New London Dept. of Public Utilities
1091 - 38634,D13-157-2,156 GARFIELD AVE,New London,CT,Lead,Commercial,CT0950011_LCRR_Inventory_Initial_10.15.24.xlsx,,,CT0950011,TRUE,CT0950011,New London Dept. of Public Utilities
1112 - 38997,F08-292-17,159 CRYSTAL AVE,New London,CT,Lead,Residential (SF),CT0950011_LCRR_Inventory_Initial_10.15.24.xlsx,,,CT0950011,TRUE,CT0950011,New London Dept. of Public Utilities
1122 - 41116,G12-141-6,16 Bank St,New London,CT,Lead,Commercial,CT0950011_LCRR_Inventory_Initial_10.15.24.xlsx,,,CT0950011,TRUE,CT0950011,New London Dept. of Public Utilities
1128 - 39000,E12-174-20,16 BORODELL PL,New London,CT,Lead,Residential (SF),CT0950011_LCRR_Inventory_Initial_10.15.24.xlsx,,,CT0950011,TRUE,CT0950011,New London Dept. of Public Utilities
1143 - 38454,E18-72-45,16 FOWLER CT,New London,CT,Lead,Unknown,CT0950011_LCRR_Inventory_Initial_10.15.24.xlsx,,,CT0950011,TRUE,CT0950011,New London Dept. of Public Utilities
1151 - 40905,F12-169-5,16 HEMPSTEAD CT,New London,CT,Lead,Residential (SF),CT0950011_LCRR_Inventory_Initial_10.15.24.xlsx,,,CT0950011,TRUE,CT0950011,New London Dept. of Public Utilities
1154 - 38810,F12-170-11,16 JAY ST,New London,CT,Lead,Commercial,CT0950011_LCRR_Inventory_Initial_10.15.24.xlsx,,,CT0950011,TRUE,CT0950011,New London Dept. of Public Utilities
1190 - 41128,F10-249-5,16 WALKER ST,New London,CT,Lead,Residential (SF),CT0950011_LCRR_Inventory_Initial_10.15.24.xlsx,,,CT0950011,TRUE,CT0950011,New London Dept. of Public Utilities
1205 - 41302,E16-95-13,161 OCEAN AVE,New London,CT,Lead,Residential (SF),CT0950011_LCRR_Inventory_Initial_10.15.24.xlsx,,,CT0950011,TRUE,CT0950011,New London Dept. of Public Utilities
1207 - 41130,F23-26-12,162 GARDNER AVE,New London,CT,Lead,Residential (SF),CT0950011_LCRR_Inventory_Initial_10.15.24.xlsx,,,CT0950011,TRUE,CT0950011,New London Dept. of Public Utilities
1214 - 38822,F18-69-25,163 PEQUOT AVE,New London,CT,Lead,Unknown,CT0950011_LCRR_Inventory_Initial_10.15.24.xlsx,,,CT0950011,TRUE,CT0950011,New London Dept. of Public Utilities
1228 - 38656,F08-292-18,165 CRYSTAL AVE,New London,CT,Lead,Residential (SF),CT0950011_LCRR_Inventory_Initial_10.15.24.xlsx,,,CT0950011,TRUE,CT0950011,New London Dept. of Public Utilities
1273 - 38828,F13-149-12,17 BLINMAN ST,New London,CT,Lead,Unknown,CT0950011_LCRR_Inventory_Initial_10.15.24.xlsx,,,CT0950011,TRUE,CT0950011,New London Dept. of Public Utilities
1278 - 41143,F13-149-15,17 BREWER ST,New London,CT,Lead,Unknown,CT0950011_LCRR_Inventory_Initial_10.15.24.xlsx,,,CT0950011,TRUE,CT0950011,New London Dept. of Public Utilities
1286 - 38468,D14-126-28,17 COLMAN ST,New London,CT,Lead,Unknown,CT0950011_LCRR_Inventory_Initial_10.15.24.xlsx,,,CT0950011,TRUE,CT0950011,New London Dept. of Public Utilities
1289 - 38469,G24-39-8,17 CROCKER ST,New London,CT,Lead,Residential (SF),CT0950011_LCRR_Inventory_Initial_10.15.24.xlsx,,,CT0950011,TRUE,CT0950011,New London Dept. of Public Utilities
1295 - 38470,E18-72-33,17 FOWLER CT,New London,CT,Lead,Residential (SF),CT0950011_LCRR_Inventory_Initial_10.15.24.xlsx,,,CT0950011,TRUE,CT0950011,New London Dept. of Public Utilities
1296 - 38831,F12-172-24,17 FRANKLIN ST,New London,CT,Lead,Commercial,CT0950011_LCRR_Inventory_Initial_10.15.24.xlsx,,,CT0950011,TRUE,CT0950011,New London Dept. of Public Utilities
1310 - 41311,E15-119-26,17 LEE AVE,New London,CT,Lead,Residential (SF),CT0950011_LCRR_Inventory_Initial_10.15.24.xlsx,,,CT0950011,TRUE,CT0950011,New London Dept. of Public Utilities
1312 - 39024,D17-84-12,17 MAHAN ST,New London,CT,Lead,Residential (SF),CT0950011_LCRR_Inventory_Initial_10.15.24.xlsx,,,CT0950011,TRUE,CT0950011,New London Dept. of Public Utilities
1314 - 38834,E13-131-22,17 MCDONALD ST,New London,CT,Lead,Residential (SF),CT0950011_LCRR_Inventory_Initial_10.15.24.xlsx,,,CT0950011,TRUE,CT0950011,New London Dept. of Public Utilities
1334 - 41313,E16-114-16,17 SQUIRE ST,New London,CT,Lead,Unknown,CT0950011_LCRR_Inventory_Initial_10.15.24.xlsx,,,CT0950011,TRUE,CT0950011,New London Dept. of Public Utilities
1342 - 41905,D12-178-29,17 WALDEN AVE,New London,CT,Lead,Residential (SF),CT0950011_LCRR_Inventory_Initial_10.15.24.xlsx,,,CT0950011,TRUE,CT0950011,New London Dept. of Public Utilities
1359 - 38839,G25-18-21,171 LOWER BLVD,New London,CT,Lead,Unknown,CT0950011_LCRR_Inventory_Initial_10.15.24.xlsx,,,CT0950011,TRUE,CT0950011,New London Dept. of Public Utilities
1369 - 39207,F15-107-36.01,172 HOWARD ST,New London,CT,Lead,Unknown,CT0950011_LCRR_Inventory_Initial_10.15.24.xlsx,,,CT0950011,TRUE,CT0950011,New London Dept. of Public Utilities
1385 - 40775,G24-40-12,174 PARKWAY NORTH,New London,CT,Lead,Unknown,CT0950011_LCRR_Inventory_Initial_10.15.24.xlsx,,,CT0950011,TRUE,CT0950011,New London Dept. of Public Utilities
1398 - 39212,F16-100-16,175 SHAW ST,New London,CT,Lead,Residential (SF),CT0950011_LCRR_Inventory_Initial_10.15.24.xlsx,,,CT0950011,TRUE,CT0950011,New London Dept. of Public Utilities
1400 - 38483,F08-291-15,176 CRYSTAL AVE,New London,CT,Lead,Commercial,CT0950011_LCRR_Inventory_Initial_10.15.24.xlsx,,,CT0950011,TRUE,CT0950011,New London Dept. of Public Utilities
1426 - 39216,G12-141-7,18 BANK ST,New London,CT,Lead,Commercial,CT0950011_LCRR_Inventory_Initial_10.15.24.xlsx,,,CT0950011,TRUE,CT0950011,New London Dept. of Public Utilities
1428 - 40781,E14-134-5,18 BELDEN CT,New London,CT,Lead,Residential (SF),CT0950011_LCRR_Inventory_Initial_10.15.24.xlsx,,,CT0950011,TRUE,CT0950011,New London Dept. of Public Utilities
1446 - 40784,E21-52-3,18 FARMINGTON AVE,New London,CT,Lead,Residential (SF),CT0950011_LCRR_Inventory_Initial_10.15.24.xlsx,,,CT0950011,TRUE,CT0950011,New London Dept. of Public Utilities
1455 - 40947,E19-74-11,18 HENRY ST,New London,CT,Lead,Residential (SF),CT0950011_LCRR_Inventory_Initial_10.15.24.xlsx,,,CT0950011,TRUE,CT0950011,New London Dept. of Public Utilities
1472 - 42082,F13-148-9,18 STARR ST,New London,CT,Lead,Unknown,CT0950011_LCRR_Inventory_Initial_10.15.24.xlsx,,,CT0950011,TRUE,CT0950011,New London Dept. of Public Utilities
1483 - 39384,F23-26-10,180 GARDNER AVE,New London,CT,Lead,Residential (SF),CT0950011_LCRR_Inventory_Initial_10.15.24.xlsx,,,CT0950011,TRUE,CT0950011,New London Dept. of Public Utilities
1494 - 40949,F16-100-17,181 SHAW ST,New London,CT,Lead,Residential (SF),CT0950011_LCRR_Inventory_Initial_10.15.24.xlsx,,,CT0950011,TRUE,CT0950011,New London Dept. of Public Utilities
1508 - 42088,D12-178-26,184 JEFFERSON AVE,New London,CT,Lead,Residential (SF),CT0950011_LCRR_Inventory_Initial_10.15.24.xlsx,,,CT0950011,TRUE,CT0950011,New London Dept. of Public Utilities
1510 - 41925,E16-94-26,184 OCEAN AVE,New London,CT,Lead,Residential (SF),CT0950011_LCRR_Inventory_Initial_10.15.24.xlsx,,,CT0950011,TRUE,CT0950011,New London Dept. of Public Utilities
1552 - 39581,G28-5-11,19 BENTLEY AVE,New London,CT,Lead,Residential (SF),CT0950011_LCRR_Inventory_Initial_10.15.24.xlsx,,,CT0950011,TRUE,CT0950011,New London Dept. of Public Utilities
1556 - 39034,F10-248-7,19 BRISTOL ST,New London,CT,Lead,Residential (SF),CT0950011_LCRR_Inventory_Initial_10.15.24.xlsx,,,CT0950011,TRUE,CT0950011,New London Dept. of Public Utilities
1561 - 42097,F13-150-18,19 COIT ST,New London,CT,Lead,Residential (SF),CT0950011_LCRR_Inventory_Initial_10.15.24.xlsx,,,CT0950011,TRUE,CT0950011,New London Dept. of Public Utilities
1580 - 43426,F15-101-4,19 HAMILTON ST,New London,CT,Lead,Unknown,CT0950011_LCRR_Inventory_Initial_10.15.24.xlsx,,,CT0950011,TRUE,CT0950011,New London Dept. of Public Utilities
1583 - 39399,E18-72-56,19 HENRY ST,New London,CT,Lead,Unknown,CT0950011_LCRR_Inventory_Initial_10.15.24.xlsx,,,CT0950011,TRUE,CT0950011,New London Dept. of Public Utilities
1585 - 39587,F12-172-16,19 JAY ST,New London,CT,Lead,Commercial,CT0950011_LCRR_Inventory_Initial_10.15.24.xlsx,,,CT0950011,TRUE,CT0950011,New London Dept. of Public Utilities
1586 - 39588,E16-99-14,19 LINDEN ST,New London,CT,Lead,Residential (SF),CT0950011_LCRR_Inventory_Initial_10.15.24.xlsx,,,CT0950011,TRUE,CT0950011,New London Dept. of Public Utilities
1608 - 39402,F12-147-18,19 STARR ST,New London,CT,Lead,Residential (SF),CT0950011_LCRR_Inventory_Initial_10.15.24.xlsx,,,CT0950011,TRUE,CT0950011,New London Dept. of Public Utilities
1611 - 43431,F08-298-9,19 TERRACE AVE,New London,CT,Lead,Unknown,CT0950011_LCRR_Inventory_Initial_10.15.24.xlsx,,,CT0950011,TRUE,CT0950011,New London Dept. of Public Utilities
1637 - 39407,D12-178-24,192 JEFFERSON AVE,New London,CT,Lead,Unknown,CT0950011_LCRR_Inventory_Initial_10.15.24.xlsx,,,CT0950011,TRUE,CT0950011,New London Dept. of Public Utilities
1650 - 39040,F23-26-4,194 GARDNER AVE,New London,CT,Lead,Residential (SF),CT0950011_LCRR_Inventory_Initial_10.15.24.xlsx,,,CT0950011,TRUE,CT0950011,New London Dept. of Public Utilities
1652 - 39411,D12-178-22,194 JEFFERSON AVE,New London,CT,Lead,Unknown,CT0950011_LCRR_Inventory_Initial_10.15.24.xlsx,,,CT0950011,TRUE,CT0950011,New London Dept. of Public Utilities
1663 - 41943,F08-297-8,196 CRYSTAL AVE,New London,CT,Lead,Residential (SF),CT0950011_LCRR_Inventory_Initial_10.15.24.xlsx,,,CT0950011,TRUE,CT0950011,New London Dept. of Public Utilities
1665 - 42115,D12-178-38,197 COLMAN ST,New London,CT,Lead,Commercial,CT0950011_LCRR_Inventory_Initial_10.15.24.xlsx,,,CT0950011,TRUE,CT0950011,New London Dept. of Public Utilities
1674 - 42118,F08-297-7,198 CRYSTAL AVE,New London,CT,Lead,Residential (SF),CT0950011_LCRR_Inventory_Initial_10.15.24.xlsx,,,CT0950011,TRUE,CT0950011,New London Dept. of Public Utilities
1685 - 41732,G12-141-1,2 BANK ST,New London,CT,Lead,Unknown,CT0950011_LCRR_Inventory_Initial_10.15.24.xlsx,,,CT0950011,TRUE,CT0950011,New London Dept. of Public Utilities
1688 - 42119,F13-151-13,2 COIT ST,New London,CT,Lead,Commercial,CT0950011_LCRR_Inventory_Initial_10.15.24.xlsx,,,CT0950011,TRUE,CT0950011,New London Dept. of Public Utilities
1691 - 42120,G24-38-15,2 CROCKER ST,New London,CT,Lead,Residential (SF),CT0950011_LCRR_Inventory_Initial_10.15.24.xlsx,,,CT0950011,TRUE,CT0950011,New London Dept. of Public Utilities
1710 - 39419,E15-121-22,2 TINKER CT,New London,CT,Lead,Residential (SF),CT0950011_LCRR_Inventory_Initial_10.15.24.xlsx,,,CT0950011,TRUE,CT0950011,New London Dept. of Public Utilities
1745 - 39247,E14-124-7,20 JEFFERSON AVE,New London,CT,Lead,Residential (SF),CT0950011_LCRR_Inventory_Initial_10.15.24.xlsx,,,CT0950011,TRUE,CT0950011,New London Dept. of Public Utilities
1758 - 41952,F15-103-2,20 NAMEAUG ST,New London,CT,Lead,Commercial,CT0950011_LCRR_Inventory_Initial_10.15.24.xlsx,,,CT0950011,TRUE,CT0950011,New London Dept. of Public Utilities
1762 - 41747,G24-26-18.03,20 PENNY LN,New London,CT,Lead,Unknown,CT0950011_LCRR_Inventory_Initial_10.15.24.xlsx,,,CT0950011,TRUE,CT0950011,New London Dept. of Public Utilities
1785 - 41955,G20-60-10,20 THAMES ST,New London,CT,Lead,Unknown,CT0950011_LCRR_Inventory_Initial_10.15.24.xlsx,,,CT0950011,TRUE,CT0950011,New London Dept. of Public Utilities
1791 - 39427,G13-108-28,200 BANK ST,New London,CT,Lead,Unknown,CT0950011_LCRR_Inventory_Initial_10.15.24.xlsx,,,CT0950011,TRUE,CT0950011,New London Dept. of Public Utilities
1794 - 41959,E16-93-22.01,200 MONTAUK AVE,New London,CT,Lead,Commercial,CT0950011_LCRR_Inventory_Initial_10.15.24.xlsx,,,CT0950011,TRUE,CT0950011,New London Dept. of Public Utilities
1823 - 39619,D12-182-16,204 JEFFERSON AVE,New London,CT,Lead,Residential (SF),CT0950011_LCRR_Inventory_Initial_10.15.24.xlsx,,,CT0950011,TRUE,CT0950011,New London Dept. of Public Utilities
1826 - 41756,E11-193-28,205 CONNECTICUT AVE,New London,CT,Lead,Commercial,CT0950011_LCRR_Inventory_Initial_10.15.24.xlsx,,,CT0950011,TRUE,CT0950011,New London Dept. of Public Utilities
1827 - 39057,F08-296-14,205 CRYSTAL AVE,New London,CT,Lead,Commercial,CT0950011_LCRR_Inventory_Initial_10.15.24.xlsx,,,CT0950011,TRUE,CT0950011,New London Dept. of Public Utilities
1832 - 43459,D09-280-12,205 VAUXHALL ST,New London,CT,Lead,Commercial,CT0950011_LCRR_Inventory_Initial_10.15.24.xlsx,,,CT0950011,TRUE,CT0950011,New London Dept. of Public Utilities
1843 - 42139,D09-256-16,206 VAUXHALL ST,New London,CT,Lead,Residential (SF),CT0950011_LCRR_Inventory_Initial_10.15.24.xlsx,,,CT0950011,TRUE,CT0950011,New London Dept. of Public Utilities
1859 - 39263,G12-144-7,208 STATE ST,New London,CT,Lead,Unknown,CT0950011_LCRR_Inventory_Initial_10.15.24.xlsx,,,CT0950011,TRUE,CT0950011,New London Dept. of Public Utilities
1891 - 42145,G21-58-36,21 GRANADA TER,New London,CT,Lead,Residential (SF),CT0950011_LCRR_Inventory_Initial_10.15.24.xlsx,,,CT0950011,TRUE,CT0950011,New London Dept. of Public Utilities
1914 - 39269,F13-151-18,21 REED ST,New London,CT,Lead,Unknown,CT0950011_LCRR_Inventory_Initial_10.15.24.xlsx,,,CT0950011,TRUE,CT0950011,New London Dept. of Public Utilities
1919 - 39069,E14-124-18,21 SPRING ST,New London,CT,Lead,Commercial,CT0950011_LCRR_Inventory_Initial_10.15.24.xlsx,,,CT0950011,TRUE,CT0950011,New London Dept. of Public Utilities
1932 - 41980,D12-182-12,210 JEFFERSON AVE,New London,CT,Lead,Residential (SF),CT0950011_LCRR_Inventory_Initial_10.15.24.xlsx,,,CT0950011,TRUE,CT0950011,New London Dept. of Public Utilities
1964 - 42152,D12-182-11,216 JEFFERSON AVE,New London,CT,Lead,Residential (SF),CT0950011_LCRR_Inventory_Initial_10.15.24.xlsx,,,CT0950011,TRUE,CT0950011,New London Dept. of Public Utilities
1974 - 39631,D12-118-50,218 COLMAN ST,New London,CT,Lead,Residential (SF),CT0950011_LCRR_Inventory_Initial_10.15.24.xlsx,,,CT0950011,TRUE,CT0950011,New London Dept. of Public Utilities
1978 - 39632,F25-26-56,219 GLENWOOD AVE,New London,CT,Lead,Residential (SF),CT0950011_LCRR_Inventory_Initial_10.15.24.xlsx,,,CT0950011,TRUE,CT0950011,New London Dept. of Public Utilities
1983 - 39633,E09-252-1,22 ADDISON ST,New London,CT,Lead,Residential (SF),CT0950011_LCRR_Inventory_Initial_10.15.24.xlsx,,,CT0950011,TRUE,CT0950011,New London Dept. of Public Utilities
1987 - 39634,E10-212-2,22 AMITY ST,New London,CT,Lead,Commercial,CT0950011_LCRR_Inventory_Initial_10.15.24.xlsx,,,CT0950011,TRUE,CT0950011,New London Dept. of Public Utilities
2024 - 41783,E09-251-6,22 NATHAN HALE ST,New London,CT,Lead,Residential (SF),CT0950011_LCRR_Inventory_Initial_10.15.24.xlsx,,,CT0950011,TRUE,CT0950011,New London Dept. of Public Utilities
2030 - 39638,F13-152-11,22 REED ST,New London,CT,Lead,Unknown,CT0950011_LCRR_Inventory_Initial_10.15.24.xlsx,,,CT0950011,TRUE,CT0950011,New London Dept. of Public Utilities
2046 - 39280,D12-182-9,220 JEFFERSON AVE,New London,CT,Lead,Residential (SF),CT0950011_LCRR_Inventory_Initial_10.15.24.xlsx,,,CT0950011,TRUE,CT0950011,New London Dept. of Public Utilities
2047 - 41993,E17-86-21,220 MONTAUK AVE,New London,CT,Lead,Commercial,CT0950011_LCRR_Inventory_Initial_10.15.24.xlsx,,,CT0950011,TRUE,CT0950011,New London Dept. of Public Utilities
2052 - 39282,D12-118-47,222 COLMAN ST,New London,CT,Lead,Residential (SF),CT0950011_LCRR_Inventory_Initial_10.15.24.xlsx,,,CT0950011,TRUE,CT0950011,New London Dept. of Public Utilities
2065 - 43494,D12-182-7,224 JEFFERSON AVE,New London,CT,Lead,Residential (SF),CT0950011_LCRR_Inventory_Initial_10.15.24.xlsx,,,CT0950011,TRUE,CT0950011,New London Dept. of Public Utilities
2067 - 41787,E17-86-18,224 MONTAUK AVE,New London,CT,Lead,Residential (SF),CT0950011_LCRR_Inventory_Initial_10.15.24.xlsx,,,CT0950011,TRUE,CT0950011,New London Dept. of Public Utilities
2072 - 39641,D12-179-19,225 COLMAN ST,New London,CT,Lead,Residential (SF),CT0950011_LCRR_Inventory_Initial_10.15.24.xlsx,,,CT0950011,TRUE,CT0950011,New London Dept. of Public Utilities
2088 - 39287,E17-85-14,227 MONTAUK AVE,New London,CT,Lead,Residential (SF),CT0950011_LCRR_Inventory_Initial_10.15.24.xlsx,,,CT0950011,TRUE,CT0950011,New London Dept. of Public Utilities
2092 - 39645,D12-182-6,228 JEFFERSON AVE,New London,CT,Lead,Residential (SF),CT0950011_LCRR_Inventory_Initial_10.15.24.xlsx,,,CT0950011,TRUE,CT0950011,New London Dept. of Public Utilities
2095 - 39093,D12-179-20,229 COLMAN ST,New London,CT,Lead,Residential (SF),CT0950011_LCRR_Inventory_Initial_10.15.24.xlsx,,,CT0950011,TRUE,CT0950011,New London Dept. of Public Utilities
2105 - 39648,F08-299-14,23 Bragaw St,New London,CT,Lead,Residential (SF),CT0950011_LCRR_Inventory_Initial_10.15.24.xlsx,,,CT0950011,TRUE,CT0950011,New London Dept. of Public Utilities
2117 - 41796,G08-244-9,23 EASTERN AVE,New London,CT,Lead,Unknown,CT0950011_LCRR_Inventory_Initial_10.15.24.xlsx,,,CT0950011,TRUE,CT0950011,New London Dept. of Public Utilities
2119 - 42002,E21-53-23,23 FARMINGTON AVE,New London,CT,Lead,Residential (SF),CT0950011_LCRR_Inventory_Initial_10.15.24.xlsx,,,CT0950011,TRUE,CT0950011,New London Dept. of Public Utilities
2162 - 39656,G26-18-83,23 WORTHINGTON RD,New London,CT,Lead,Residential (SF),CT0950011_LCRR_Inventory_Initial_10.15.24.xlsx,,,CT0950011,TRUE,CT0950011,New London Dept. of Public Utilities
2164 - 42010,D12-118-44,230 COLMAN ST,New London,CT,Lead,Residential (SF),CT0950011_LCRR_Inventory_Initial_10.15.24.xlsx,,,CT0950011,TRUE,CT0950011,New London Dept. of Public Utilities
2177 - 42011,D11-189-20,232 JEFFERSON AVE,New London,CT,Lead,Unknown,CT0950011_LCRR_Inventory_Initial_10.15.24.xlsx,,,CT0950011,TRUE,CT0950011,New London Dept. of Public Utilities
2181 - 41808,E10-234-3,232 WILLIAMS ST,New London,CT,Lead,Residential (SF),CT0950011_LCRR_Inventory_Initial_10.15.24.xlsx,,,CT0950011,TRUE,CT0950011,New London Dept. of Public Utilities
2208 - 39479,G13-108-33,238 Bank St,New London,CT,Lead,Commercial,CT0950011_LCRR_Inventory_Initial_10.15.24.xlsx,,,CT0950011,TRUE,CT0950011,New London Dept. of Public Utilities
2221 - 42014,E17-79-29.02,24 AVERY CT,New London,CT,Lead,Residential (SF),CT0950011_LCRR_Inventory_Initial_10.15.24.xlsx,,,CT0950011,TRUE,CT0950011,New London Dept. of Public Utilities
2222 - 43511,G12-141-8,24 BANK ST,New London,CT,Lead,Commercial,CT0950011_LCRR_Inventory_Initial_10.15.24.xlsx,,,CT0950011,TRUE,CT0950011,New London Dept. of Public Utilities
2227 - 39669,F13-150-6,24 BREWER ST,New London,CT,Lead,Residential (SF),CT0950011_LCRR_Inventory_Initial_10.15.24.xlsx,,,CT0950011,TRUE,CT0950011,New London Dept. of Public Utilities
2253 - 39673,G23-41-54,24 LESTER ST,New London,CT,Lead,Unknown,CT0950011_LCRR_Inventory_Initial_10.15.24.xlsx,,,CT0950011,TRUE,CT0950011,New London Dept. of Public Utilities
2265 - 39674,D12-176-4,24 PLEASANT ST,New London,CT,Lead,Residential (SF),CT0950011_LCRR_Inventory_Initial_10.15.24.xlsx,,,CT0950011,TRUE,CT0950011,New London Dept. of Public Utilities
2272 - 39489,E09-252-4,24 SUMMIT AVE,New London,CT,Lead,Residential (SF),CT0950011_LCRR_Inventory_Initial_10.15.24.xlsx,,,CT0950011,TRUE,CT0950011,New London Dept. of Public Utilities
2285 - 39492,F07-300-10,240 CRYSTAL AVE,New London,CT,Lead,Residential (SF),CT0950011_LCRR_Inventory_Initial_10.15.24.xlsx,,,CT0950011,TRUE,CT0950011,New London Dept. of Public Utilities
2294 - 39115,F07-301-14,241 CRYSTAL AVE,New London,CT,Lead,Residential (SF),CT0950011_LCRR_Inventory_Initial_10.15.24.xlsx,,,CT0950011,TRUE,CT0950011,New London Dept. of Public Utilities
2296 - 39308,F23-46-24,241 GARDNER AVE,New London,CT,Lead,Residential (SF),CT0950011_LCRR_Inventory_Initial_10.15.24.xlsx,,,CT0950011,TRUE,CT0950011,New London Dept. of Public Utilities
2301 - 39677,F07-300-9,242 CRYSTAL AVE,New London,CT,Lead,Residential (SF),CT0950011_LCRR_Inventory_Initial_10.15.24.xlsx,,,CT0950011,TRUE,CT0950011,New London Dept. of Public Utilities
2302 - 41825,D11-192-2,242 ELM ST,New London,CT,Lead,Residential (SF),CT0950011_LCRR_Inventory_Initial_10.15.24.xlsx,,,CT0950011,TRUE,CT0950011,New London Dept. of Public Utilities
2310 - 39310,D12-188-25,244 Colman St,New London,CT,Lead,Residential (SF),CT0950011_LCRR_Inventory_Initial_10.15.24.xlsx,,,CT0950011,TRUE,CT0950011,New London Dept. of Public Utilities
2328 - 42191,C12-118-37,246 COLMAN ST,New London,CT,Lead,Unknown,CT0950011_LCRR_Inventory_Initial_10.15.24.xlsx,,,CT0950011,TRUE,CT0950011,New London Dept. of Public Utilities
2340 - 39685,E17-79-51,248 OCEAN AVE,New London,CT,Lead,Residential (SF),CT0950011_LCRR_Inventory_Initial_10.15.24.xlsx,,,CT0950011,TRUE,CT0950011,New London Dept. of Public Utilities
2358 - 42196,F13-149-16,25 BREWER ST,New London,CT,Lead,Unknown,CT0950011_LCRR_Inventory_Initial_10.15.24.xlsx,,,CT0950011,TRUE,CT0950011,New London Dept. of Public Utilities
2370 - 39502,D16-95-22,25 FRIENDSHIP ST,New London,CT,Lead,Unknown,CT0950011_LCRR_Inventory_Initial_10.15.24.xlsx,,,CT0950011,TRUE,CT0950011,New London Dept. of Public Utilities
2375 - 39317,G21-58-37,25 GRANADA TER,New London,CT,Lead,Residential (SF),CT0950011_LCRR_Inventory_Initial_10.15.24.xlsx,,,CT0950011,TRUE,CT0950011,New London Dept. of Public Utilities
2380 - 42201,E18-72-59,25 HENRY ST,New London,CT,Lead,Residential (SF),CT0950011_LCRR_Inventory_Initial_10.15.24.xlsx,,,CT0950011,TRUE,CT0950011,New London Dept. of Public Utilities
2382 - 42035,F12-172-19,25 JAY ST,New London,CT,Lead,Residential (SF),CT0950011_LCRR_Inventory_Initial_10.15.24.xlsx,,,CT0950011,TRUE,CT0950011,New London Dept. of Public Utilities
2386 - 41839,D08-257-28,25 LEARNED ST,New London,CT,Lead,Residential (SF),CT0950011_LCRR_Inventory_Initial_10.15.24.xlsx,,,CT0950011,TRUE,CT0950011,New London Dept. of Public Utilities
2387 - 39505,E15-119-28,25 LEE AVE,New London,CT,Lead,Residential (SF),CT0950011_LCRR_Inventory_Initial_10.15.24.xlsx,,,CT0950011,TRUE,CT0950011,New London Dept. of Public Utilities
2388 - 42202,E11-175-6,25 LINCOLN CT,New London,CT,Lead,Unknown,CT0950011_LCRR_Inventory_Initial_10.15.24.xlsx,,,CT0950011,TRUE,CT0950011,New London Dept. of Public Utilities
2399 - 39506,E14-119-15,25 OCEAN AVE,New London,CT,Lead,Residential (SF),CT0950011_LCRR_Inventory_Initial_10.15.24.xlsx,,,CT0950011,TRUE,CT0950011,New London Dept. of Public Utilities
2413 - 39320,E14-122-7,25 SHAW ST,New London,CT,Lead,Residential (SF),CT0950011_LCRR_Inventory_Initial_10.15.24.xlsx,,,CT0950011,TRUE,CT0950011,New London Dept. of Public Utilities
2451 - 39326,D11-189-16,254 JEFFERSON AVE,New London,CT,Lead,Residential (SF),CT0950011_LCRR_Inventory_Initial_10.15.24.xlsx,,,CT0950011,TRUE,CT0950011,New London Dept. of Public Utilities
2461 - 43527,F07-302-16,256 CRYSTAL AVE,New London,CT,Lead,Unknown,CT0950011_LCRR_Inventory_Initial_10.15.24.xlsx,,,CT0950011,TRUE,CT0950011,New London Dept. of Public Utilities
2462 - 39328,D11-191-8,256 ELM ST,New London,CT,Lead,Residential (SF),CT0950011_LCRR_Inventory_Initial_10.15.24.xlsx,,,CT0950011,TRUE,CT0950011,New London Dept. of Public Utilities
2465 - 41848,E17-77-37,256 MONTAUK AVE,New London,CT,Lead,Residential (SF),CT0950011_LCRR_Inventory_Initial_10.15.24.xlsx,,,CT0950011,TRUE,CT0950011,New London Dept. of Public Utilities
2479 - 42212,E13-135-3,26 BLACKHALL ST,New London,CT,Lead,Unknown,CT0950011_LCRR_Inventory_Initial_10.15.24.xlsx,,,CT0950011,TRUE,CT0950011,New London Dept. of Public Utilities
2483 - 39141,F11-173-6,26 BROAD ST,New London,CT,Lead,Commercial,CT0950011_LCRR_Inventory_Initial_10.15.24.xlsx,,,CT0950011,TRUE,CT0950011,New London Dept. of Public Utilities
2509 - 43531,G26-13-1,26 HILLSIDE AVE,New London,CT,Lead,Residential (SF),CT0950011_LCRR_Inventory_Initial_10.15.24.xlsx,,,CT0950011,TRUE,CT0950011,New London Dept. of Public Utilities
2511 - 39708,E14-124-6,26 JEFFERSON AVE,New London,CT,Lead,Residential (SF),CT0950011_LCRR_Inventory_Initial_10.15.24.xlsx,,,CT0950011,TRUE,CT0950011,New London Dept. of Public Utilities
2518 - 39333,G28-2-15,26 MOTT AVE,New London,CT,Lead,Residential (SF),CT0950011_LCRR_Inventory_Initial_10.15.24.xlsx,,,CT0950011,TRUE,CT0950011,New London Dept. of Public Utilities
2528 - 39519,F20-61-9,26 SHERMAN ST,New London,CT,Lead,Residential (SF),CT0950011_LCRR_Inventory_Initial_10.15.24.xlsx,,,CT0950011,TRUE,CT0950011,New London Dept. of Public Utilities
2530 - 39145,F08-296-8,26 STANNERS ST,New London,CT,Lead,Residential (SF),CT0950011_LCRR_Inventory_Initial_10.15.24.xlsx,,,CT0950011,TRUE,CT0950011,New London Dept. of Public Utilities
2531 - 42061,F13-148-7,26 STARR ST,New London,CT,Lead,Residential (SF),CT0950011_LCRR_Inventory_Initial_10.15.24.xlsx,,,CT0950011,TRUE,CT0950011,New London Dept. of Public Utilities
2534 - 39521,D17-83-35,26 VIETS ST,New London,CT,Lead,Residential (SF),CT0950011_LCRR_Inventory_Initial_10.15.24.xlsx,,,CT0950011,TRUE,CT0950011,New London Dept. of Public Utilities
2543 - 39148,D11-189-15,260 JEFFERSON AVE,New London,CT,Lead,Residential (SF),CT0950011_LCRR_Inventory_Initial_10.15.24.xlsx,,,CT0950011,TRUE,CT0950011,New London Dept. of Public Utilities
2555 - 39524,D08-279-20,261 VAUXHALL ST,New London,CT,Lead,Residential (SF),CT0950011_LCRR_Inventory_Initial_10.15.24.xlsx,,,CT0950011,TRUE,CT0950011,New London Dept. of Public Utilities
2559 - 41864,F07-302-15,262 CRYSTAL AVE,New London,CT,Lead,Unknown,CT0950011_LCRR_Inventory_Initial_10.15.24.xlsx,,,CT0950011,TRUE,CT0950011,New London Dept. of Public Utilities
2584 - 41868,F07-302-14,266 CRYSTAL AVE,New London,CT,Lead,Residential (SF),CT0950011_LCRR_Inventory_Initial_10.15.24.xlsx,,,CT0950011,TRUE,CT0950011,New London Dept. of Public Utilities
2602 - 41870,G12-142-17,27 BANK ST,New London,CT,Lead,Unknown,CT0950011_LCRR_Inventory_Initial_10.15.24.xlsx,,,CT0950011,TRUE,CT0950011,New London Dept. of Public Utilities
2606 - 39156,F13-149-17,27 BREWER ST,New London,CT,Lead,Residential (SF),CT0950011_LCRR_Inventory_Initial_10.15.24.xlsx,,,CT0950011,TRUE,CT0950011,New London Dept. of Public Utilities
2607 - 39157,F10-248-8,27 BRISTOL ST,New London,CT,Lead,Residential (SF),CT0950011_LCRR_Inventory_Initial_10.15.24.xlsx,,,CT0950011,TRUE,CT0950011,New London Dept. of Public Utilities
2608 - 41871,F11-197-8,27 BROAD ST,New London,CT,Lead,Commercial,CT0950011_LCRR_Inventory_Initial_10.15.24.xlsx,,,CT0950011,TRUE,CT0950011,New London Dept. of Public Utilities
2621 - 39160,E18-72-36,27 FOWLER CT,New London,CT,Lead,Residential (SF),CT0950011_LCRR_Inventory_Initial_10.15.24.xlsx,,,CT0950011,TRUE,CT0950011,New London Dept. of Public Utilities
2638 - 39165,B07-269-14,27 PHILLIPS ST,New London,CT,Lead,Residential (SF),CT0950011_LCRR_Inventory_Initial_10.15.24.xlsx,,,CT0950011,TRUE,CT0950011,New London Dept. of Public Utilities
2645 - 42232,E15-121-14,27 STEWARD ST,New London,CT,Lead,Unknown,CT0950011_LCRR_Inventory_Initial_10.15.24.xlsx,,,CT0950011,TRUE,CT0950011,New London Dept. of Public Utilities
2656 - 42235,F07-302-13,270 CRYSTAL AVE,New London,CT,Lead,Unknown,CT0950011_LCRR_Inventory_Initial_10.15.24.xlsx,,,CT0950011,TRUE,CT0950011,New London Dept. of Public Utilities
2668 - 39723,D10-226-9,272 CONNECTICUT AVE,New London,CT,Lead,Unknown,CT0950011_LCRR_Inventory_Initial_10.15.24.xlsx,,,CT0950011,TRUE,CT0950011,New London Dept. of Public Utilities
2693 - 39539,F07-302-11,278 CRYSTAL AVE,New London,CT,Lead,Residential (SF),CT0950011_LCRR_Inventory_Initial_10.15.24.xlsx,,,CT0950011,TRUE,CT0950011,New London Dept. of Public Utilities
2717 - 39172,G28-4-12,28 ELLIOTT AVE,New London,CT,Lead,Residential (SF),CT0950011_LCRR_Inventory_Initial_10.15.24.xlsx,,,CT0950011,TRUE,CT0950011,New London Dept. of Public Utilities
2718 - 43559,E20-54-38,28 EVERGREEN AVE,New London,CT,Lead,Residential (SF),CT0950011_LCRR_Inventory_Initial_10.15.24.xlsx,,,CT0950011,TRUE,CT0950011,New London Dept. of Public Utilities
2720 - 39359,H10-245-1,28 FRASER ST,New London,CT,Lead,Unknown,CT0950011_LCRR_Inventory_Initial_10.15.24.xlsx,,,CT0950011,TRUE,CT0950011,New London Dept. of Public Utilities
2725 - 39360,F26-10-24,28 GREENWAY RD,New London,CT,Lead,Residential (SF),CT0950011_LCRR_Inventory_Initial_10.15.24.xlsx,,,CT0950011,TRUE,CT0950011,New London Dept. of Public Utilities
2732 - 39543,E15-116-11,28 LEE AVE,New London,CT,Lead,Residential (SF),CT0950011_LCRR_Inventory_Initial_10.15.24.xlsx,,,CT0950011,TRUE,CT0950011,New London Dept. of Public Utilities
2749 - 39546,F13-152-10,28 REED ST,New London,CT,Lead,Commercial,CT0950011_LCRR_Inventory_Initial_10.15.24.xlsx,,,CT0950011,TRUE,CT0950011,New London Dept. of Public Utilities
2770 - 40267,F07-302-10,280 CRYSTAL AVE,New London,CT,Lead,Unknown,CT0950011_LCRR_Inventory_Initial_10.15.24.xlsx,,,CT0950011,TRUE,CT0950011,New London Dept. of Public Utilities
2776 - 39905,F07-295-32,281 CRYSTAL AVE,New London,CT,Lead,Residential (MF),CT0950011_LCRR_Inventory_Initial_10.15.24.xlsx,,,CT0950011,TRUE,CT0950011,New London Dept. of Public Utilities
2788 - 39180,E18-78-29,284 OCEAN AVE,New London,CT,Lead,Residential (SF),CT0950011_LCRR_Inventory_Initial_10.15.24.xlsx,,,CT0950011,TRUE,CT0950011,New London Dept. of Public Utilities
2801 - 39907,C11-220-28,288 COLMAN ST,New London,CT,Lead,Residential (SF),CT0950011_LCRR_Inventory_Initial_10.15.24.xlsx,,,CT0950011,TRUE,CT0950011,New London Dept. of Public Utilities
2805 - 39183,F13-149-9,289 BANK ST,New London,CT,Lead,Unknown,CT0950011_LCRR_Inventory_Initial_10.15.24.xlsx,,,CT0950011,TRUE,CT0950011,New London Dept. of Public Utilities
2837 - 42252,F07-300-6,29 GROVE ST,New London,CT,Lead,Residential (SF),CT0950011_LCRR_Inventory_Initial_10.15.24.xlsx,,,CT0950011,TRUE,CT0950011,New London Dept. of Public Utilities
2881 - 42429,C11-220-26,292 COLMAN ST,New London,CT,Lead,Residential (SF),CT0950011_LCRR_Inventory_Initial_10.15.24.xlsx,,,CT0950011,TRUE,CT0950011,New London Dept. of Public Utilities
2882 - 40275,E18-78-27,292 OCEAN AVE,New London,CT,Lead,Residential (SF),CT0950011_LCRR_Inventory_Initial_10.15.24.xlsx,,,CT0950011,TRUE,CT0950011,New London Dept. of Public Utilities
2893 - 42627,D11-190-9,294 JEFFERSON AVE,New London,CT,Lead,Residential (SF),CT0950011_LCRR_Inventory_Initial_10.15.24.xlsx,,,CT0950011,TRUE,CT0950011,New London Dept. of Public Utilities
2902 - 40277,F13-109-6,298 BANK ST,New London,CT,Lead,Unknown,CT0950011_LCRR_Inventory_Initial_10.15.24.xlsx,,,CT0950011,TRUE,CT0950011,New London Dept. of Public Utilities
2903 - 42628,F07-302-6,298 CRYSTAL AVE,New London,CT,Lead,Residential (SF),CT0950011_LCRR_Inventory_Initial_10.15.24.xlsx,,,CT0950011,TRUE,CT0950011,New London Dept. of Public Utilities
2912 - 39192,E18-72-31,3 FOWLER CT,New London,CT,Lead,Residential (SF),CT0950011_LCRR_Inventory_Initial_10.15.24.xlsx,,,CT0950011,TRUE,CT0950011,New London Dept. of Public Utilities
2964 - 42638,E19-74-8,30 HENRY ST,New London,CT,Lead,Unknown,CT0950011_LCRR_Inventory_Initial_10.15.24.xlsx,,,CT0950011,TRUE,CT0950011,New London Dept. of Public Utilities
3001 - 39731,F07-302-5,302 CRYSTAL AVE,New London,CT,Lead,Residential (SF),CT0950011_LCRR_Inventory_Initial_10.15.24.xlsx,,,CT0950011,TRUE,CT0950011,New London Dept. of Public Utilities
3013 - 40110,D08-258-13,306 VAUXHALL ST,New London,CT,Lead,Residential (SF),CT0950011_LCRR_Inventory_Initial_10.15.24.xlsx,,,CT0950011,TRUE,CT0950011,New London Dept. of Public Utilities
3016 - 43148,G20-60-15,307 PEQUOT AVE,New London,CT,Lead,Residential (SF),CT0950011_LCRR_Inventory_Initial_10.15.24.xlsx,,,CT0950011,TRUE,CT0950011,New London Dept. of Public Utilities
3020 - 40293,F07-302-4,308 CRYSTAL AVE,New London,CT,Lead,Residential (SF),CT0950011_LCRR_Inventory_Initial_10.15.24.xlsx,,,CT0950011,TRUE,CT0950011,New London Dept. of Public Utilities
3036 - 39737,F13-150-12,31 BLINMAN ST,New London,CT,Lead,Commercial,CT0950011_LCRR_Inventory_Initial_10.15.24.xlsx,,,CT0950011,TRUE,CT0950011,New London Dept. of Public Utilities
3044 - 39739,E19-73-23,31 DELL AVE,New London,CT,Lead,Residential (SF),CT0950011_LCRR_Inventory_Initial_10.15.24.xlsx,,,CT0950011,TRUE,CT0950011,New London Dept. of Public Utilities
3049 - 42447,E21-53-24,31 FARMINGTON AVE,New London,CT,Lead,Unknown,CT0950011_LCRR_Inventory_Initial_10.15.24.xlsx,,,CT0950011,TRUE,CT0950011,New London Dept. of Public Utilities
3052 - 43151,E18-72-37,31 FOWLER CT,New London,CT,Lead,Residential (SF),CT0950011_LCRR_Inventory_Initial_10.15.24.xlsx,,,CT0950011,TRUE,CT0950011,New London Dept. of Public Utilities
3076 - 43157,E15-121-15,31 STEWARD ST,New London,CT,Lead,Unknown,CT0950011_LCRR_Inventory_Initial_10.15.24.xlsx,,,CT0950011,TRUE,CT0950011,New London Dept. of Public Utilities
3080 - 40300,E09-250-2,31 VAUXHALL ST,New London,CT,Lead,Unknown,CT0950011_LCRR_Inventory_Initial_10.15.24.xlsx,,,CT0950011,TRUE,CT0950011,New London Dept. of Public Utilities
3093 - 42453,E18-72-28,311 OCEAN AVE,New London,CT,Lead,Commercial,CT0950011_LCRR_Inventory_Initial_10.15.24.xlsx,,,CT0950011,TRUE,CT0950011,New London Dept. of Public Utilities
3098 - 39936,D09-225-2,313 Broad St,New London,CT,Lead,Commercial,CT0950011_LCRR_Inventory_Initial_10.15.24.xlsx,,,CT0950011,TRUE,CT0950011,New London Dept. of Public Utilities
3111 - 43158,F07-302-2,316 CRYSTAL AVE,New London,CT,Lead,Residential (SF),CT0950011_LCRR_Inventory_Initial_10.15.24.xlsx,,,CT0950011,TRUE,CT0950011,New London Dept. of Public Utilities
3118 - 43802,E18-72-29,317 OCEAN AVE,New London,CT,Lead,Unknown,CT0950011_LCRR_Inventory_Initial_10.15.24.xlsx,,,CT0950011,TRUE,CT0950011,New London Dept. of Public Utilities
3123 - 40125,D11-191-13,319 JEFFERSON AVE,New London,CT,Lead,Residential (SF),CT0950011_LCRR_Inventory_Initial_10.15.24.xlsx,,,CT0950011,TRUE,CT0950011,New London Dept. of Public Utilities
3155 - 42663,F19-63-5,32 HARRIS RD,New London,CT,Lead,Residential (SF),CT0950011_LCRR_Inventory_Initial_10.15.24.xlsx,,,CT0950011,TRUE,CT0950011,New London Dept. of Public Utilities
3162 - 40309,G27-9-4,32 JEROME RD,New London,CT,Lead,Unknown,CT0950011_LCRR_Inventory_Initial_10.15.24.xlsx,,,CT0950011,TRUE,CT0950011,New London Dept. of Public Utilities
3191 - 43171,F06-295-28,321 CRYSTAL AVE,New London,CT,Lead,Residential (SF),CT0950011_LCRR_Inventory_Initial_10.15.24.xlsx,,,CT0950011,TRUE,CT0950011,New London Dept. of Public Utilities
3195 - 42667,D11-190-7,322 JEFFERSON AVE,New London,CT,Lead,Residential (SF),CT0950011_LCRR_Inventory_Initial_10.15.24.xlsx,,,CT0950011,TRUE,CT0950011,New London Dept. of Public Utilities
3204 - 40136,D11-190-6,324 JEFFERSON AVE,New London,CT,Lead,Commercial,CT0950011_LCRR_Inventory_Initial_10.15.24.xlsx,,,CT0950011,TRUE,CT0950011,New London Dept. of Public Utilities
3207 - 39759,C11-191-15,325 JEFFERSON AVE,New London,CT,Lead,Residential (SF),CT0950011_LCRR_Inventory_Initial_10.15.24.xlsx,,,CT0950011,TRUE,CT0950011,New London Dept. of Public Utilities
3211 - 42467,C11-190-5,326 JEFFERSON AVE,New London,CT,Lead,Residential (SF),CT0950011_LCRR_Inventory_Initial_10.15.24.xlsx,,,CT0950011,TRUE,CT0950011,New London Dept. of Public Utilities
3231 - 40316,D09-282-22,33 BRIGGS ST,New London,CT,Lead,Residential (SF),CT0950011_LCRR_Inventory_Initial_10.15.24.xlsx,,,CT0950011,TRUE,CT0950011,New London Dept. of Public Utilities
3232 - 43816,F11-197-9,33 BROAD ST,New London,CT,Lead,Unknown,CT0950011_LCRR_Inventory_Initial_10.15.24.xlsx,,,CT0950011,TRUE,CT0950011,New London Dept. of Public Utilities
3241 - 39765,D14-127-30,33 CUTLER ST,New London,CT,Lead,Residential (SF),CT0950011_LCRR_Inventory_Initial_10.15.24.xlsx,,,CT0950011,TRUE,CT0950011,New London Dept. of Public Utilities
3242 - 40319,E19-73-24,33 DELL AVE,New London,CT,Lead,Residential (SF),CT0950011_LCRR_Inventory_Initial_10.15.24.xlsx,,,CT0950011,TRUE,CT0950011,New London Dept. of Public Utilities
3243 - 39766,H10-245-1,33 EIGHTH ST,New London,CT,Lead,Unknown,CT0950011_LCRR_Inventory_Initial_10.15.24.xlsx,,,CT0950011,TRUE,CT0950011,New London Dept. of Public Utilities
3259 - 39951,F12-169-15,33 JAY ST,New London,CT,Lead,Commercial,CT0950011_LCRR_Inventory_Initial_10.15.24.xlsx,,,CT0950011,TRUE,CT0950011,New London Dept. of Public Utilities
3262 - 42474,E15-119-30,33 LEE AVE,New London,CT,Lead,Residential (SF),CT0950011_LCRR_Inventory_Initial_10.15.24.xlsx,,,CT0950011,TRUE,CT0950011,New London Dept. of Public Utilities
3263 - 40323,E16-99-17,33 LINDEN ST,New London,CT,Lead,Residential (SF),CT0950011_LCRR_Inventory_Initial_10.15.24.xlsx,,,CT0950011,TRUE,CT0950011,New London Dept. of Public Utilities
3276 - 42673,E14-122-10,33 SHAW ST,New London,CT,Lead,Residential (SF),CT0950011_LCRR_Inventory_Initial_10.15.24.xlsx,,,CT0950011,TRUE,CT0950011,New London Dept. of Public Utilities
3282 - 40328,D12-178-33,33 WALDEN AVE,New London,CT,Lead,Unknown,CT0950011_LCRR_Inventory_Initial_10.15.24.xlsx,,,CT0950011,TRUE,CT0950011,New London Dept. of Public Utilities
3292 - 39957,G20-59-20,330 PEQUOT AVE,New London,CT,Lead,Residential (SF),CT0950011_LCRR_Inventory_Initial_10.15.24.xlsx,,,CT0950011,TRUE,CT0950011,New London Dept. of Public Utilities
3299 - 40147,C11-190-2,332 JEFFERSON AVE,New London,CT,Lead,Residential (SF),CT0950011_LCRR_Inventory_Initial_10.15.24.xlsx,,,CT0950011,TRUE,CT0950011,New London Dept. of Public Utilities
3301 - 43823,C11-191-18,333 JEFFERSON AVE,New London,CT,Lead,Residential (SF),CT0950011_LCRR_Inventory_Initial_10.15.24.xlsx,,,CT0950011,TRUE,CT0950011,New London Dept. of Public Utilities
3320 - 42679,D10-217-39,34 CAPE ANN CT,New London,CT,Lead,Residential (SF),CT0950011_LCRR_Inventory_Initial_10.15.24.xlsx,,,CT0950011,TRUE,CT0950011,New London Dept. of Public Utilities
3325 - 40336,E19-72-88,34 DELL AVE,New London,CT,Lead,Unknown,CT0950011_LCRR_Inventory_Initial_10.15.24.xlsx,,,CT0950011,TRUE,CT0950011,New London Dept. of Public Utilities
3328 - 43183,E20-54-37,34 EVERGREEN AVE,New London,CT,Lead,Residential (SF),CT0950011_LCRR_Inventory_Initial_10.15.24.xlsx,,,CT0950011,TRUE,CT0950011,New London Dept. of Public Utilities
3339 - 40337,G24-39-4,34 LOWER BLVD,New London,CT,Lead,Residential (SF),CT0950011_LCRR_Inventory_Initial_10.15.24.xlsx,,,CT0950011,TRUE,CT0950011,New London Dept. of Public Utilities
3346 - 43187,G28-4-2,34 NEPTUNE AVE,New London,CT,Lead,Unknown,CT0950011_LCRR_Inventory_Initial_10.15.24.xlsx,,,CT0950011,TRUE,CT0950011,New London Dept. of Public Utilities
3350 - 43830,F13-152-8,34 REED ST,New London,CT,Lead,Commercial,CT0950011_LCRR_Inventory_Initial_10.15.24.xlsx,,,CT0950011,TRUE,CT0950011,New London Dept. of Public Utilities
3375 - 40344,C11-190-1,342 JEFFERSON AVE,New London,CT,Lead,Residential (SF),CT0950011_LCRR_Inventory_Initial_10.15.24.xlsx,,,CT0950011,TRUE,CT0950011,New London Dept. of Public Utilities
3384 - 42489,C11-191-21,345 COLMAN ST,New London,CT,Lead,Residential (SF),CT0950011_LCRR_Inventory_Initial_10.15.24.xlsx,,,CT0950011,TRUE,CT0950011,New London Dept. of Public Utilities
3405 - 43837,F13-150-13,35 BLINMAN ST,New London,CT,Lead,Commercial,CT0950011_LCRR_Inventory_Initial_10.15.24.xlsx,,,CT0950011,TRUE,CT0950011,New London Dept. of Public Utilities
3434 - 43842,D08-257-29,35 LEARNED ST,New London,CT,Lead,Residential (SF),CT0950011_LCRR_Inventory_Initial_10.15.24.xlsx,,,CT0950011,TRUE,CT0950011,New London Dept. of Public Utilities
3450 - 42498,G16-105-20,35 SMITH ST,New London,CT,Lead,Unknown,CT0950011_LCRR_Inventory_Initial_10.15.24.xlsx,,,CT0950011,TRUE,CT0950011,New London Dept. of Public Utilities
3458 - 43204,D12-178-34,35 WALDEN AVE,New London,CT,Lead,Residential (SF),CT0950011_LCRR_Inventory_Initial_10.15.24.xlsx,,,CT0950011,TRUE,CT0950011,New London Dept. of Public Utilities
3468 - 42698,C11-220-22,350 JEFFERSON AVE,New London,CT,Lead,Residential (SF),CT0950011_LCRR_Inventory_Initial_10.15.24.xlsx,,,CT0950011,TRUE,CT0950011,New London Dept. of Public Utilities
3483 - 39794,F13-137-15.2,357 BANK ST,New London,CT,Lead,Unknown,CT0950011_LCRR_Inventory_Initial_10.15.24.xlsx,,,CT0950011,TRUE,CT0950011,New London Dept. of Public Utilities
3498 - 39987,E09-286-9,36 BERKELEY AVE,New London,CT,Lead,Residential (SF),CT0950011_LCRR_Inventory_Initial_10.15.24.xlsx,,,CT0950011,TRUE,CT0950011,New London Dept. of Public Utilities
3503 - 39797,E10-229-13,36 CENTER ST,New London,CT,Lead,Unknown,CT0950011_LCRR_Inventory_Initial_10.15.24.xlsx,,,CT0950011,TRUE,CT0950011,New London Dept. of Public Utilities
3505 - 39989,E10-232-2,36 CLEVELAND ST,New London,CT,Lead,Residential (SF),CT0950011_LCRR_Inventory_Initial_10.15.24.xlsx,,,CT0950011,TRUE,CT0950011,New London Dept. of Public Utilities
3510 - 42703,E18-72-43,36 FOWLER CT,New London,CT,Lead,Residential (SF),CT0950011_LCRR_Inventory_Initial_10.15.24.xlsx,,,CT0950011,TRUE,CT0950011,New London Dept. of Public Utilities
3536 - 42708,E18-78-4,36 PERRY ST,New London,CT,Lead,Residential (MF),CT0950011_LCRR_Inventory_Initial_10.15.24.xlsx,,,CT0950011,TRUE,CT0950011,New London Dept. of Public Utilities
3549 - 42510,D13-129-4,36 WEST HIGH ST,New London,CT,Lead,Residential (SF),CT0950011_LCRR_Inventory_Initial_10.15.24.xlsx,,,CT0950011,TRUE,CT0950011,New London Dept. of Public Utilities
3594 - 43221,F12-173-13,37 COTTAGE ST,New London,CT,Lead,Commercial,CT0950011_LCRR_Inventory_Initial_10.15.24.xlsx,,,CT0950011,TRUE,CT0950011,New London Dept. of Public Utilities
3613 - 43863,D17-84-17,37 MAHAN ST,New London,CT,Lead,Unknown,CT0950011_LCRR_Inventory_Initial_10.15.24.xlsx,,,CT0950011,TRUE,CT0950011,New London Dept. of Public Utilities
3638 - 40005,F13-137-13,377 BANK ST,New London,CT,Lead,Commercial,CT0950011_LCRR_Inventory_Initial_10.15.24.xlsx,,,CT0950011,TRUE,CT0950011,New London Dept. of Public Utilities
3649 - 40371,E19-72-87,38 DELL AVE,New London,CT,Lead,Residential (SF),CT0950011_LCRR_Inventory_Initial_10.15.24.xlsx,,,CT0950011,TRUE,CT0950011,New London Dept. of Public Utilities
3654 - 43872,H24-33-1,38 GLENWOOD AVE,New London,CT,Lead,Unknown,CT0950011_LCRR_Inventory_Initial_10.15.24.xlsx,,,CT0950011,TRUE,CT0950011,New London Dept. of Public Utilities
3658 - 40374,E19-74-6,38 HENRY ST,New London,CT,Lead,Residential (SF),CT0950011_LCRR_Inventory_Initial_10.15.24.xlsx,,,CT0950011,TRUE,CT0950011,New London Dept. of Public Utilities
3661 - 39823,E14-124-3,38 JEFFERSON AVE,New London,CT,Lead,Residential (SF),CT0950011_LCRR_Inventory_Initial_10.15.24.xlsx,,,CT0950011,TRUE,CT0950011,New London Dept. of Public Utilities
3679 - 42521,G12-142-14,38 STATE ST,New London,CT,Lead,Unknown,CT0950011_LCRR_Inventory_Initial_10.15.24.xlsx,,,CT0950011,TRUE,CT0950011,New London Dept. of Public Utilities
3695 - 42728,F14-109-2,383 Bank St,New London,CT,Lead,Commercial,CT0950011_LCRR_Inventory_Initial_10.15.24.xlsx,,,CT0950011,TRUE,CT0950011,New London Dept. of Public Utilities
3710 - 43234,E09-288-18,39 BERKELEY AVE,New London,CT,Lead,Unknown,CT0950011_LCRR_Inventory_Initial_10.15.24.xlsx,,,CT0950011,TRUE,CT0950011,New London Dept. of Public Utilities
3718 - 42523,E20-54-26,39 EVERGREEN AVE,New London,CT,Lead,Unknown,CT0950011_LCRR_Inventory_Initial_10.15.24.xlsx,,,CT0950011,TRUE,CT0950011,New London Dept. of Public Utilities
3745 - 39832,E13-136-34,39 TRUMAN ST,New London,CT,Lead,Commercial,CT0950011_LCRR_Inventory_Initial_10.15.24.xlsx,,,CT0950011,TRUE,CT0950011,New London Dept. of Public Utilities
3746 - 42525,H10-245-1,39 TWELFTH ST,New London,CT,Lead,Unknown,CT0950011_LCRR_Inventory_Initial_10.15.24.xlsx,,,CT0950011,TRUE,CT0950011,New London Dept. of Public Utilities
3771 - 40203,F11-209-3,4 BULKELEY PL,New London,CT,Lead,Unknown,CT0950011_LCRR_Inventory_Initial_10.15.24.xlsx,,,CT0950011,TRUE,CT0950011,New London Dept. of Public Utilities
3800 - 42737,F13-137-11,40 BLINMAN ST,New London,CT,Lead,Commercial,CT0950011_LCRR_Inventory_Initial_10.15.24.xlsx,,,CT0950011,TRUE,CT0950011,New London Dept. of Public Utilities
3852 - 43254,E10-232-1,40 WEST ST,New London,CT,Lead,Commercial,CT0950011_LCRR_Inventory_Initial_10.15.24.xlsx,,,CT0950011,TRUE,CT0950011,New London Dept. of Public Utilities
3862 - 39851,F13-137-21,405 BANK ST,New London,CT,Lead,Unknown,CT0950011_LCRR_Inventory_Initial_10.15.24.xlsx,,,CT0950011,TRUE,CT0950011,New London Dept. of Public Utilities
3882 - 40217,E18-75-17,41 FAIRE HARBOUR PL,New London,CT,Lead,Unknown,CT0950011_LCRR_Inventory_Initial_10.15.24.xlsx,,,CT0950011,TRUE,CT0950011,New London Dept. of Public Utilities
3890 - 43261,G16-106-8,41 GOSHEN ST,New London,CT,Lead,Unknown,CT0950011_LCRR_Inventory_Initial_10.15.24.xlsx,,,CT0950011,TRUE,CT0950011,New London Dept. of Public Utilities
3895 - 40038,G21-58-21,41 KEENEY LN,New London,CT,Lead,Residential (SF),CT0950011_LCRR_Inventory_Initial_10.15.24.xlsx,,,CT0950011,TRUE,CT0950011,New London Dept. of Public Utilities
3896 - 43900,D08-257-31,41 LEARNED ST,New London,CT,Lead,Residential (SF),CT0950011_LCRR_Inventory_Initial_10.15.24.xlsx,,,CT0950011,TRUE,CT0950011,New London Dept. of Public Utilities
3913 - 40222,E14-122-11.01,41 SHAW ST,New London,CT,Lead,Residential (SF),CT0950011_LCRR_Inventory_Initial_10.15.24.xlsx,,,CT0950011,TRUE,CT0950011,New London Dept. of Public Utilities
3927 - 42544,F14-109-2,410 BANK ST,New London,CT,Lead,Commercial,CT0950011_LCRR_Inventory_Initial_10.15.24.xlsx,,,CT0950011,TRUE,CT0950011,New London Dept. of Public Utilities
3930 - 42546,F13-137-8,413 BANK ST,New London,CT,Lead,Unknown,CT0950011_LCRR_Inventory_Initial_10.15.24.xlsx,,,CT0950011,TRUE,CT0950011,New London Dept. of Public Utilities
3959 - 40227,B07-265-7,42 FIFTH AVE,New London,CT,Lead,Residential (SF),CT0950011_LCRR_Inventory_Initial_10.15.24.xlsx,,,CT0950011,TRUE,CT0950011,New London Dept. of Public Utilities
3961 - 42551,G16-107-28,42 GOSHEN ST,New London,CT,Lead,Unknown,CT0950011_LCRR_Inventory_Initial_10.15.24.xlsx,,,CT0950011,TRUE,CT0950011,New London Dept. of Public Utilities
3965 - 39863,F12-170-7,42 JAY ST,New London,CT,Lead,Unknown,CT0950011_LCRR_Inventory_Initial_10.15.24.xlsx,,,CT0950011,TRUE,CT0950011,New London Dept. of Public Utilities
3997 - 40232,F08-303-5,422 Williams St,New London,CT,Lead,Commercial,CT0950011_LCRR_Inventory_Initial_10.15.24.xlsx,,,CT0950011,TRUE,CT0950011,New London Dept. of Public Utilities
4023 - 42560,F25-22-8,43 GLENWOOD PL,New London,CT,Lead,Unknown,CT0950011_LCRR_Inventory_Initial_10.15.24.xlsx,,,CT0950011,TRUE,CT0950011,New London Dept. of Public Utilities
4031 - 42758,F12-169-16,43 JAY ST,New London,CT,Lead,Unknown,CT0950011_LCRR_Inventory_Initial_10.15.24.xlsx,,,CT0950011,TRUE,CT0950011,New London Dept. of Public Utilities
4042 - 40234,F08-297-3,43 ROSEMARY ST,New London,CT,Lead,Residential (SF),CT0950011_LCRR_Inventory_Initial_10.15.24.xlsx,,,CT0950011,TRUE,CT0950011,New London Dept. of Public Utilities
4094 - 43291,D17-83-11,44 Mahan St,New London,CT,Lead,Commercial,CT0950011_LCRR_Inventory_Initial_10.15.24.xlsx,,,CT0950011,TRUE,CT0950011,New London Dept. of Public Utilities
4099 - 42767,E18-78-2,44 PERRY ST,New London,CT,Lead,Residential (SF),CT0950011_LCRR_Inventory_Initial_10.15.24.xlsx,,,CT0950011,TRUE,CT0950011,New London Dept. of Public Utilities
4105 - 40429,G16-106-7,44 SMITH ST,New London,CT,Lead,Unknown,CT0950011_LCRR_Inventory_Initial_10.15.24.xlsx,,,CT0950011,TRUE,CT0950011,New London Dept. of Public Utilities
4108 - 39881,F20-60-5,44 THAMES ST,New London,CT,Lead,Unknown,CT0950011_LCRR_Inventory_Initial_10.15.24.xlsx,,,CT0950011,TRUE,CT0950011,New London Dept. of Public Utilities
4114 - 40064,E19-71-28,440 OCEAN AVE,New London,CT,Lead,Commercial,CT0950011_LCRR_Inventory_Initial_10.15.24.xlsx,,,CT0950011,TRUE,CT0950011,New London Dept. of Public Utilities
4124 - 40066,F13-137-3R,447 BANK ST,New London,CT,Lead,Unknown,CT0950011_LCRR_Inventory_Initial_10.15.24.xlsx,,,CT0950011,TRUE,CT0950011,New London Dept. of Public Utilities
4132 - 40435,E19-54-6,449 OCEAN AVE,New London,CT,Lead,Unknown,CT0950011_LCRR_Inventory_Initial_10.15.24.xlsx,,,CT0950011,TRUE,CT0950011,New London Dept. of Public Utilities
4203 - 40073,H23-37-12.01,46 HALL AVE,New London,CT,Lead,Unknown,CT0950011_LCRR_Inventory_Initial_10.15.24.xlsx,,,CT0950011,TRUE,CT0950011,New London Dept. of Public Utilities
4207 - 40074,F12-170-7,46 JAY ST,New London,CT,Lead,Unknown,CT0950011_LCRR_Inventory_Initial_10.15.24.xlsx,,,CT0950011,TRUE,CT0950011,New London Dept. of Public Utilities
4209 - 42575,E16-98-3,46 LINDEN ST,New London,CT,Lead,Unknown,CT0950011_LCRR_Inventory_Initial_10.15.24.xlsx,,,CT0950011,TRUE,CT0950011,New London Dept. of Public Utilities
4221 - 44288,F28-7-10,46 PARK ST.,New London,CT,Lead,Unknown,CT0950011_LCRR_Inventory_Initial_10.15.24.xlsx,,,CT0950011,TRUE,CT0950011,New London Dept. of Public Utilities
4225 - 42961,F20-61-5,46 SHERMAN ST,New London,CT,Lead,Residential (SF),CT0950011_LCRR_Inventory_Initial_10.15.24.xlsx,,,CT0950011,TRUE,CT0950011,New London Dept. of Public Utilities
4228 - 43950,E09-288-9,46 SUMMIT AVE,New London,CT,Lead,Residential (SF),CT0950011_LCRR_Inventory_Initial_10.15.24.xlsx,,,CT0950011,TRUE,CT0950011,New London Dept. of Public Utilities
4236 - 43951,F13-137-3R,461 BANK ST,New London,CT,Lead,Commercial,CT0950011_LCRR_Inventory_Initial_10.15.24.xlsx,,,CT0950011,TRUE,CT0950011,New London Dept. of Public Utilities
4239 - 42579,F07-302-26,461 WILLIAMS ST,New London,CT,Lead,Commercial,CT0950011_LCRR_Inventory_Initial_10.15.24.xlsx,,,CT0950011,TRUE,CT0950011,New London Dept. of Public Utilities
4242 - 43307,F14-109-25,463 Bank St,New London,CT,Lead,Commercial,CT0950011_LCRR_Inventory_Initial_10.15.24.xlsx,,,CT0950011,TRUE,CT0950011,New London Dept. of Public Utilities
4260 - 44020,F13-170-18,47 COIT ST,New London,CT,Lead,Commercial,CT0950011_LCRR_Inventory_Initial_10.15.24.xlsx,,,CT0950011,TRUE,CT0950011,New London Dept. of Public Utilities
4262 - 44292,D14-127-34,47 CUTLER ST,New London,CT,Lead,Residential (SF),CT0950011_LCRR_Inventory_Initial_10.15.24.xlsx,,,CT0950011,TRUE,CT0950011,New London Dept. of Public Utilities
4265 - 40082,G08-244-3,47 EASTERN AVE,New London,CT,Lead,Residential (SF),CT0950011_LCRR_Inventory_Initial_10.15.24.xlsx,,,CT0950011,TRUE,CT0950011,New London Dept. of Public Utilities
4270 - 44293,G21-58-42,47 GRANADA TER,New London,CT,Lead,Residential (SF),CT0950011_LCRR_Inventory_Initial_10.15.24.xlsx,,,CT0950011,TRUE,CT0950011,New London Dept. of Public Utilities
4273 - 44294,G26-18-99,47 HILLSIDE AVE,New London,CT,Lead,Residential (SF),CT0950011_LCRR_Inventory_Initial_10.15.24.xlsx,,,CT0950011,TRUE,CT0950011,New London Dept. of Public Utilities
4279 - 41556,G24-39-2,47 Lower Blvd,New London,CT,Lead,Commercial,CT0950011_LCRR_Inventory_Initial_10.15.24.xlsx,,,CT0950011,TRUE,CT0950011,New London Dept. of Public Utilities
4309 - 42584,G22-43-11,471 PEQUOT AVE,New London,CT,Lead,Unknown,CT0950011_LCRR_Inventory_Initial_10.15.24.xlsx,,,CT0950011,TRUE,CT0950011,New London Dept. of Public Utilities
4315 - 44569,F07-302-29.01,475  WILLIAMS ST,New London,CT,Lead,Commercial,CT0950011_LCRR_Inventory_Initial_10.15.24.xlsx,,,CT0950011,TRUE,CT0950011,New London Dept. of Public Utilities
4336 - 44029,G24-39-2,48 LOWER BLVD,New London,CT,Lead,Residential (SF),CT0950011_LCRR_Inventory_Initial_10.15.24.xlsx,,,CT0950011,TRUE,CT0950011,New London Dept. of Public Utilities
4342 - 41384,E18-78-1,48 PERRY ST,New London,CT,Lead,Residential (SF),CT0950011_LCRR_Inventory_Initial_10.15.24.xlsx,,,CT0950011,TRUE,CT0950011,New London Dept. of Public Utilities
4375 - 44312,E13-153-33,49 BLACKHALL ST,New London,CT,Lead,Commercial,CT0950011_LCRR_Inventory_Initial_10.15.24.xlsx,,,CT0950011,TRUE,CT0950011,New London Dept. of Public Utilities
4397 - 41387,G24-41-41,49 LOWER BLVD,New London,CT,Lead,Unknown,CT0950011_LCRR_Inventory_Initial_10.15.24.xlsx,,,CT0950011,TRUE,CT0950011,New London Dept. of Public Utilities
4417 - 44047,F20-63-36,492 MONTAUK AVE,New London,CT,Lead,Residential (SF),CT0950011_LCRR_Inventory_Initial_10.15.24.xlsx,,,CT0950011,TRUE,CT0950011,New London Dept. of Public Utilities
4420 - 41572,E20-64-34,494 OCEAN AVE,New London,CT,Lead,Residential (SF),CT0950011_LCRR_Inventory_Initial_10.15.24.xlsx,,,CT0950011,TRUE,CT0950011,New London Dept. of Public Utilities
4422 - 44318,F20-61-16,495 MONTAUK AVE,New London,CT,Lead,Residential (SF),CT0950011_LCRR_Inventory_Initial_10.15.24.xlsx,,,CT0950011,TRUE,CT0950011,New London Dept. of Public Utilities
4424 - 41573,E20-64-33,496 OCEAN AVE,New London,CT,Lead,Commercial,CT0950011_LCRR_Inventory_Initial_10.15.24.xlsx,,,CT0950011,TRUE,CT0950011,New London Dept. of Public Utilities
4445 - 42987,F12-172-13,5 JAY ST,New London,CT,Lead,Unknown,CT0950011_LCRR_Inventory_Initial_10.15.24.xlsx,,,CT0950011,TRUE,CT0950011,New London Dept. of Public Utilities
4477 - 41397,G21-43-1,50 GRANADA TER,New London,CT,Lead,Commercial,CT0950011_LCRR_Inventory_Initial_10.15.24.xlsx,,,CT0950011,TRUE,CT0950011,New London Dept. of Public Utilities
4479 - 43627,G26-9-1,50 HILLSIDE AVE,New London,CT,Lead,Residential (SF),CT0950011_LCRR_Inventory_Initial_10.15.24.xlsx,,,CT0950011,TRUE,CT0950011,New London Dept. of Public Utilities
4482 - 42777,E11-175-1,50 LINCOLN AVE,New London,CT,Lead,Residential (SF),CT0950011_LCRR_Inventory_Initial_10.15.24.xlsx,,,CT0950011,TRUE,CT0950011,New London Dept. of Public Utilities
4498 - 42780,F20-61-2,50 SHERMAN ST,New London,CT,Lead,Residential (SF),CT0950011_LCRR_Inventory_Initial_10.15.24.xlsx,,,CT0950011,TRUE,CT0950011,New London Dept. of Public Utilities
4499 - 44325,G16-106-6,50 SMITH ST,New London,CT,Lead,Unknown,CT0950011_LCRR_Inventory_Initial_10.15.24.xlsx,,,CT0950011,TRUE,CT0950011,New London Dept. of Public Utilities
4502 - 42996,F12-148-3,50 WASHINGTON ST,New London,CT,Lead,Commercial,CT0950011_LCRR_Inventory_Initial_10.15.24.xlsx,,,CT0950011,TRUE,CT0950011,New London Dept. of Public Utilities
4509 - 44061,B07-273-3,500 Vauxhall St,New London,CT,Lead,Commercial,CT0950011_LCRR_Inventory_Initial_10.15.24.xlsx,,,CT0950011,TRUE,CT0950011,New London Dept. of Public Utilities
4518 - 40456,E20-54-45,507 OCEAN AVE,New London,CT,Lead,Unknown,CT0950011_LCRR_Inventory_Initial_10.15.24.xlsx,,,CT0950011,TRUE,CT0950011,New London Dept. of Public Utilities
4534 - 40459,F12-173-18,51 FRANKLIN ST,New London,CT,Lead,Commercial,CT0950011_LCRR_Inventory_Initial_10.15.24.xlsx,,,CT0950011,TRUE,CT0950011,New London Dept. of Public Utilities
4538 - 43000,H23-35-7,51 HALL AVE,New London,CT,Lead,Unknown,CT0950011_LCRR_Inventory_Initial_10.15.24.xlsx,,,CT0950011,TRUE,CT0950011,New London Dept. of Public Utilities
4540 - 42788,E13-130-9,51 Jefferson Ave,New London,CT,Lead,Commercial,CT0950011_LCRR_Inventory_Initial_10.15.24.xlsx,,,CT0950011,TRUE,CT0950011,New London Dept. of Public Utilities
4598 - 43005,F20-61-1,52 SHERMAN ST,New London,CT,Lead,Residential (SF),CT0950011_LCRR_Inventory_Initial_10.15.24.xlsx,,,CT0950011,TRUE,CT0950011,New London Dept. of Public Utilities
4599 - 42797,G12-142-12,52 STATE ST,New London,CT,Lead,Commercial,CT0950011_LCRR_Inventory_Initial_10.15.24.xlsx,,,CT0950011,TRUE,CT0950011,New London Dept. of Public Utilities
4610 - 44336,E20-54-48,523 OCEAN AVE,New London,CT,Lead,Unknown,CT0950011_LCRR_Inventory_Initial_10.15.24.xlsx,,,CT0950011,TRUE,CT0950011,New London Dept. of Public Utilities
4612 - 43641,B07-269-6,524 VAUXHALL ST,New London,CT,Lead,Residential (SF),CT0950011_LCRR_Inventory_Initial_10.15.24.xlsx,,,CT0950011,TRUE,CT0950011,New London Dept. of Public Utilities
4633 - 40471,G16-106-10,53 GOSHEN ST,New London,CT,Lead,Unknown,CT0950011_LCRR_Inventory_Initial_10.15.24.xlsx,,,CT0950011,TRUE,CT0950011,New London Dept. of Public Utilities
4658 - 40478,F20-60-39,536 MONTAUK AVE,New London,CT,Lead,Residential (SF),CT0950011_LCRR_Inventory_Initial_10.15.24.xlsx,,,CT0950011,TRUE,CT0950011,New London Dept. of Public Utilities
4660 - 41603,F13-136-13,537 BANK ST,New London,CT,Lead,Commercial,CT0950011_LCRR_Inventory_Initial_10.15.24.xlsx,,,CT0950011,TRUE,CT0950011,New London Dept. of Public Utilities
4676 - 43648,E13-130-11,54 JEFFERSON AVE,New London,CT,Lead,Residential (SF),CT0950011_LCRR_Inventory_Initial_10.15.24.xlsx,,,CT0950011,TRUE,CT0950011,New London Dept. of Public Utilities
4684 - 40484,F13-152-2,54 REED ST,New London,CT,Lead,Residential (SF),CT0950011_LCRR_Inventory_Initial_10.15.24.xlsx,,,CT0950011,TRUE,CT0950011,New London Dept. of Public Utilities
4701 - 43651,F20-57-20,545 MONTAUK AVE,New London,CT,Lead,Unknown,CT0950011_LCRR_Inventory_Initial_10.15.24.xlsx,,,CT0950011,TRUE,CT0950011,New London Dept. of Public Utilities
4721 - 43015,E20-54-29,55 EVERGREEN AVE,New London,CT,Lead,Residential (SF),CT0950011_LCRR_Inventory_Initial_10.15.24.xlsx,,,CT0950011,TRUE,CT0950011,New London Dept. of Public Utilities
4741 - 44351,E10-231-5,55 Vauxhall St,New London,CT,Lead,Residential (SF),CT0950011_LCRR_Inventory_Initial_10.15.24.xlsx,,,CT0950011,TRUE,CT0950011,New London Dept. of Public Utilities
4743 - 40494,E10-215-23,55 WALLER ST,New London,CT,Lead,Residential (SF),CT0950011_LCRR_Inventory_Initial_10.15.24.xlsx,,,CT0950011,TRUE,CT0950011,New London Dept. of Public Utilities
4747 - 44352,E21-55-15,552 OCEAN AVE,New London,CT,Lead,Residential (SF),CT0950011_LCRR_Inventory_Initial_10.15.24.xlsx,,,CT0950011,TRUE,CT0950011,New London Dept. of Public Utilities
4754 - 41614,F21-55-12,558 OCEAN AVE,New London,CT,Lead,Residential (SF),CT0950011_LCRR_Inventory_Initial_10.15.24.xlsx,,,CT0950011,TRUE,CT0950011,New London Dept. of Public Utilities
4761 - 41443,E20-54-32,56 EVERGREEN AVE,New London,CT,Lead,Residential (SF),CT0950011_LCRR_Inventory_Initial_10.15.24.xlsx,,,CT0950011,TRUE,CT0950011,New London Dept. of Public Utilities
4788 - 44093,H23-37-5,563 PEQUOT AVE,New London,CT,Lead,Residential (SF),CT0950011_LCRR_Inventory_Initial_10.15.24.xlsx,,,CT0950011,TRUE,CT0950011,New London Dept. of Public Utilities
4797 - 41446,F27-10-48,57 BAYSHORE DR,New London,CT,Lead,Residential (SF),CT0950011_LCRR_Inventory_Initial_10.15.24.xlsx,,,CT0950011,TRUE,CT0950011,New London Dept. of Public Utilities
4829 - 44357,F14-110-1.06,571 Bank St,New London,CT,Lead,Commercial,CT0950011_LCRR_Inventory_Initial_10.15.24.xlsx,,,CT0950011,TRUE,CT0950011,New London Dept. of Public Utilities
4832 - 43663,F14-136-17,573 BANK ST,New London,CT,Lead,Unknown,CT0950011_LCRR_Inventory_Initial_10.15.24.xlsx,,,CT0950011,TRUE,CT0950011,New London Dept. of Public Utilities
4837 - 43665,F21-44-25,579 MONTAUK AVE,New London,CT,Lead,Unknown,CT0950011_LCRR_Inventory_Initial_10.15.24.xlsx,,,CT0950011,TRUE,CT0950011,New London Dept. of Public Utilities
4842 - 40506,F11-212-8,58 BRAINARD ST,New London,CT,Lead,Unknown,CT0950011_LCRR_Inventory_Initial_10.15.24.xlsx,,,CT0950011,TRUE,CT0950011,New London Dept. of Public Utilities
4845 - 42834,D14-127-19,58 COLMAN ST,New London,CT,Lead,Residential (SF),CT0950011_LCRR_Inventory_Initial_10.15.24.xlsx,,,CT0950011,TRUE,CT0950011,New London Dept. of Public Utilities
4854 - 43668,E13-130-10,58 JEFFERSON AVE,New London,CT,Lead,Unknown,CT0950011_LCRR_Inventory_Initial_10.15.24.xlsx,,,CT0950011,TRUE,CT0950011,New London Dept. of Public Utilities
4886 - 41457,G16-106-12,59 GOSHEN ST,New London,CT,Lead,Unknown,CT0950011_LCRR_Inventory_Initial_10.15.24.xlsx,,,CT0950011,TRUE,CT0950011,New London Dept. of Public Utilities
4889 - 41458,E16-99-21,59 LINDEN ST,New London,CT,Lead,Commercial,CT0950011_LCRR_Inventory_Initial_10.15.24.xlsx,,,CT0950011,TRUE,CT0950011,New London Dept. of Public Utilities
4908 - 41462,F14-136-18,595 BANK ST,New London,CT,Lead,Commercial,CT0950011_LCRR_Inventory_Initial_10.15.24.xlsx,,,CT0950011,TRUE,CT0950011,New London Dept. of Public Utilities
4909 - 43037,F21-44-27,595 MONTAUK AVE,New London,CT,Lead,Residential (SF),CT0950011_LCRR_Inventory_Initial_10.15.24.xlsx,,,CT0950011,TRUE,CT0950011,New London Dept. of Public Utilities
4910 - 44370,B08-264-6,597 BROAD ST,New London,CT,Lead,Commercial,CT0950011_LCRR_Inventory_Initial_10.15.24.xlsx,,,CT0950011,TRUE,CT0950011,New London Dept. of Public Utilities
4929 - 44373,E14-122-26,6 MITCHELL CT,New London,CT,Lead,Commercial,CT0950011_LCRR_Inventory_Initial_10.15.24.xlsx,,,CT0950011,TRUE,CT0950011,New London Dept. of Public Utilities
4930 - 44114,G28-2-21,6 MOTT AVE,New London,CT,Lead,Residential (SF),CT0950011_LCRR_Inventory_Initial_10.15.24.xlsx,,,CT0950011,TRUE,CT0950011,New London Dept. of Public Utilities
4938 - 41465,E14-134-8,6 TRUMAN ST,New London,CT,Lead,Commercial,CT0950011_LCRR_Inventory_Initial_10.15.24.xlsx,,,CT0950011,TRUE,CT0950011,New London Dept. of Public Utilities
4948 - 41639,D14-127-18,60 COLMAN ST,New London,CT,Lead,Unknown,CT0950011_LCRR_Inventory_Initial_10.15.24.xlsx,,,CT0950011,TRUE,CT0950011,New London Dept. of Public Utilities
5020 - 42854,E05-316-2A,619 Williams St,New London,CT,Lead,Commercial,CT0950011_LCRR_Inventory_Initial_10.15.24.xlsx,,,CT0950011,TRUE,CT0950011,New London Dept. of Public Utilities
5023 - 44382,F13-152-1,62 COIT ST,New London,CT,Lead,Residential (SF),CT0950011_LCRR_Inventory_Initial_10.15.24.xlsx,,,CT0950011,TRUE,CT0950011,New London Dept. of Public Utilities
5030 - 43052,E12-166-6,62 HEMPSTEAD ST,New London,CT,Lead,Unknown,CT0950011_LCRR_Inventory_Initial_10.15.24.xlsx,,,CT0950011,TRUE,CT0950011,New London Dept. of Public Utilities
5032 - 42855,F13-170-2,62 JAY ST,New London,CT,Lead,Residential (SF),CT0950011_LCRR_Inventory_Initial_10.15.24.xlsx,,,CT0950011,TRUE,CT0950011,New London Dept. of Public Utilities
5036 - 43053,G28-2-4,62 MOTT AVE,New London,CT,Lead,Residential (SF),CT0950011_LCRR_Inventory_Initial_10.15.24.xlsx,,,CT0950011,TRUE,CT0950011,New London Dept. of Public Utilities
5061 - 43058,G11-202-1,63 EUGENE ONEILL DR,New London,CT,Lead,Unknown,CT0950011_LCRR_Inventory_Initial_10.15.24.xlsx,,,CT0950011,TRUE,CT0950011,New London Dept. of Public Utilities
5068 - 42858,F12-171-1,63 Huntington St,New London,CT,Lead,Unknown,CT0950011_LCRR_Inventory_Initial_10.15.24.xlsx,,,CT0950011,TRUE,CT0950011,New London Dept. of Public Utilities
5090 - 40522,E14-136-23,637 BANK ST,New London,CT,Lead,Unknown,CT0950011_LCRR_Inventory_Initial_10.15.24.xlsx,,,CT0950011,TRUE,CT0950011,New London Dept. of Public Utilities
5091 - 44133,C09-218-8.2,638 Broad St,New London,CT,Lead,Commercial,CT0950011_LCRR_Inventory_Initial_10.15.24.xlsx,,,CT0950011,TRUE,CT0950011,New London Dept. of Public Utilities
5108 - 42864,E13-130-9,64 JEFFERSON AVE,New London,CT,Lead,Residential (SF),CT0950011_LCRR_Inventory_Initial_10.15.24.xlsx,,,CT0950011,TRUE,CT0950011,New London Dept. of Public Utilities
5111 - 40526,G24-39-26,64 LOWER BLVD,New London,CT,Lead,Residential (SF),CT0950011_LCRR_Inventory_Initial_10.15.24.xlsx,,,CT0950011,TRUE,CT0950011,New London Dept. of Public Utilities
5140 - 41661,E10-234-7,65 GRANITE ST,New London,CT,Lead,Unknown,CT0950011_LCRR_Inventory_Initial_10.15.24.xlsx,,,CT0950011,TRUE,CT0950011,New London Dept. of Public Utilities
5175 - 44410,E20-54-31,66 EVERGREEN AVE,New London,CT,Lead,Residential (SF),CT0950011_LCRR_Inventory_Initial_10.15.24.xlsx,,,CT0950011,TRUE,CT0950011,New London Dept. of Public Utilities
5186 - 42874,G15-106-4,66 SMITH ST,New London,CT,Lead,Unknown,CT0950011_LCRR_Inventory_Initial_10.15.24.xlsx,,,CT0950011,TRUE,CT0950011,New London Dept. of Public Utilities
5228 - 41675,E05-314-31,674 WILLIAMS ST,New London,CT,Lead,Unknown,CT0950011_LCRR_Inventory_Initial_10.15.24.xlsx,,,CT0950011,TRUE,CT0950011,New London Dept. of Public Utilities
5229 - 41511,F22-44-86,676 OCEAN AVE,New London,CT,Lead,Unknown,CT0950011_LCRR_Inventory_Initial_10.15.24.xlsx,,,CT0950011,TRUE,CT0950011,New London Dept. of Public Utilities
5242 - 43713,G24-40-4,68 LOWER BLVD,New London,CT,Lead,Residential (SF),CT0950011_LCRR_Inventory_Initial_10.15.24.xlsx,,,CT0950011,TRUE,CT0950011,New London Dept. of Public Utilities
5245 - 41512,B07-265-4,68 PHILLIPS ST,New London,CT,Lead,Residential (SF),CT0950011_LCRR_Inventory_Initial_10.15.24.xlsx,,,CT0950011,TRUE,CT0950011,New London Dept. of Public Utilities
5334 - 41688,D14-128-10,70 COLMAN ST,New London,CT,Lead,Commercial,CT0950011_LCRR_Inventory_Initial_10.15.24.xlsx,,,CT0950011,TRUE,CT0950011,New London Dept. of Public Utilities
5367 - 42899,D14-126-42,71 COLMAN ST,New London,CT,Lead,Unknown,CT0950011_LCRR_Inventory_Initial_10.15.24.xlsx,,,CT0950011,TRUE,CT0950011,New London Dept. of Public Utilities
5387 - 42902,G22-44-37,713 Montauk Ave,New London,CT,Lead,Commercial,CT0950011_LCRR_Inventory_Initial_10.15.24.xlsx,,,CT0950011,TRUE,CT0950011,New London Dept. of Public Utilities
5414 - 43730,F07-301-10,72 ROSEMARY ST,New London,CT,Lead,Residential (SF),CT0950011_LCRR_Inventory_Initial_10.15.24.xlsx,,,CT0950011,TRUE,CT0950011,New London Dept. of Public Utilities
5424 - 42908,E04-314-24,724 WILLIAMS ST,New London,CT,Lead,Residential (SF),CT0950011_LCRR_Inventory_Initial_10.15.24.xlsx,,,CT0950011,TRUE,CT0950011,New London Dept. of Public Utilities
5425 - 40560,E14-134-10,727 BANK ST,New London,CT,Lead,Commercial,CT0950011_LCRR_Inventory_Initial_10.15.24.xlsx,,,CT0950011,TRUE,CT0950011,New London Dept. of Public Utilities
5442 - 40564,G24-41-46,73 LOWER BLVD,New London,CT,Lead,Residential (SF),CT0950011_LCRR_Inventory_Initial_10.15.24.xlsx,,,CT0950011,TRUE,CT0950011,New London Dept. of Public Utilities
5446 - 44187,F28-8-16,73 PARK ST,New London,CT,Lead,Residential (SF),CT0950011_LCRR_Inventory_Initial_10.15.24.xlsx,,,CT0950011,TRUE,CT0950011,New London Dept. of Public Utilities
5476 - 41708,F19-65-12,74 SCHOOL ST,New London,CT,Lead,Residential (SF),CT0950011_LCRR_Inventory_Initial_10.15.24.xlsx,,,CT0950011,TRUE,CT0950011,New London Dept. of Public Utilities
5483 - 41709,F23-44-75,740 OCEAN AVE,New London,CT,Lead,Residential (SF),CT0950011_LCRR_Inventory_Initial_10.15.24.xlsx,,,CT0950011,TRUE,CT0950011,New London Dept. of Public Utilities
5487 - 44190,E14-134-12,745 BANK ST,New London,CT,Lead,Commercial,CT0950011_LCRR_Inventory_Initial_10.15.24.xlsx,,,CT0950011,TRUE,CT0950011,New London Dept. of Public Utilities
5500 - 44450,E10-234-9,75 GRANITE ST,New London,CT,Lead,Commercial,CT0950011_LCRR_Inventory_Initial_10.15.24.xlsx,,,CT0950011,TRUE,CT0950011,New London Dept. of Public Utilities
5513 - 40579,E14-134-13,751 Bank St,New London,CT,Lead,Commercial,CT0950011_LCRR_Inventory_Initial_10.15.24.xlsx,,,CT0950011,TRUE,CT0950011,New London Dept. of Public Utilities
5514 - 42917,E04-316-2,751 Williams St,New London,CT,Lead,Commercial,CT0950011_LCRR_Inventory_Initial_10.15.24.xlsx,,,CT0950011,TRUE,CT0950011,New London Dept. of Public Utilities
5537 - 42255,F28-5-1,76 NEPTUNE AVE,New London,CT,Lead,Residential (SF),CT0950011_LCRR_Inventory_Initial_10.15.24.xlsx,,,CT0950011,TRUE,CT0950011,New London Dept. of Public Utilities
5555 - 44458,E14-134-13,767 BANK ST,New London,CT,Lead,Commercial,CT0950011_LCRR_Inventory_Initial_10.15.24.xlsx,,,CT0950011,TRUE,CT0950011,New London Dept. of Public Utilities
5556 - 42259,G23-41-18,767 MONTAUK AVE,New London,CT,Lead,Residential (SF),CT0950011_LCRR_Inventory_Initial_10.15.24.xlsx,,,CT0950011,TRUE,CT0950011,New London Dept. of Public Utilities
5596 - 41722,F23-26-1,774 OCEAN AVE,New London,CT,Lead,Residential (SF),CT0950011_LCRR_Inventory_Initial_10.15.24.xlsx,,,CT0950011,TRUE,CT0950011,New London Dept. of Public Utilities
5599 - 42927,F23-45-10,777 OCEAN AVE,New London,CT,Lead,Residential (SF),CT0950011_LCRR_Inventory_Initial_10.15.24.xlsx,,,CT0950011,TRUE,CT0950011,New London Dept. of Public Utilities
5621 - 43754,F13-149-19,78 WASHINGTON ST,New London,CT,Lead,Commercial,CT0950011_LCRR_Inventory_Initial_10.15.24.xlsx,,,CT0950011,TRUE,CT0950011,New London Dept. of Public Utilities
5644 - 43125,G23-37-29,796 MONTAUK AVE,New London,CT,Lead,Residential (SF),CT0950011_LCRR_Inventory_Initial_10.15.24.xlsx,,,CT0950011,TRUE,CT0950011,New London Dept. of Public Utilities
5646 - 42931,G12-141-5,8 BANK ST,New London,CT,Lead,Commercial,CT0950011_LCRR_Inventory_Initial_10.15.24.xlsx,,,CT0950011,TRUE,CT0950011,New London Dept. of Public Utilities
5648 - 44470,F10-235-8,8 BRISTOL ST,New London,CT,Lead,Residential (SF),CT0950011_LCRR_Inventory_Initial_10.15.24.xlsx,,,CT0950011,TRUE,CT0950011,New London Dept. of Public Utilities
5658 - 43761,F26-10-29,8 GREENWAY RD,New London,CT,Lead,Unknown,CT0950011_LCRR_Inventory_Initial_10.15.24.xlsx,,,CT0950011,TRUE,CT0950011,New London Dept. of Public Utilities
5699 - 43129,F21-44-24,80 PLANT ST,New London,CT,Lead,Residential (SF),CT0950011_LCRR_Inventory_Initial_10.15.24.xlsx,,,CT0950011,TRUE,CT0950011,New London Dept. of Public Utilities
5712 - 43312,F24-23-14,807 OCEAN AVE,New London,CT,Lead,Residential (SF),CT0950011_LCRR_Inventory_Initial_10.15.24.xlsx,,,CT0950011,TRUE,CT0950011,New London Dept. of Public Utilities
5720 - 44474,E18-75-24,81 FAIRE HARBOUR PL,New London,CT,Lead,Residential (SF),CT0950011_LCRR_Inventory_Initial_10.15.24.xlsx,,,CT0950011,TRUE,CT0950011,New London Dept. of Public Utilities
5738 - 40608,G23-37-26,810 MONTAUK AVE,New London,CT,Lead,Unknown,CT0950011_LCRR_Inventory_Initial_10.15.24.xlsx,,,CT0950011,TRUE,CT0950011,New London Dept. of Public Utilities
5749 - 40609,D14-128-7,82 COLMAN ST,New London,CT,Lead,Residential (SF),CT0950011_LCRR_Inventory_Initial_10.15.24.xlsx,,,CT0950011,TRUE,CT0950011,New London Dept. of Public Utilities
5753 - 43773,F28-6-3,82 NEPTUNE AVE,New London,CT,Lead,Unknown,CT0950011_LCRR_Inventory_Initial_10.15.24.xlsx,,,CT0950011,TRUE,CT0950011,New London Dept. of Public Utilities
5759 - 42368,F13-153-19,82 TRUMAN ST,New London,CT,Lead,Commercial,CT0950011_LCRR_Inventory_Initial_10.15.24.xlsx,,,CT0950011,TRUE,CT0950011,New London Dept. of Public Utilities
5760 - 44219,G16-105-13,82 TRUMBULL ST,New London,CT,Lead,Unknown,CT0950011_LCRR_Inventory_Initial_10.15.24.xlsx,,,CT0950011,TRUE,CT0950011,New London Dept. of Public Utilities
5761 - 42942,E14-134-24,82 WEST COIT ST,New London,CT,Lead,Commercial,CT0950011_LCRR_Inventory_Initial_10.15.24.xlsx,,,CT0950011,TRUE,CT0950011,New London Dept. of Public Utilities
5773 - 42288,E12-167-1,83 HEMPSTEAD ST,New London,CT,Lead,Residential (SF),CT0950011_LCRR_Inventory_Initial_10.15.24.xlsx,,,CT0950011,TRUE,CT0950011,New London Dept. of Public Utilities
5774 - 42945,F12-198-1,83 HUNTINGTON ST,New London,CT,Lead,Unknown,CT0950011_LCRR_Inventory_Initial_10.15.24.xlsx,,,CT0950011,TRUE,CT0950011,New London Dept. of Public Utilities
5775 - 43775,D11-185-25,83 LINCOLN AVE,New London,CT,Lead,Commercial,CT0950011_LCRR_Inventory_Initial_10.15.24.xlsx,,,CT0950011,TRUE,CT0950011,New London Dept. of Public Utilities
5776 - 43319,G24-26-27,83 LOWER BLVD,New London,CT,Lead,Residential (SF),CT0950011_LCRR_Inventory_Initial_10.15.24.xlsx,,,CT0950011,TRUE,CT0950011,New London Dept. of Public Utilities
5792 - 43778,H26-14-12.02,836 PEQUOT AVE,New London,CT,Lead,Residential (SF),CT0950011_LCRR_Inventory_Initial_10.15.24.xlsx,,,CT0950011,TRUE,CT0950011,New London Dept. of Public Utilities
5820 - 40616,F24-23-19,845 OCEAN AVE,New London,CT,Lead,Commercial,CT0950011_LCRR_Inventory_Initial_10.15.24.xlsx,,,CT0950011,TRUE,CT0950011,New London Dept. of Public Utilities
5823 - 43956,E14-119-10,848 BANK ST,New London,CT,Lead,Residential (SF),CT0950011_LCRR_Inventory_Initial_10.15.24.xlsx,,,CT0950011,TRUE,CT0950011,New London Dept. of Public Utilities
5844 - 42380,G24-38-4,851 MONTAUK AVE,New London,CT,Lead,Residential (SF),CT0950011_LCRR_Inventory_Initial_10.15.24.xlsx,,,CT0950011,TRUE,CT0950011,New London Dept. of Public Utilities
5846 - 44229,E14-119-9,852 BANK ST,New London,CT,Lead,Commercial,CT0950011_LCRR_Inventory_Initial_10.15.24.xlsx,,,CT0950011,TRUE,CT0950011,New London Dept. of Public Utilities
5851 - 42381,E14-126-23,857 BANK ST,New London,CT,Lead,Commercial,CT0950011_LCRR_Inventory_Initial_10.15.24.xlsx,,,CT0950011,TRUE,CT0950011,New London Dept. of Public Utilities
5860 - 42383,F11-211-10,86 Broad St,New London,CT,Lead,Commercial,CT0950011_LCRR_Inventory_Initial_10.15.24.xlsx,,,CT0950011,TRUE,CT0950011,New London Dept. of Public Utilities
5861 - 41330,D14-128-5,86 COLMAN ST,New London,CT,Lead,Commercial,CT0950011_LCRR_Inventory_Initial_10.15.24.xlsx,,,CT0950011,TRUE,CT0950011,New London Dept. of Public Utilities
5862 - 44497,G12-140-5,86 GOLDEN ST,New London,CT,Lead,Commercial,CT0950011_LCRR_Inventory_Initial_10.15.24.xlsx,,,CT0950011,TRUE,CT0950011,New London Dept. of Public Utilities
5873 - 42300,F24-23-20,861 OCEAN AVE,New London,CT,Lead,Residential (SF),CT0950011_LCRR_Inventory_Initial_10.15.24.xlsx,,,CT0950011,TRUE,CT0950011,New London Dept. of Public Utilities
5878 - 43963,E15-119-4,866 BANK ST,New London,CT,Lead,Commercial,CT0950011_LCRR_Inventory_Initial_10.15.24.xlsx,,,CT0950011,TRUE,CT0950011,New London Dept. of Public Utilities
5885 - 42385,F11-211-13,87 BROAD ST,New London,CT,Lead,Unknown,CT0950011_LCRR_Inventory_Initial_10.15.24.xlsx,,,CT0950011,TRUE,CT0950011,New London Dept. of Public Utilities
5898 - 43330,E15-119-2,874 BANK ST,New London,CT,Lead,Unknown,CT0950011_LCRR_Inventory_Initial_10.15.24.xlsx,,,CT0950011,TRUE,CT0950011,New London Dept. of Public Utilities
5903 - 43379,D14-118-104,879 BANK ST,New London,CT,Lead,Commercial,CT0950011_LCRR_Inventory_Initial_10.15.24.xlsx,,,CT0950011,TRUE,CT0950011,New London Dept. of Public Utilities
5914 - 43969,F19-65-7,88 SCHOOL ST,New London,CT,Lead,Residential (SF),CT0950011_LCRR_Inventory_Initial_10.15.24.xlsx,,,CT0950011,TRUE,CT0950011,New London Dept. of Public Utilities
5922 - 41334,D15-118-106,887 BANK ST,New London,CT,Lead,Commercial,CT0950011_LCRR_Inventory_Initial_10.15.24.xlsx,,,CT0950011,TRUE,CT0950011,New London Dept. of Public Utilities
5925 - 44506,F11-211-14,89 BROAD ST,New London,CT,Lead,Commercial,CT0950011_LCRR_Inventory_Initial_10.15.24.xlsx,,,CT0950011,TRUE,CT0950011,New London Dept. of Public Utilities
5932 - 43383,F28-7-13,89 NEPTUNE AVE,New London,CT,Lead,Unknown,CT0950011_LCRR_Inventory_Initial_10.15.24.xlsx,,,CT0950011,TRUE,CT0950011,New London Dept. of Public Utilities
5934 - 41335,F18-69-11,89 PEQUOT AVE,New London,CT,Lead,Unknown,CT0950011_LCRR_Inventory_Initial_10.15.24.xlsx,,,CT0950011,TRUE,CT0950011,New London Dept. of Public Utilities
5942 - 44241,D15-118-107,891 BANK ST,New London,CT,Lead,Residential (SF),CT0950011_LCRR_Inventory_Initial_10.15.24.xlsx,,,CT0950011,TRUE,CT0950011,New London Dept. of Public Utilities
5944 - 44508,D15-116-5,892 BANK ST,New London,CT,Lead,Unknown,CT0950011_LCRR_Inventory_Initial_10.15.24.xlsx,,,CT0950011,TRUE,CT0950011,New London Dept. of Public Utilities
5948 - 43972,D15-116-4,896 BANK ST,New London,CT,Lead,Unknown,CT0950011_LCRR_Inventory_Initial_10.15.24.xlsx,,,CT0950011,TRUE,CT0950011,New London Dept. of Public Utilities
5952 - 43974,D15-118-109,899 BANK ST,New London,CT,Lead,Residential (SF),CT0950011_LCRR_Inventory_Initial_10.15.24.xlsx,,,CT0950011,TRUE,CT0950011,New London Dept. of Public Utilities
5957 - 43975,G12-142-14,9 Bank St,New London,CT,Lead,Commercial,CT0950011_LCRR_Inventory_Initial_10.15.24.xlsx,,,CT0950011,TRUE,CT0950011,New London Dept. of Public Utilities
5961 - 42309,F13-149-13,9 BREWER ST,New London,CT,Lead,Commercial,CT0950011_LCRR_Inventory_Initial_10.15.24.xlsx,,,CT0950011,TRUE,CT0950011,New London Dept. of Public Utilities
5981 - 42312,F12-172-14,9 JAY ST,New London,CT,Lead,Commercial,CT0950011_LCRR_Inventory_Initial_10.15.24.xlsx,,,CT0950011,TRUE,CT0950011,New London Dept. of Public Utilities
5988 - 43345,G28-4-9,9 MOTT AVE,New London,CT,Lead,Residential (SF),CT0950011_LCRR_Inventory_Initial_10.15.24.xlsx,,,CT0950011,TRUE,CT0950011,New London Dept. of Public Utilities
6006 - 43979,C08-259-2,9 WALDO ST,New London,CT,Lead,Unknown,CT0950011_LCRR_Inventory_Initial_10.15.24.xlsx,,,CT0950011,TRUE,CT0950011,New London Dept. of Public Utilities
6014 - 43389,F11-196-13,90 BROAD ST,New London,CT,Lead,Residential (SF),CT0950011_LCRR_Inventory_Initial_10.15.24.xlsx,,,CT0950011,TRUE,CT0950011,New London Dept. of Public Utilities
6020 - 43348,E24-23-2,90 NILES HILL RD,New London,CT,Lead,Residential (SF),CT0950011_LCRR_Inventory_Initial_10.15.24.xlsx,,,CT0950011,TRUE,CT0950011,New London Dept. of Public Utilities
6022 - 44252,F19-65-6,90 SCHOOL ST,New London,CT,Lead,Residential (SF),CT0950011_LCRR_Inventory_Initial_10.15.24.xlsx,,,CT0950011,TRUE,CT0950011,New London Dept. of Public Utilities
6030 - 43391,E10-230-2,90 WEST ST,New London,CT,Lead,Commercial,CT0950011_LCRR_Inventory_Initial_10.15.24.xlsx,,,CT0950011,TRUE,CT0950011,New London Dept. of Public Utilities
6038 - 42402,D15-118-110,903 BANK ST,New London,CT,Lead,Unknown,CT0950011_LCRR_Inventory_Initial_10.15.24.xlsx,,,CT0950011,TRUE,CT0950011,New London Dept. of Public Utilities
6041 - 44254,G27-2-35,906 Pequot Ave,New London,CT,Lead,Commercial,CT0950011_LCRR_Inventory_Initial_10.15.24.xlsx,,,CT0950011,TRUE,CT0950011,New London Dept. of Public Utilities
6042 - 44525,F13-152-16,91 BLINMAN ST,New London,CT,Lead,Unknown,CT0950011_LCRR_Inventory_Initial_10.15.24.xlsx,,,CT0950011,TRUE,CT0950011,New London Dept. of Public Utilities
6043 - 43350,D13-126-46,91 COLMAN ST,New London,CT,Lead,Unknown,CT0950011_LCRR_Inventory_Initial_10.15.24.xlsx,,,CT0950011,TRUE,CT0950011,New London Dept. of Public Utilities
6060 - 43395,D15-118-129,915 BANK ST,New London,CT,Lead,Unknown,CT0950011_LCRR_Inventory_Initial_10.15.24.xlsx,,,CT0950011,TRUE,CT0950011,New London Dept. of Public Utilities
6061 - 43396,D15-116-1,916 BANK ST,New London,CT,Lead,Residential (SF),CT0950011_LCRR_Inventory_Initial_10.15.24.xlsx,,,CT0950011,TRUE,CT0950011,New London Dept. of Public Utilities
6063 - 42404,F25-21-20,917 OCEAN AVE,New London,CT,Lead,Residential (SF),CT0950011_LCRR_Inventory_Initial_10.15.24.xlsx,,,CT0950011,TRUE,CT0950011,New London Dept. of Public Utilities
6065 - 41351,G12-200-6,92 EUGENE ONEILL DR,New London,CT,Lead,Commercial,CT0950011_LCRR_Inventory_Initial_10.15.24.xlsx,,,CT0950011,TRUE,CT0950011,New London Dept. of Public Utilities
6085 - 43994,G24-26-28,93 LOWER BLVD,New London,CT,Lead,Unknown,CT0950011_LCRR_Inventory_Initial_10.15.24.xlsx,,,CT0950011,TRUE,CT0950011,New London Dept. of Public Utilities
6096 - 44532,D15-117-35,932 BANK ST,New London,CT,Lead,Residential (SF),CT0950011_LCRR_Inventory_Initial_10.15.24.xlsx,,,CT0950011,TRUE,CT0950011,New London Dept. of Public Utilities
6104 - 43999,G27-13-9.02,939 PEQUOT AVE,New London,CT,Lead,Residential (SF),CT0950011_LCRR_Inventory_Initial_10.15.24.xlsx,,,CT0950011,TRUE,CT0950011,New London Dept. of Public Utilities
6107 - 42330,F13-136-8,94 BLINMAN ST,New London,CT,Lead,Unknown,CT0950011_LCRR_Inventory_Initial_10.15.24.xlsx,,,CT0950011,TRUE,CT0950011,New London Dept. of Public Utilities
6116 - 44265,E15-114-32,94 OCEAN AVE,New London,CT,Lead,Unknown,CT0950011_LCRR_Inventory_Initial_10.15.24.xlsx,,,CT0950011,TRUE,CT0950011,New London Dept. of Public Utilities
6120 - 43359,D16-97-18,94 SQUIRE ST,New London,CT,Lead,Unknown,CT0950011_LCRR_Inventory_Initial_10.15.24.xlsx,,,CT0950011,TRUE,CT0950011,New London Dept. of Public Utilities
6130 - 44003,D13-126-47,95 COLMAN ST,New London,CT,Lead,Unknown,CT0950011_LCRR_Inventory_Initial_10.15.24.xlsx,,,CT0950011,TRUE,CT0950011,New London Dept. of Public Utilities
6131 - 41358,G23-44-48,95 GARDNER AVE,New London,CT,Lead,Commercial,CT0950011_LCRR_Inventory_Initial_10.15.24.xlsx,,,CT0950011,TRUE,CT0950011,New London Dept. of Public Utilities
6132 - 44004,G24-39-11,95 GLENWOOD AVE,New London,CT,Lead,Unknown,CT0950011_LCRR_Inventory_Initial_10.15.24.xlsx,,,CT0950011,TRUE,CT0950011,New London Dept. of Public Utilities
6152 - 41362,D15-117-27,958 BANK ST,New London,CT,Lead,Unknown,CT0950011_LCRR_Inventory_Initial_10.15.24.xlsx,,,CT0950011,TRUE,CT0950011,New London Dept. of Public Utilities
6154 - 43410,G27-9-6,959 PEQUOT AVE,New London,CT,Lead,Unknown,CT0950011_LCRR_Inventory_Initial_10.15.24.xlsx,,,CT0950011,TRUE,CT0950011,New London Dept. of Public Utilities
6166 - 44540,E19-65-3,96 SCHOOL ST,New London,CT,Lead,Residential (SF),CT0950011_LCRR_Inventory_Initial_10.15.24.xlsx,,,CT0950011,TRUE,CT0950011,New London Dept. of Public Utilities
6168 - 42340,D15-117-27,960 BANK ST,New London,CT,Lead,Commercial,CT0950011_LCRR_Inventory_Initial_10.15.24.xlsx,,,CT0950011,TRUE,CT0950011,New London Dept. of Public Utilities
6172 - 41364,D15-117-26,962 BANK ST,New London,CT,Lead,Residential (SF),CT0950011_LCRR_Inventory_Initial_10.15.24.xlsx,,,CT0950011,TRUE,CT0950011,New London Dept. of Public Utilities
6192 - 43417,D15-117-23,970 BANK ST,New London,CT,Lead,Residential (SF),CT0950011_LCRR_Inventory_Initial_10.15.24.xlsx,,,CT0950011,TRUE,CT0950011,New London Dept. of Public Utilities
6199 - 42413,D13-128-3,98 COLMAN ST,New London,CT,Lead,Residential (SF),CT0950011_LCRR_Inventory_Initial_10.15.24.xlsx,,,CT0950011,TRUE,CT0950011,New London Dept. of Public Utilities
6208 - 44543,D16-117-21,980 BANK ST,New London,CT,Lead,Residential (SF),CT0950011_LCRR_Inventory_Initial_10.15.24.xlsx,,,CT0950011,TRUE,CT0950011,New London Dept. of Public Utilities
6209 - 44277,D15-118-151,981 BANK ST,New London,CT,Lead,Unknown,CT0950011_LCRR_Inventory_Initial_10.15.24.xlsx,,,CT0950011,TRUE,CT0950011,New London Dept. of Public Utilities
6214 - 44015,D13-126-48,99 COLMAN ST,New London,CT,Lead,Residential (SF),CT0950011_LCRR_Inventory_Initial_10.15.24.xlsx,,,CT0950011,TRUE,CT0950011,New London Dept. of Public Utilities
6223 - 42417,D15-118-153,991 BANK ST,New London,CT,Lead,Residential (SF),CT0950011_LCRR_Inventory_Initial_10.15.24.xlsx,,,CT0950011,TRUE,CT0950011,New London Dept. of Public Utilities
6225 - 44279,D16-118-154,993 BANK ST,New London,CT,Lead,Commercial,CT0950011_LCRR_Inventory_Initial_10.15.24.xlsx,,,CT0950011,TRUE,CT0950011,New London Dept. of Public Utilities
6228 - 43369,D16-118-155,999 BANK ST,New London,CT,Lead,Residential (SF),CT0950011_LCRR_Inventory_Initial_10.15.24.xlsx,,,CT0950011,TRUE,CT0950011,New London Dept. of Public Utilities
6238 - 44578,,51 BLACKHALL ST,New London,CT,Lead,Residential (SF),CT0950011_LCRR_Inventory_Initial_10.15.24.xlsx,,,CT0950011,TRUE,CT0950011,New London Dept. of Public Utilities
6239 - 44579,,84 WEST COIT ST,New London,CT,Lead,Residential (SF),CT0950011_LCRR_Inventory_Initial_10.15.24.xlsx,,,CT0950011,TRUE,CT0950011,New London Dept. of Public Utilities